{
 "cells": [
  {
   "cell_type": "code",
   "execution_count": 25,
   "metadata": {},
   "outputs": [],
   "source": [
    "from metar import Metar\n",
    "import re\n",
    "import datetime\n",
    "import warnings\n",
    "import logging"
   ]
  },
  {
   "cell_type": "code",
   "execution_count": 22,
   "metadata": {},
   "outputs": [],
   "source": [
    "# Test Function\n",
    "def decode(message):\n",
    "    obs = Metar.Metar(message,strict=False)\n",
    "    print(obs.string())\n",
    "# Using Metar Function\n",
    "def ConvertToCSV(message):\n",
    "    obs = Metar.Metar(message,strict=False)\n",
    "    line = []\n",
    "    # Station ID\n",
    "    line.append(obs.station_id)\n",
    "    # Time\n",
    "    line.append(obs.time.ctime())\n",
    "    # temperature\n",
    "    line.append(obs.temp.string(\"C\"))\n",
    "    # dewpt\n",
    "    line.append(obs.dewpt.string(\"C\"))\n",
    "    # wind\n",
    "    line.append(obs.wind())\n",
    "    # visibility\n",
    "    line.append(obs.visibility())\n",
    "    # pressure\n",
    "    line.append(obs.press.string(\"mb\"))\n",
    "    # sky\n",
    "    line.append(obs.sky_conditions(\", \"))\n",
    "    # Remark\n",
    "    line.append(\"- \" + \" \".join(obs._unparsed_remarks))\n",
    "    \n",
    "    return '\\t'.join(line)"
   ]
  },
  {
   "cell_type": "code",
   "execution_count": 47,
   "metadata": {},
   "outputs": [],
   "source": [
    "# Grab Raw Data \n",
    "# regular expressions to decode various groups of the METAR code\n",
    "MISSING_RE = re.compile(r\"^[M/]+$\")\n",
    "TYPE_RE = re.compile(r\"^(?P<type>METAR|SPECI)\\s+\")\n",
    "COR_RE = re.compile(r\"^(?P<cor>COR)\\s+\")\n",
    "STATION_RE = re.compile(r\"^(?P<station>[A-Z][A-Z0-9]{3})\\s+\")\n",
    "TIME_RE = re.compile(\n",
    "    r\"\"\"^(?P<day>\\d\\d)\n",
    "        (?P<hour>\\d\\d)\n",
    "        (?P<min>\\d\\d)Z?\\s+\"\"\",\n",
    "    re.VERBOSE,\n",
    ")\n",
    "MODIFIER_RE = re.compile(r\"^(?P<mod>AUTO|FINO|NIL|TEST|CORR?|RTD|CC[A-G])\\s+\")\n",
    "WIND_RE = re.compile(\n",
    "    r\"\"\"^(?P<dir>[\\dO]{3}|[0O]|///|MMM|VRB)\n",
    "        (?P<speed>P?[\\dO]{2,3}|[/M]{2,3})\n",
    "        (G(?P<gust>P?(\\d{1,3}|[/M]{1,3})))?\n",
    "        (?P<units>KTS?|LT|K|T|KMH|MPS)?\n",
    "        (\\s+(?P<varfrom>\\d\\d\\d)V\n",
    "        (?P<varto>\\d\\d\\d))?\\s+\"\"\",\n",
    "    re.VERBOSE,\n",
    ")\n",
    "VISIBILITY_RE = re.compile(\n",
    "    r\"\"\"^(?P<vis>(?P<dist>(M|P)?\\d\\d\\d\\d|////)\n",
    "        (?P<dir>[NSEW][EW]? | NDV)? |\n",
    "        (?P<distu>(M|P)?(\\d+|\\d\\d?/\\d\\d?|\\d+\\s+\\d/\\d))\n",
    "        (?P<units>SM|KM|M|U) |\n",
    "        CAVOK )\\s+\"\"\",\n",
    "    re.VERBOSE,\n",
    ")\n",
    "RUNWAY_RE = re.compile(\n",
    "    r\"\"\"^(RVRNO |\n",
    "        R(?P<name>\\d\\d(RR?|LL?|C)?)/\n",
    "        (?P<low>(M|P)?\\d\\d\\d\\d)\n",
    "        (V(?P<high>(M|P)?\\d\\d\\d\\d))?\n",
    "        (?P<unit>FT)?[/NDU]*)\\s+\"\"\",\n",
    "    re.VERBOSE,\n",
    ")\n",
    "WEATHER_RE = re.compile(\n",
    "    r\"\"\"^(?P<int>(-|\\+|VC)*)\n",
    "        (?P<desc>(MI|PR|BC|DR|BL|SH|TS|FZ)+)?\n",
    "        (?P<prec>(DZ|RA|SN|SG|IC|PL|GR|GS|UP|/)*)\n",
    "        (?P<obsc>BR|FG|FU|VA|DU|SA|HZ|PY)?\n",
    "        (?P<other>PO|SQ|FC|SS|DS|NSW|/+)?\n",
    "        (?P<int2>[-+])?\\s+\"\"\",\n",
    "    re.VERBOSE,\n",
    ")\n",
    "SKY_RE = re.compile(\n",
    "    r\"\"\"^(?P<cover>VV|CLR|SKC|SCK|NSC|NCD|BKN|SCT|FEW|[O0]VC|///)\n",
    "        (?P<height>[\\dO]{2,4}|///)?\n",
    "        (?P<cloud>([A-Z][A-Z]+|///))?\\s+\"\"\",\n",
    "    re.VERBOSE,\n",
    ")\n",
    "TEMP_RE = re.compile(\n",
    "    r\"\"\"^(?P<temp>(M|-)?\\d+|//|XX|MM)/\n",
    "        (?P<dewpt>(M|-)?\\d+|//|XX|MM)?\\s+\"\"\",\n",
    "    re.VERBOSE,\n",
    ")\n",
    "PRESS_RE = re.compile(\n",
    "    r\"\"\"^(?P<unit>A|Q|QNH)?\n",
    "        (?P<press>[\\dO]{3,4}|////)\n",
    "        (?P<unit2>INS)?\\s+\"\"\",\n",
    "    re.VERBOSE,\n",
    ")\n",
    "RECENT_RE = re.compile(\n",
    "    r\"\"\"^RE(?P<desc>MI|PR|BC|DR|BL|SH|TS|FZ)?\n",
    "        (?P<prec>(DZ|RA|SN|SG|IC|PL|GR|GS|UP)*)?\n",
    "        (?P<obsc>BR|FG|FU|VA|DU|SA|HZ|PY)?\n",
    "        (?P<other>PO|SQ|FC|SS|DS)?\\s+\"\"\",\n",
    "    re.VERBOSE,\n",
    ")\n",
    "WINDSHEAR_RE = re.compile(r\"^(WS\\s+)?(ALL\\s+RWY|RWY(?P<name>\\d\\d(RR?|L?|C)?))\\s+\")\n",
    "COLOR_RE = re.compile(\n",
    "    r\"\"\"^(BLACK)?(BLU|GRN|WHT|RED)\\+?\n",
    "                        (/?(BLACK)?(BLU|GRN|WHT|RED)\\+?)*\\s*\"\"\",\n",
    "    re.VERBOSE,\n",
    ")\n",
    "RUNWAYSTATE_RE = re.compile(\n",
    "    r\"\"\"((?P<name>\\d\\d) | R(?P<namenew>\\d\\d)(RR?|LL?|C)?/?)\n",
    "        ((?P<special> SNOCLO|CLRD(\\d\\d|//)) |\n",
    "        (?P<deposit>(\\d|/))\n",
    "        (?P<extent>(\\d|/))\n",
    "        (?P<depth>(\\d\\d|//))\n",
    "        (?P<friction>(\\d\\d|//)))\\s+\"\"\",\n",
    "    re.VERBOSE,\n",
    ")\n",
    "TREND_RE = re.compile(r\"^(?P<trend>TEMPO|BECMG|FCST|NOSIG)\\s+\")\n",
    "\n",
    "TRENDTIME_RE = re.compile(r\"(?P<when>(FM|TL|AT))(?P<hour>\\d\\d)(?P<min>\\d\\d)\\s+\")\n",
    "\n",
    "REMARK_RE = re.compile(r\"^(RMKS?|NOSPECI|NOSIG)\\s+\")\n",
    "UNPARSED_RE = re.compile(r\"(?P<group>\\S+)\\s+\")\n",
    "\n",
    "#m = TYPE_RE.match(message)\n",
    "#print(message[m.start():m.end()])\n",
    "    \n",
    "patterns = [\n",
    "    #STATION_RE, #Station ID\n",
    "    #TIME_RE, # Time\n",
    "    TEMP_RE, # temperature [\"temp\"]\n",
    "    TEMP_RE, # dewpt [\"dewpt\"]\n",
    "    WIND_RE, # wind\n",
    "    VISIBILITY_RE, # visibility\n",
    "    PRESS_RE, # pressure\n",
    "    #SKY_RE, # sky\n",
    "    UNPARSED_RE # Remark\n",
    "]\n",
    "\n",
    "def sanitize(code):\n",
    "    \"\"\"Some string prep to improve parsing fidelity.\"\"\"\n",
    "    # Remove extraneous whitespace, any trailing =, then add trailing\n",
    "    # whitespace as regex matches need that.\n",
    "    return \"%s \" % (code.strip().rstrip(\"=\"),)"
   ]
  },
  {
   "cell_type": "code",
   "execution_count": 65,
   "metadata": {},
   "outputs": [
    {
     "name": "stdout",
     "output_type": "stream",
     "text": [
      "station: RCSS\n",
      "type: special report, cycle 2 (automatic report)\n",
      "time: Thu Apr  2 02:37:00 2020\n",
      "temperature: 17.0 C\n",
      "dew point: 16.0 C\n",
      "wind: E at 15 knots\n",
      "visibility: greater than 10000 meters\n",
      "pressure: 1027.0 mb\n",
      "weather: light rain\n",
      "sky: a few clouds at 800 feet\n",
      "     broken clouds at 1800 feet\n",
      "     broken clouds at 4000 feet\n",
      "- A3035(Q)=\n",
      "METAR: SPECI RCSS 020237Z 10015KT 9999 -RA FEW008 BKN018 BKN040 17/16 Q1027 WS R10 NOSIG RMK A3035(Q)=   \n"
     ]
    },
    {
     "name": "stderr",
     "output_type": "stream",
     "text": [
      "/usr/local/lib/python3.6/dist-packages/metar/Metar.py:437: RuntimeWarning: Unparsed groups in body 'WS R10' while processing 'SPECI RCSS 020237Z 10015KT 9999 -RA FEW008 BKN018 BKN040 17/16 Q1027 WS R10 NOSIG RMK A3035(Q)=   '\n",
      "  warnings.warn(message, RuntimeWarning)\n"
     ]
    }
   ],
   "source": [
    "TestMessage = 'SPECI RCSS 020237Z 10015KT 9999 -RA FEW008 BKN018 BKN040 17/16 Q1027 WS R10 NOSIG RMK A3035(Q)=   '\n",
    "#s_Message = sanitize(TestMessage)\n",
    "decode(TestMessage)\n",
    "#print(ConvertToCSV(TestMessage))\n",
    "#m = REMARK_RE.match(s_Message)\n",
    "#print(s_Message[m.start():m.end()])\n",
    "#s_Message = s_Message[m.end():]\n",
    "#m = COR_RE.match(s_Message)\n",
    "#print(s_Message[m.start():m.end()])"
   ]
  },
  {
   "cell_type": "code",
   "execution_count": 6,
   "metadata": {},
   "outputs": [],
   "source": [
    "#File Splite\n",
    "source_file = open(\"Data.csv\", \"r\")\n",
    "METAR_data_file = open(\"Metar.csv\",\"w\")\n",
    "SPECI_data_file = open(\"Speci.csv\",\"w\")\n",
    "\n",
    "for data in source_file:\n",
    "    if data[7:12] == 'METAR':\n",
    "        METAR_data_file.write(data)\n",
    "    else : # SPECI\n",
    "        SPECI_data_file.write(data)\n",
    "    \n",
    "source_file.close()\n",
    "METAR_data_file.close()\n",
    "SPECI_data_file.close()"
   ]
  },
  {
   "cell_type": "code",
   "execution_count": 66,
   "metadata": {},
   "outputs": [
    {
     "name": "stderr",
     "output_type": "stream",
     "text": [
      "/usr/local/lib/python3.6/dist-packages/metar/Metar.py:437: RuntimeWarning: Unparsed groups in body 'WS R10' while processing 'SPECI RCSS 020237Z 10015KT 9999 -RA FEW008 BKN018 BKN040 17/16 Q1027 WS R10 NOSIG RMK A3035(Q)=   \n",
      "'\n",
      "  warnings.warn(message, RuntimeWarning)\n",
      "/usr/local/lib/python3.6/dist-packages/metar/Metar.py:437: RuntimeWarning: Unparsed groups in body 'WS R10' while processing 'METAR RCSS 020300Z 09012KT 9999 -RA FEW008 BKN020 BKN040 18/16 Q1027 WS R10 NOSIG RMK A3034(R)=   \n",
      "'\n",
      "  warnings.warn(message, RuntimeWarning)\n",
      "/usr/local/lib/python3.6/dist-packages/metar/Metar.py:437: RuntimeWarning: Unparsed groups in body 'WS R10' while processing 'SPECI RCSS 070448Z 08012KT 050V110 9999 FEW016 SCT035 BKN080 24/19 Q1019 WS R10 NOSIG RMK A3010(A)=   \n",
      "'\n",
      "  warnings.warn(message, RuntimeWarning)\n",
      "/usr/local/lib/python3.6/dist-packages/metar/Metar.py:437: RuntimeWarning: Unparsed groups in body 'WS R10' while processing 'METAR RCSS 070500Z 08012KT 050V110 9999 FEW020 BKN050 BKN120 24/19 Q1019 WS R10 NOSIG RMK A3010(B)=   \n",
      "'\n",
      "  warnings.warn(message, RuntimeWarning)\n",
      "/usr/local/lib/python3.6/dist-packages/metar/Metar.py:437: RuntimeWarning: Unparsed groups in body 'WS R10' while processing 'SPECI RCSS 090421Z 08015KT 9999 FEW006 BKN070 20/17 Q1023 WS R10 NOSIG RMK A3023(L)=   \n",
      "'\n",
      "  warnings.warn(message, RuntimeWarning)\n",
      "/usr/local/lib/python3.6/dist-packages/metar/Metar.py:437: RuntimeWarning: Unparsed groups in body 'WS R10' while processing 'SPECI RCSS 090426Z 08015KT 9000 -DZ FEW006 SCT025 BKN070 20/17 Q1023 WS R10 NOSIG RMK A3023(M)=   \n",
      "'\n",
      "  warnings.warn(message, RuntimeWarning)\n",
      "/usr/local/lib/python3.6/dist-packages/metar/Metar.py:437: RuntimeWarning: Unparsed groups in body 'WS R10' while processing 'METAR RCSS 090430Z 08015KT 9000 -DZ FEW006 SCT025 BKN070 20/17 Q1023 WS R10 NOSIG RMK A3022(N)=   \n",
      "'\n",
      "  warnings.warn(message, RuntimeWarning)\n",
      "/usr/local/lib/python3.6/dist-packages/metar/Metar.py:437: RuntimeWarning: Unparsed groups in body 'WS R10' while processing 'SPECI RCSS 180235Z 08018KT 9999 FEW025 21/11 Q1024 WS R10 NOSIG RMK A3025(P)=   \n",
      "'\n",
      "  warnings.warn(message, RuntimeWarning)\n",
      "/usr/local/lib/python3.6/dist-packages/metar/Metar.py:437: RuntimeWarning: Unparsed groups in body 'WS R10' while processing 'METAR RCSS 180300Z 09020G30KT 9999 FEW030 20/12 Q1024 WS R10 NOSIG RMK A3025(Q)=   \n",
      "'\n",
      "  warnings.warn(message, RuntimeWarning)\n",
      "/usr/local/lib/python3.6/dist-packages/metar/Metar.py:437: RuntimeWarning: Unparsed groups in body 'WS R10' while processing 'METAR RCSS 180330Z 09019KT 9999 FEW030 21/12 Q1023 WS R10 NOSIG RMK A3023(R)=   \n",
      "'\n",
      "  warnings.warn(message, RuntimeWarning)\n",
      "/usr/local/lib/python3.6/dist-packages/metar/Metar.py:437: RuntimeWarning: Unparsed groups in body 'WS R10' while processing 'METAR RCSS 180400Z 09018KT 9999 FEW040 21/12 Q1023 WS R10 NOSIG RMK A3021(S)=   \n",
      "'\n",
      "  warnings.warn(message, RuntimeWarning)\n",
      "/usr/local/lib/python3.6/dist-packages/metar/Metar.py:437: RuntimeWarning: Unparsed groups in body 'WS R10' while processing 'SPECI RCSS 180516Z 09018KT 9999 FEW030 SCT045 22/12 Q1021 WS R10 NOSIG RMK A3016(V)=   \n",
      "'\n",
      "  warnings.warn(message, RuntimeWarning)\n",
      "/usr/local/lib/python3.6/dist-packages/metar/Metar.py:437: RuntimeWarning: Unparsed groups in body 'WS R10' while processing 'METAR RCSS 180530Z 10016KT 9999 FEW030 23/12 Q1021 WS R10 NOSIG RMK A3015(W)=   \n",
      "'\n",
      "  warnings.warn(message, RuntimeWarning)\n",
      "/usr/local/lib/python3.6/dist-packages/metar/Metar.py:437: RuntimeWarning: Unparsed groups in body 'WS R10' while processing 'SPECI RCSS 180605Z 10017KT 9999 FEW030 SCT045 22/12 Q1021 WS R10 NOSIG RMK A3015(Y)=   \n",
      "'\n",
      "  warnings.warn(message, RuntimeWarning)\n",
      "/usr/local/lib/python3.6/dist-packages/metar/Metar.py:437: RuntimeWarning: Unparsed groups in body 'WS R10' while processing 'SPECI RCSS 180652Z 10017KT 9999 FEW030 SCT045 22/12 Q1020 WS R10 NOSIG RMK A3013(A)=   \n",
      "'\n",
      "  warnings.warn(message, RuntimeWarning)\n",
      "/usr/local/lib/python3.6/dist-packages/metar/Metar.py:437: RuntimeWarning: Unparsed groups in body 'WS R10' while processing 'METAR RCSS 180700Z 10015KT 9999 FEW030 BKN045 22/13 Q1020 WS R10 NOSIG RMK A3013(B)=   \n",
      "'\n",
      "  warnings.warn(message, RuntimeWarning)\n",
      "/usr/local/lib/python3.6/dist-packages/metar/Metar.py:437: RuntimeWarning: Unparsed groups in body 'WS R10' while processing 'SPECI RCSS 240212Z 08016KT 9999 FEW025 SCT070 20/12 Q1022 WS R10 NOSIG RMK A3020(R)=   \n",
      "'\n",
      "  warnings.warn(message, RuntimeWarning)\n",
      "/usr/local/lib/python3.6/dist-packages/metar/Metar.py:437: RuntimeWarning: Unparsed groups in body 'WS R10' while processing 'METAR RCSS 240230Z 07014KT 040V100 9999 FEW025 20/12 Q1022 WS R10 NOSIG RMK A3020(S)=   \n",
      "'\n",
      "  warnings.warn(message, RuntimeWarning)\n",
      "/usr/local/lib/python3.6/dist-packages/metar/Metar.py:437: RuntimeWarning: Unparsed groups in body 'WS R10' while processing 'SPECI RCSS 240308Z 09017KT 9999 FEW025 20/12 Q1022 WS R10 NOSIG RMK A3019(U)=   \n",
      "'\n",
      "  warnings.warn(message, RuntimeWarning)\n",
      "/usr/local/lib/python3.6/dist-packages/metar/Metar.py:437: RuntimeWarning: Unparsed groups in body 'WS R10' while processing 'METAR RCSS 240330Z 08013KT 040V110 9999 FEW025 20/12 Q1022 WS R10 NOSIG RMK A3018(V)=   \n",
      "'\n",
      "  warnings.warn(message, RuntimeWarning)\n",
      "/usr/local/lib/python3.6/dist-packages/metar/Metar.py:437: RuntimeWarning: Unparsed groups in body 'WS R10' while processing 'SPECI RCSS 241246Z 09014KT 9999 FEW025 17/13 Q1021 WS R10 NOSIG RMK A3015(O)=   \n",
      "'\n",
      "  warnings.warn(message, RuntimeWarning)\n",
      "/usr/local/lib/python3.6/dist-packages/metar/Metar.py:437: RuntimeWarning: Unparsed groups in body 'WS R10' while processing 'METAR RCSS 241300Z 10013KT 9999 FEW025 17/13 Q1021 WS R10 NOSIG RMK A3015(P)=   \n",
      "'\n",
      "  warnings.warn(message, RuntimeWarning)\n",
      "/usr/local/lib/python3.6/dist-packages/metar/Metar.py:437: RuntimeWarning: Unparsed groups in body 'WS R10' while processing 'SPECI RCSS 270624Z 08012KT 9999 FEW020 SCT035 BKN100 18/11 Q1024 WS R10 NOSIG RMK A3025(E)=   \n",
      "'\n",
      "  warnings.warn(message, RuntimeWarning)\n",
      "/usr/local/lib/python3.6/dist-packages/metar/Metar.py:437: RuntimeWarning: Unparsed groups in body 'WS R10' while processing 'METAR RCSS 270630Z 09012KT 9999 FEW020 SCT030 BKN070 18/11 Q1024 WS R10 NOSIG RMK A3025(F)=   \n",
      "'\n",
      "  warnings.warn(message, RuntimeWarning)\n",
      "/usr/local/lib/python3.6/dist-packages/metar/Metar.py:437: RuntimeWarning: Unparsed groups in body 'WS R10' while processing 'SPECI RCSS 311543Z 08014KT 9999 FEW013 BKN033 BKN045 15/11 Q1025 WS R10 NOSIG RMK A3028(V)=   \n",
      "'\n",
      "  warnings.warn(message, RuntimeWarning)\n",
      "/usr/local/lib/python3.6/dist-packages/metar/Metar.py:437: RuntimeWarning: Unparsed groups in body 'WS R10' while processing 'METAR RCSS 311600Z 08012KT 9999 FEW014 BKN035 BKN045 15/11 Q1025 WS R10 NOSIG RMK A3028(W)=   \n",
      "'\n",
      "  warnings.warn(message, RuntimeWarning)\n",
      "/usr/local/lib/python3.6/dist-packages/metar/Metar.py:437: RuntimeWarning: Unparsed groups in body 'WS R10' while processing 'SPECI RCSS 020636Z 12010KT 9999 FEW020 26/17 Q1016 WS R10 NOSIG RMK A3001(M)=   \n",
      "'\n",
      "  warnings.warn(message, RuntimeWarning)\n",
      "/usr/local/lib/python3.6/dist-packages/metar/Metar.py:437: RuntimeWarning: Unparsed groups in body 'WS R10' while processing 'METAR RCSS 020700Z VRB06KT 9999 FEW020 SCT160 25/17 Q1016 WS R10 NOSIG RMK A3001(N)=   \n",
      "'\n",
      "  warnings.warn(message, RuntimeWarning)\n",
      "/usr/local/lib/python3.6/dist-packages/metar/Metar.py:437: RuntimeWarning: Unparsed groups in body 'WS R10' while processing 'SPECI RCSS 120140Z 09016KT 9999 FEW006 SCT035 BKN100 23/19 Q1025 WS R10 NOSIG RMK A3029(P)=   \n",
      "'\n",
      "  warnings.warn(message, RuntimeWarning)\n",
      "/usr/local/lib/python3.6/dist-packages/metar/Metar.py:437: RuntimeWarning: Unparsed groups in body 'WS R10' while processing 'METAR RCSS 120200Z 09016KT 9999 FEW006 SCT025 BKN100 23/19 Q1025 WS R10 NOSIG RMK A3029(Q)=   \n",
      "'\n",
      "  warnings.warn(message, RuntimeWarning)\n",
      "/usr/local/lib/python3.6/dist-packages/metar/Metar.py:437: RuntimeWarning: Unparsed groups in body 'WS R10' while processing 'SPECI RCSS 120507Z 08015KT 9999 FEW012 SCT120 26/20 Q1022 WS R10 NOSIG RMK A3019(Y)=   \n",
      "'\n",
      "  warnings.warn(message, RuntimeWarning)\n",
      "/usr/local/lib/python3.6/dist-packages/metar/Metar.py:437: RuntimeWarning: Unparsed groups in body 'WS R10' while processing 'SPECI RCSS 150734Z 30008KT 270V350 9999 FEW022 BKN060 BKN080 25/18 Q1017 WS R10 NOSIG RMK A3004(X)=   \n",
      "'\n",
      "  warnings.warn(message, RuntimeWarning)\n",
      "/usr/local/lib/python3.6/dist-packages/metar/Metar.py:437: RuntimeWarning: Unparsed groups in body 'WS R10' while processing 'METAR RCSS 150800Z 29007KT 9999 FEW022 BKN060 BKN080 24/18 Q1017 WS R10 NOSIG RMK A3004(Y)=   \n",
      "'\n",
      "  warnings.warn(message, RuntimeWarning)\n",
      "/usr/local/lib/python3.6/dist-packages/metar/Metar.py:437: RuntimeWarning: Unparsed groups in body 'WS R10' while processing 'SPECI RCSS 181807Z 29014G24KT 6000 -RA FEW006 BKN016 OVC032 18/17 Q1018 WS R10 NOSIG RMK A3006(Y)=   \n",
      "'\n",
      "  warnings.warn(message, RuntimeWarning)\n",
      "/usr/local/lib/python3.6/dist-packages/metar/Metar.py:437: RuntimeWarning: Unparsed groups in body 'WS R10' while processing 'METAR RCSS 181900Z 27009KT 220V310 8000 -RA SCT007 BKN018 OVC035 16/15 Q1018 WS R10 NOSIG RMK A3006(Z)=   \n",
      "'\n",
      "  warnings.warn(message, RuntimeWarning)\n",
      "/usr/local/lib/python3.6/dist-packages/metar/Metar.py:437: RuntimeWarning: Unparsed groups in body 'WS R28' while processing 'SPECI RCSS 200704Z 28009KT 9999 FEW020 BKN035 26/21 Q1018 WS R28 NOSIG RMK 28008KT/R10 A3007(U)=   \n",
      "'\n",
      "  warnings.warn(message, RuntimeWarning)\n",
      "/usr/local/lib/python3.6/dist-packages/metar/Metar.py:437: RuntimeWarning: Unparsed groups in body 'WS R28' while processing 'METAR RCSS 200730Z 27010KT 9999 FEW020 BKN035 BKN050 25/21 Q1018 WS R28 NOSIG RMK 29008KT/R10 A3007(V)=   \n",
      "'\n",
      "  warnings.warn(message, RuntimeWarning)\n",
      "/usr/local/lib/python3.6/dist-packages/metar/Metar.py:437: RuntimeWarning: Unparsed groups in body 'WS R10' while processing 'SPECI RCSS 260638Z 09017KT 9999 FEW012 SCT040 20/15 Q1017 WS R10 NOSIG RMK A3004(R)=   \n",
      "'\n",
      "  warnings.warn(message, RuntimeWarning)\n",
      "/usr/local/lib/python3.6/dist-packages/metar/Metar.py:437: RuntimeWarning: Unparsed groups in body 'WS R10' while processing 'METAR RCSS 260700Z 09016KT 9999 FEW015 BKN080 19/15 Q1017 WS R10 NOSIG RMK A3004(S)=   \n",
      "'\n",
      "  warnings.warn(message, RuntimeWarning)\n",
      "/usr/local/lib/python3.6/dist-packages/metar/Metar.py:437: RuntimeWarning: Unparsed groups in body 'WS R10' while processing 'SPECI RCSS 010349Z 08016KT 9999 FEW012 SCT018 BKN050 22/17 Q1017 WS R10 NOSIG RMK A3004(W)=   \n",
      "'\n",
      "  warnings.warn(message, RuntimeWarning)\n",
      "/usr/local/lib/python3.6/dist-packages/metar/Metar.py:437: RuntimeWarning: Unparsed groups in body 'WS R10' while processing 'METAR RCSS 010400Z 08017KT 9999 FEW012 SCT020 BKN050 22/17 Q1016 WS R10 NOSIG RMK A3003(X)=   \n",
      "'\n",
      "  warnings.warn(message, RuntimeWarning)\n",
      "/usr/local/lib/python3.6/dist-packages/metar/Metar.py:437: RuntimeWarning: Unparsed groups in body 'WS R10' while processing 'METAR RCSS 010430Z 09017KT 9999 FEW012 SCT020 BKN050 22/17 Q1016 WS R10 NOSIG RMK A3002(Y)=   \n",
      "'\n",
      "  warnings.warn(message, RuntimeWarning)\n",
      "/usr/local/lib/python3.6/dist-packages/metar/Metar.py:437: RuntimeWarning: Unparsed groups in body 'WS R10' while processing 'SPECI RCSS 040510Z 07014KT 9999 FEW020 SCT040 21/13 Q1016 WS R10 NOSIG RMK A3003(V)=   \n",
      "'\n",
      "  warnings.warn(message, RuntimeWarning)\n",
      "/usr/local/lib/python3.6/dist-packages/metar/Metar.py:437: RuntimeWarning: Unparsed groups in body 'WS R10' while processing 'METAR RCSS 040530Z 07014KT 9999 FEW020 SCT060 21/13 Q1016 WS R10 NOSIG RMK A3002(W)=   \n",
      "'\n",
      "  warnings.warn(message, RuntimeWarning)\n",
      "/usr/local/lib/python3.6/dist-packages/metar/Metar.py:437: RuntimeWarning: Unparsed groups in body 'WS R10' while processing 'SPECI RCSS 040709Z 08015KT 9999 FEW025 SCT250 21/13 Q1016 WS R10 NOSIG RMK A3001(A)=   \n",
      "'\n",
      "  warnings.warn(message, RuntimeWarning)\n",
      "/usr/local/lib/python3.6/dist-packages/metar/Metar.py:437: RuntimeWarning: Unparsed groups in body 'WS R10' while processing 'METAR RCSS 040730Z 08015KT 9999 FEW025 BKN250 20/13 Q1016 WS R10 NOSIG RMK A3001(B)=   \n",
      "'\n",
      "  warnings.warn(message, RuntimeWarning)\n",
      "/usr/local/lib/python3.6/dist-packages/metar/Metar.py:437: RuntimeWarning: Unparsed groups in body 'WS R10' while processing 'SPECI RCSS 040813Z 08017KT 050V110 9999 FEW025 BKN250 19/12 Q1016 WS R10 NOSIG RMK A3003(D)=   \n",
      "'\n",
      "  warnings.warn(message, RuntimeWarning)\n",
      "/usr/local/lib/python3.6/dist-packages/metar/Metar.py:437: RuntimeWarning: Unparsed groups in body 'WS R10' while processing 'METAR RCSS 040830Z 08018KT 9999 FEW020 SCT035 BKN200 19/12 Q1017 WS R10 NOSIG RMK A3004(E)=   \n",
      "'\n",
      "  warnings.warn(message, RuntimeWarning)\n",
      "/usr/local/lib/python3.6/dist-packages/metar/Metar.py:437: RuntimeWarning: Unparsed groups in body 'WS R10' while processing 'SPECI RCSS 050301Z 11022G32KT 9999 FEW020 BKN150 25/17 Q1012 WS R10 NOSIG RMK A2991(K)=   \n",
      "'\n",
      "  warnings.warn(message, RuntimeWarning)\n",
      "/usr/local/lib/python3.6/dist-packages/metar/Metar.py:437: RuntimeWarning: Unparsed groups in body 'WS R10' while processing 'METAR RCSS 050330Z 10017KT 9999 FEW020 BKN150 25/18 Q1012 WS R10 NOSIG RMK A2991(L)=   \n",
      "'\n",
      "  warnings.warn(message, RuntimeWarning)\n",
      "/usr/local/lib/python3.6/dist-packages/metar/Metar.py:437: RuntimeWarning: Unparsed groups in body 'WS R10' while processing 'METAR RCSS 050400Z 11013KT 9999 FEW025 BKN150 26/18 Q1012 WS R10 NOSIG RMK A2989(M)=   \n",
      "'\n",
      "  warnings.warn(message, RuntimeWarning)\n",
      "/usr/local/lib/python3.6/dist-packages/metar/Metar.py:437: RuntimeWarning: Unparsed groups in body 'WS R10' while processing 'METAR RCSS 050430Z 11011KT 080V150 9999 FEW020 SCT080 BKN120 24/17 Q1012 WS R10 NOSIG RMK A2989(N)=   \n",
      "'\n",
      "  warnings.warn(message, RuntimeWarning)\n",
      "/usr/local/lib/python3.6/dist-packages/metar/Metar.py:437: RuntimeWarning: Unparsed groups in body 'WS R28' while processing 'SPECI RCSS 051110Z 28017KT 7000 FEW006 BKN016 BKN030 16/15 Q1014 WS R28 NOSIG RMK 29013KT/R10 A2995(H)=   \n",
      "'\n",
      "  warnings.warn(message, RuntimeWarning)\n",
      "/usr/local/lib/python3.6/dist-packages/metar/Metar.py:437: RuntimeWarning: Unparsed groups in body 'WS R28' while processing 'SPECI RCSS 060445Z 28011KT 260V320 9999 FEW013 SCT020 BKN040 21/17 Q1014 WS R28 NOSIG RMK 28010KT/R10 A2997(U)=   \n",
      "'\n",
      "  warnings.warn(message, RuntimeWarning)\n",
      "/usr/local/lib/python3.6/dist-packages/metar/Metar.py:437: RuntimeWarning: Unparsed groups in body 'WS R28' while processing 'METAR RCSS 060500Z 28010KT 9999 FEW013 SCT020 BKN040 21/17 Q1014 WS R28 NOSIG RMK 29011KT/R10 A2996(V)=   \n",
      "'\n",
      "  warnings.warn(message, RuntimeWarning)\n",
      "/usr/local/lib/python3.6/dist-packages/metar/Metar.py:437: RuntimeWarning: Unparsed groups in body 'WS R28' while processing 'METAR RCSS 060530Z 29008KT 9999 FEW013 SCT020 BKN040 21/16 Q1014 WS R28 NOSIG RMK 28008KT/R10 A2995(W)=   \n",
      "'\n",
      "  warnings.warn(message, RuntimeWarning)\n"
     ]
    },
    {
     "name": "stderr",
     "output_type": "stream",
     "text": [
      "/usr/local/lib/python3.6/dist-packages/metar/Metar.py:437: RuntimeWarning: Unparsed groups in body 'WS R10' while processing 'SPECI RCSS 130506Z 08014KT 9999 FEW025 SCT050 BKN090 26/15 Q1019 WS R10 NOSIG RMK A3009(K)=   \n",
      "'\n",
      "  warnings.warn(message, RuntimeWarning)\n",
      "/usr/local/lib/python3.6/dist-packages/metar/Metar.py:437: RuntimeWarning: Unparsed groups in body 'WS R10' while processing 'METAR RCSS 130530Z 08015KT 9999 FEW025 SCT045 BKN220 26/15 Q1018 WS R10 NOSIG RMK A3008(L)=   \n",
      "'\n",
      "  warnings.warn(message, RuntimeWarning)\n",
      "/usr/local/lib/python3.6/dist-packages/metar/Metar.py:437: RuntimeWarning: Unparsed groups in body 'WS R10' while processing 'METAR RCSS 130600Z 08015G25KT 9999 FEW020 BKN045 BKN200 25/14 Q1018 WS R10 NOSIG RMK A3007(M)=   \n",
      "'\n",
      "  warnings.warn(message, RuntimeWarning)\n",
      "/usr/local/lib/python3.6/dist-packages/metar/Metar.py:437: RuntimeWarning: Unparsed groups in body 'WS R10' while processing 'SPECI RCSS 131131Z 11011KT 080V140 9999 FEW025 SCT040 20/14 Q1020 WS R10 NOSIG RMK A3014(Z)=   \n",
      "'\n",
      "  warnings.warn(message, RuntimeWarning)\n",
      "/usr/local/lib/python3.6/dist-packages/metar/Metar.py:437: RuntimeWarning: Unparsed groups in body 'WS R10' while processing 'SPECI RCSS 131208Z 11012KT 9999 FEW020 SCT040 20/14 Q1021 WS R10 NOSIG RMK A3015(B)=   \n",
      "'\n",
      "  warnings.warn(message, RuntimeWarning)\n",
      "/usr/local/lib/python3.6/dist-packages/metar/Metar.py:437: RuntimeWarning: Unparsed groups in body 'WS R10' while processing 'METAR RCSS 131230Z 09015KT 9999 FEW025 SCT040 20/14 Q1021 WS R10 NOSIG RMK A3015(C)=   \n",
      "'\n",
      "  warnings.warn(message, RuntimeWarning)\n",
      "/usr/local/lib/python3.6/dist-packages/metar/Metar.py:437: RuntimeWarning: Unparsed groups in body 'WS R10' while processing 'METAR RCSS 131300Z 09014KT 9999 FEW025 20/14 Q1021 WS R10 NOSIG RMK A3015(D)=   \n",
      "'\n",
      "  warnings.warn(message, RuntimeWarning)\n",
      "/usr/local/lib/python3.6/dist-packages/metar/Metar.py:437: RuntimeWarning: Unparsed groups in body 'WS R10' while processing 'SPECI RCSS 131325Z 09011KT 9999 FEW025 20/14 Q1021 WS R10 NOSIG RMK A3016(F)=   \n",
      "'\n",
      "  warnings.warn(message, RuntimeWarning)\n",
      "/usr/local/lib/python3.6/dist-packages/metar/Metar.py:437: RuntimeWarning: Unparsed groups in body 'WS R10' while processing 'METAR RCSS 131330Z 10013KT 9999 FEW025 20/14 Q1021 WS R10 NOSIG RMK A3016(G)=   \n",
      "'\n",
      "  warnings.warn(message, RuntimeWarning)\n",
      "/usr/local/lib/python3.6/dist-packages/metar/Metar.py:437: RuntimeWarning: Unparsed groups in body 'WS R10' while processing 'SPECI RCSS 160320Z 09014KT 9999 FEW030 BKN060 20/09 Q1021 WS R10 NOSIG RMK A3017(M)=   \n",
      "'\n",
      "  warnings.warn(message, RuntimeWarning)\n",
      "/usr/local/lib/python3.6/dist-packages/metar/Metar.py:437: RuntimeWarning: Unparsed groups in body 'WS R10' while processing 'METAR RCSS 160330Z 09014KT 9999 FEW030 BKN060 20/08 Q1021 WS R10 NOSIG RMK A3017(N)=   \n",
      "'\n",
      "  warnings.warn(message, RuntimeWarning)\n",
      "/usr/local/lib/python3.6/dist-packages/metar/Metar.py:437: RuntimeWarning: Unparsed groups in body 'WS R10' while processing 'METAR RCSS 160400Z 08012KT 9999 FEW030 BKN060 20/08 Q1021 WS R10 NOSIG RMK A3016(O)=   \n",
      "'\n",
      "  warnings.warn(message, RuntimeWarning)\n",
      "/usr/local/lib/python3.6/dist-packages/metar/Metar.py:437: RuntimeWarning: Unparsed groups in body 'WS R10' while processing 'SPECI RCSS 160416Z 08013KT 9999 -DZ FEW020 SCT040 BKN060 20/09 Q1021 WS R10 NOSIG RMK A3015(P)=   \n",
      "'\n",
      "  warnings.warn(message, RuntimeWarning)\n",
      "/usr/local/lib/python3.6/dist-packages/metar/Metar.py:437: RuntimeWarning: Unparsed groups in body 'WS R10' while processing 'METAR RCSS 160430Z 09014KT 9999 -DZ FEW020 SCT040 BKN060 20/09 Q1020 WS R10 NOSIG RMK A3014(Q)=   \n",
      "'\n",
      "  warnings.warn(message, RuntimeWarning)\n",
      "/usr/local/lib/python3.6/dist-packages/metar/Metar.py:437: RuntimeWarning: Unparsed groups in body 'WS R10' while processing 'METAR RCSS 160500Z 09014KT 9999 FEW020 SCT040 BKN060 20/09 Q1020 WS R10 NOSIG RMK A3013(R)=   \n",
      "'\n",
      "  warnings.warn(message, RuntimeWarning)\n",
      "/usr/local/lib/python3.6/dist-packages/metar/Metar.py:437: RuntimeWarning: Unparsed groups in body 'WS R10' while processing 'SPECI RCSS 190839Z 08014KT 040V100 9999 FEW012 23/17 Q1015 WS R10 NOSIG RMK A2998(O)=   \n",
      "'\n",
      "  warnings.warn(message, RuntimeWarning)\n",
      "/usr/local/lib/python3.6/dist-packages/metar/Metar.py:437: RuntimeWarning: Unparsed groups in body 'WS R10' while processing 'METAR RCSS 190900Z 08014KT 9999 FEW012 SCT030 22/17 Q1015 WS R10 NOSIG RMK A2998(P)=   \n",
      "'\n",
      "  warnings.warn(message, RuntimeWarning)\n",
      "/usr/local/lib/python3.6/dist-packages/metar/Metar.py:437: RuntimeWarning: Unparsed groups in body 'WS R10' while processing 'METAR RCSS 190930Z 07014KT 040V100 9999 FEW012 22/17 Q1015 WS R10 NOSIG RMK A2998(Q)=   \n",
      "'\n",
      "  warnings.warn(message, RuntimeWarning)\n",
      "/usr/local/lib/python3.6/dist-packages/metar/Metar.py:437: RuntimeWarning: Unparsed groups in body 'WS R10' while processing 'SPECI RCSS 220444Z 07012KT 9999 FEW012 BKN020 BKN040 22/18 Q1014 WS R10 NOSIG RMK A2997(G)=   \n",
      "'\n",
      "  warnings.warn(message, RuntimeWarning)\n",
      "/usr/local/lib/python3.6/dist-packages/metar/Metar.py:437: RuntimeWarning: Unparsed groups in body 'WS R10' while processing 'METAR RCSS 220500Z 07011KT 040V100 9999 FEW012 BKN020 BKN040 22/18 Q1014 WS R10 NOSIG RMK A2997(H)=   \n",
      "'\n",
      "  warnings.warn(message, RuntimeWarning)\n",
      "/usr/local/lib/python3.6/dist-packages/metar/Metar.py:437: RuntimeWarning: Unparsed groups in body 'WS R10' while processing 'SPECI RCSS 220518Z 07010KT 9999 -DZ FEW008 BKN018 BKN035 22/17 Q1014 WS R10 NOSIG RMK A2997(I)=   \n",
      "'\n",
      "  warnings.warn(message, RuntimeWarning)\n",
      "/usr/local/lib/python3.6/dist-packages/metar/Metar.py:437: RuntimeWarning: Unparsed groups in body 'WS R10' while processing 'SPECI RCSS 232306Z 09017KT 9999 FEW012 BKN040 BKN060 15/13 Q1020 WS R10 NOSIG RMK A3013(G)=   \n",
      "'\n",
      "  warnings.warn(message, RuntimeWarning)\n",
      "/usr/local/lib/python3.6/dist-packages/metar/Metar.py:437: RuntimeWarning: Unparsed groups in body 'WS R10' while processing 'SPECI RCSS 232315Z 09018KT 9999 -RA FEW012 BKN035 BKN060 15/13 Q1020 WS R10 NOSIG RMK A3012(H)=   \n",
      "'\n",
      "  warnings.warn(message, RuntimeWarning)\n",
      "/usr/local/lib/python3.6/dist-packages/metar/Metar.py:437: RuntimeWarning: Unparsed groups in body 'WS R10' while processing 'METAR RCSS 232330Z 09016KT 9999 -RA FEW012 BKN035 BKN060 15/13 Q1020 WS R10 NOSIG RMK A3013(I)=   \n",
      "'\n",
      "  warnings.warn(message, RuntimeWarning)\n",
      "/usr/local/lib/python3.6/dist-packages/metar/Metar.py:437: RuntimeWarning: Unparsed groups in body 'WS R10' while processing 'SPECI RCSS 260244Z 08016G28KT 9999 FEW015 SCT028 22/16 Q1021 WS R10 NOSIG RMK A3016(C)=   \n",
      "'\n",
      "  warnings.warn(message, RuntimeWarning)\n",
      "/usr/local/lib/python3.6/dist-packages/metar/Metar.py:437: RuntimeWarning: Unparsed groups in body 'WS R10' while processing 'METAR RCSS 260300Z 08016KT 9999 FEW015 22/16 Q1021 WS R10 NOSIG RMK A3016(D)=   \n",
      "'\n",
      "  warnings.warn(message, RuntimeWarning)\n",
      "/usr/local/lib/python3.6/dist-packages/metar/Metar.py:437: RuntimeWarning: Unparsed groups in body 'WS R10' while processing 'METAR RCSS 260330Z 08017KT 9999 FEW015 SCT030 22/15 Q1021 WS R10 NOSIG RMK A3016(E)=   \n",
      "'\n",
      "  warnings.warn(message, RuntimeWarning)\n",
      "/usr/local/lib/python3.6/dist-packages/metar/Metar.py:437: RuntimeWarning: Unparsed groups in body 'WS R10' while processing 'SPECI RCSS 260350Z 08016KT 030V100 9999 FEW015 SCT030 22/15 Q1021 WS R10 NOSIG RMK A3015(G)=   \n",
      "'\n",
      "  warnings.warn(message, RuntimeWarning)\n",
      "/usr/local/lib/python3.6/dist-packages/metar/Metar.py:437: RuntimeWarning: Unparsed groups in body 'WS R10' while processing 'METAR RCSS 260400Z 08016KT 9999 FEW015 22/15 Q1021 WS R10 NOSIG RMK A3015(H)=   \n",
      "'\n",
      "  warnings.warn(message, RuntimeWarning)\n",
      "/usr/local/lib/python3.6/dist-packages/metar/Metar.py:437: RuntimeWarning: Unparsed groups in body 'WS R10' while processing 'METAR RCSS 260430Z 08016KT 040V110 9999 FEW015 23/15 Q1020 WS R10 NOSIG RMK A3014(I)=   \n",
      "'\n",
      "  warnings.warn(message, RuntimeWarning)\n",
      "/usr/local/lib/python3.6/dist-packages/metar/Metar.py:437: RuntimeWarning: Unparsed groups in body 'WS R10' while processing 'METAR RCSS 260500Z 08015KT 9999 FEW015 23/16 Q1020 WS R10 NOSIG RMK A3013(J)=   \n",
      "'\n",
      "  warnings.warn(message, RuntimeWarning)\n",
      "/usr/local/lib/python3.6/dist-packages/metar/Metar.py:437: RuntimeWarning: Unparsed groups in body 'WS R10' while processing 'SPECI RCSS 290545Z 11006KT 9999 FEW018 SCT025 BKN060 26/21 Q1009 WS R10 NOSIG RMK A2981(P)=   \n",
      "'\n",
      "  warnings.warn(message, RuntimeWarning)\n",
      "/usr/local/lib/python3.6/dist-packages/metar/Metar.py:437: RuntimeWarning: Unparsed groups in body 'WS R10' while processing 'METAR RCSS 290600Z 11006KT 080V150 9999 FEW015 BKN022 BKN050 25/21 Q1009 WS R10 NOSIG RMK A2981(Q)=   \n",
      "'\n",
      "  warnings.warn(message, RuntimeWarning)\n",
      "/usr/local/lib/python3.6/dist-packages/metar/Metar.py:437: RuntimeWarning: Unparsed groups in body 'WS R10' while processing 'SPECI RCSS 310154Z 09019KT 8000 FEW012 SCT030 BKN050 21/15 Q1020 WS R10 NOSIG RMK A3014(A)=   \n",
      "'\n",
      "  warnings.warn(message, RuntimeWarning)\n",
      "/usr/local/lib/python3.6/dist-packages/metar/Metar.py:437: RuntimeWarning: Unparsed groups in body 'WS R10' while processing 'METAR RCSS 310200Z 10020KT 8000 FEW012 BKN060 21/15 Q1020 WS R10 NOSIG RMK A3013(B)=   \n",
      "'\n",
      "  warnings.warn(message, RuntimeWarning)\n",
      "/usr/local/lib/python3.6/dist-packages/metar/Metar.py:437: RuntimeWarning: Unparsed groups in body 'WS R10' while processing 'METAR RCSS 310230Z 09018KT 9999 FEW015 BKN150 22/15 Q1020 WS R10 NOSIG RMK A3013(C)=   \n",
      "'\n",
      "  warnings.warn(message, RuntimeWarning)\n",
      "/usr/local/lib/python3.6/dist-packages/metar/Metar.py:437: RuntimeWarning: Unparsed groups in body 'WS R10' while processing 'SPECI RCSS 310620Z 09016KT 050V110 9999 FEW015 BKN030 BKN040 20/14 Q1019 WS R10 NOSIG RMK A3011(L)=   \n",
      "'\n",
      "  warnings.warn(message, RuntimeWarning)\n",
      "/usr/local/lib/python3.6/dist-packages/metar/Metar.py:437: RuntimeWarning: Unparsed groups in body 'WS R10' while processing 'METAR RCSS 310630Z 08016KT 9999 FEW015 SCT030 BKN050 20/14 Q1019 WS R10 NOSIG RMK A3011(M)=   \n",
      "'\n",
      "  warnings.warn(message, RuntimeWarning)\n",
      "/usr/local/lib/python3.6/dist-packages/metar/Metar.py:437: RuntimeWarning: Unparsed groups in body 'WS R10' while processing 'METAR RCSS 310700Z 08016KT 9999 FEW015 BKN030 BKN050 20/14 Q1019 WS R10 NOSIG RMK A3011(N)=   \n",
      "'\n",
      "  warnings.warn(message, RuntimeWarning)\n",
      "/usr/local/lib/python3.6/dist-packages/metar/Metar.py:437: RuntimeWarning: Unparsed groups in body 'WS R10' while processing 'METAR RCSS 310730Z 07014KT 040V110 9999 FEW015 BKN027 BKN040 19/14 Q1019 WS R10 NOSIG RMK A3011(O)=   \n",
      "'\n",
      "  warnings.warn(message, RuntimeWarning)\n",
      "/usr/local/lib/python3.6/dist-packages/metar/Metar.py:437: RuntimeWarning: Unparsed groups in body 'WS R10' while processing 'METAR RCSS 310800Z 08016KT 9999 FEW015 BKN027 BKN045 19/13 Q1019 WS R10 NOSIG RMK A3011(P)=   \n",
      "'\n",
      "  warnings.warn(message, RuntimeWarning)\n",
      "/usr/local/lib/python3.6/dist-packages/metar/Metar.py:437: RuntimeWarning: Unparsed groups in body 'WS R10' while processing 'SPECI RCSS 310906Z 08016KT 9999 FEW015 BKN025 BKN045 18/13 Q1020 WS R10 NOSIG RMK A3013(T)=   \n",
      "'\n",
      "  warnings.warn(message, RuntimeWarning)\n",
      "/usr/local/lib/python3.6/dist-packages/metar/Metar.py:437: RuntimeWarning: Unparsed groups in body 'WS R10' while processing 'METAR RCSS 310930Z 09017KT 9999 FEW013 BKN022 BKN040 17/14 Q1021 WS R10 NOSIG RMK A3015(U)=   \n",
      "'\n",
      "  warnings.warn(message, RuntimeWarning)\n",
      "/usr/local/lib/python3.6/dist-packages/metar/Metar.py:437: RuntimeWarning: Unparsed groups in body 'WS R10' while processing 'METAR RCSS 311000Z 09016KT 9999 FEW013 SCT028 BKN050 17/14 Q1021 WS R10 NOSIG RMK A3015(V)=   \n",
      "'\n",
      "  warnings.warn(message, RuntimeWarning)\n",
      "/usr/local/lib/python3.6/dist-packages/metar/Metar.py:437: RuntimeWarning: Unparsed groups in body 'WS R10' while processing 'METAR RCSS 311030Z 08017KT 9999 FEW010 BKN018 BKN030 17/14 Q1021 WS R10 NOSIG RMK A3015(W)=   \n",
      "'\n",
      "  warnings.warn(message, RuntimeWarning)\n",
      "/usr/local/lib/python3.6/dist-packages/metar/Metar.py:437: RuntimeWarning: Unparsed groups in body 'WS R10' while processing 'SPECI RCSS 311553Z 09017KT 9000 -DZ FEW010 BKN022 BKN040 16/14 Q1022 WS R10 NOSIG RMK A3020(I)=   \n",
      "'\n",
      "  warnings.warn(message, RuntimeWarning)\n",
      "/usr/local/lib/python3.6/dist-packages/metar/Metar.py:437: RuntimeWarning: Unparsed groups in body 'WS R10' while processing 'METAR RCSS 311600Z 09017KT 9000 -DZ FEW010 BKN020 BKN035 16/14 Q1022 WS R10 NOSIG RMK A3020(J)=   \n",
      "'\n",
      "  warnings.warn(message, RuntimeWarning)\n"
     ]
    },
    {
     "name": "stderr",
     "output_type": "stream",
     "text": [
      "/usr/local/lib/python3.6/dist-packages/metar/Metar.py:437: RuntimeWarning: Unparsed groups in body 'WS R28' while processing 'SPECI RCSS 070705Z 27015KT 9000 FEW020 31/22 Q1010 WS R28 NOSIG RMK 26014KT/R10 A2983(G)=   \n",
      "'\n",
      "  warnings.warn(message, RuntimeWarning)\n",
      "/usr/local/lib/python3.6/dist-packages/metar/Metar.py:437: RuntimeWarning: Unparsed groups in body 'WS R28' while processing 'METAR RCSS 070730Z 27015KT 9999 FEW020 SCT050 BKN160 30/21 Q1009 WS R28 NOSIG RMK 27015KT/R10 A2982(H)=   \n",
      "'\n",
      "  warnings.warn(message, RuntimeWarning)\n",
      "/usr/local/lib/python3.6/dist-packages/metar/Metar.py:437: RuntimeWarning: Unparsed groups in body 'WS R28' while processing 'METAR RCSS 070800Z 32010KT 290V350 9000 FEW020 SCT040 BKN100 28/23 Q1010 WS R28 NOSIG RMK 31006KT/R10 A2983(I)=   \n",
      "'\n",
      "  warnings.warn(message, RuntimeWarning)\n",
      "/usr/local/lib/python3.6/dist-packages/metar/Metar.py:437: RuntimeWarning: Unparsed groups in body 'WS R28' while processing 'METAR RCSS 070830Z 32009KT 290V360 9000 FEW020 BKN050 BKN120 27/23 Q1009 WS R28 NOSIG RMK 33006KT/R10 A2982(J)=   \n",
      "'\n",
      "  warnings.warn(message, RuntimeWarning)\n",
      "/usr/local/lib/python3.6/dist-packages/metar/Metar.py:437: RuntimeWarning: Unparsed groups in body 'WS R10' while processing 'SPECI RCSS 080410Z VRB03KT 9999 FEW028 33/22 Q1012 WS R10 NOSIG RMK A2989(U)=   \n",
      "'\n",
      "  warnings.warn(message, RuntimeWarning)\n",
      "/usr/local/lib/python3.6/dist-packages/metar/Metar.py:437: RuntimeWarning: Unparsed groups in body 'WS R10' while processing 'METAR RCSS 080430Z 29004KT 220V360 9999 FEW028 33/22 Q1012 WS R10 NOSIG RMK A2989(V)=   \n",
      "'\n",
      "  warnings.warn(message, RuntimeWarning)\n",
      "/usr/local/lib/python3.6/dist-packages/metar/Metar.py:437: RuntimeWarning: Unparsed groups in body 'WS R10' while processing 'METAR RCSS 080500Z 32004KT 240V360 9999 FEW028 32/22 Q1011 WS R10 NOSIG RMK A2988(W)=   \n",
      "'\n",
      "  warnings.warn(message, RuntimeWarning)\n",
      "/usr/local/lib/python3.6/dist-packages/metar/Metar.py:437: RuntimeWarning: Unparsed groups in body 'WS R10' while processing 'METAR RCSS 080530Z 30006KT 260V340 8000 FEW025 32/22 Q1011 WS R10 NOSIG RMK A2986(Y)=   \n",
      "'\n",
      "  warnings.warn(message, RuntimeWarning)\n",
      "/usr/local/lib/python3.6/dist-packages/metar/Metar.py:437: RuntimeWarning: Unparsed groups in body 'WS R10' while processing 'SPECI RCSS 080601Z 29008KT 260V340 8000 FEW025 31/22 Q1011 WS R10 NOSIG RMK A2986(A)=   \n",
      "'\n",
      "  warnings.warn(message, RuntimeWarning)\n",
      "/usr/local/lib/python3.6/dist-packages/metar/Metar.py:437: RuntimeWarning: Unparsed groups in body 'WS R10' while processing 'METAR RCSS 080630Z 29008KT 260V320 8000 FEW025 31/22 Q1011 WS R10 NOSIG RMK A2986(B)=   \n",
      "'\n",
      "  warnings.warn(message, RuntimeWarning)\n",
      "/usr/local/lib/python3.6/dist-packages/metar/Metar.py:437: RuntimeWarning: Unparsed groups in body 'WS R10' while processing 'SPECI RCSS 090537Z 30008KT 270V360 8000 FEW020 SCT035 BKN200 32/23 Q1008 WS R10 NOSIG RMK A2978(Q)=   \n",
      "'\n",
      "  warnings.warn(message, RuntimeWarning)\n",
      "/usr/local/lib/python3.6/dist-packages/metar/Metar.py:437: RuntimeWarning: Unparsed groups in body 'WS R10' while processing 'METAR RCSS 090600Z 30007KT 270V350 8000 FEW020 SCT035 BKN200 32/24 Q1008 WS R10 NOSIG RMK A2978(R)=   \n",
      "'\n",
      "  warnings.warn(message, RuntimeWarning)\n",
      "/usr/local/lib/python3.6/dist-packages/metar/Metar.py:437: RuntimeWarning: Unparsed groups in body 'WS R10' while processing 'SPECI RCSS 090858Z 28009KT 260V320 9999 FEW018 BKN035 30/24 Q1007 WS R10 NOSIG RMK A2975(X)=   \n",
      "'\n",
      "  warnings.warn(message, RuntimeWarning)\n",
      "/usr/local/lib/python3.6/dist-packages/metar/Metar.py:437: RuntimeWarning: Unparsed groups in body 'WS R10' while processing 'METAR RCSS 090900Z 28009KT 260V320 9999 FEW018 BKN035 30/23 Q1007 WS R10 NOSIG RMK A2975(Y)=   \n",
      "'\n",
      "  warnings.warn(message, RuntimeWarning)\n",
      "/usr/local/lib/python3.6/dist-packages/metar/Metar.py:437: RuntimeWarning: Unparsed groups in body 'WS R28' while processing 'SPECI RCSS 090904Z VRB03KT 9999 FEW018 BKN030 29/24 Q1007 WS R28 NOSIG RMK 28009KT/R10 A2976(Z)=   \n",
      "'\n",
      "  warnings.warn(message, RuntimeWarning)\n",
      "/usr/local/lib/python3.6/dist-packages/metar/Metar.py:437: RuntimeWarning: Unparsed groups in body 'WS R10' while processing 'METAR RCSS 090930Z 27008KT 240V310 9999 FEW016 BKN025 29/24 Q1007 WS R10 NOSIG RMK A2975(A)=   \n",
      "'\n",
      "  warnings.warn(message, RuntimeWarning)\n",
      "/usr/local/lib/python3.6/dist-packages/metar/Metar.py:437: RuntimeWarning: Unparsed groups in body 'WS R28' while processing 'SPECI RCSS 100417Z 28014KT 250V310 9999 FEW025 33/20 Q1009 WS R28 NOSIG RMK 28013KT/R10 A2982(I)=   \n",
      "'\n",
      "  warnings.warn(message, RuntimeWarning)\n",
      "/usr/local/lib/python3.6/dist-packages/metar/Metar.py:437: RuntimeWarning: Unparsed groups in body 'WS R28' while processing 'METAR RCSS 100430Z 28013KT 9999 FEW025 33/21 Q1009 WS R28 NOSIG RMK 27011KT/R10 A2981(J)=   \n",
      "'\n",
      "  warnings.warn(message, RuntimeWarning)\n",
      "/usr/local/lib/python3.6/dist-packages/metar/Metar.py:437: RuntimeWarning: Unparsed groups in body 'WS R28' while processing 'METAR RCSS 100500Z 31017G27KT 9999 FEW020 31/23 Q1009 WS R28 NOSIG RMK 32014KT/R10 A2982(K)=   \n",
      "'\n",
      "  warnings.warn(message, RuntimeWarning)\n",
      "/usr/local/lib/python3.6/dist-packages/metar/Metar.py:437: RuntimeWarning: Unparsed groups in body 'WS R10' while processing 'SPECI RCSS 100758Z 10010KT 9999 FEW012 BKN025 27/20 Q1010 WS R10 NOSIG RMK A2983(S)=   \n",
      "'\n",
      "  warnings.warn(message, RuntimeWarning)\n",
      "/usr/local/lib/python3.6/dist-packages/metar/Metar.py:437: RuntimeWarning: Unparsed groups in body 'WS R10' while processing 'METAR RCSS 100800Z 10013KT 9999 FEW012 BKN025 26/20 Q1010 WS R10 NOSIG RMK A2983(T)=   \n",
      "'\n",
      "  warnings.warn(message, RuntimeWarning)\n",
      "/usr/local/lib/python3.6/dist-packages/metar/Metar.py:437: RuntimeWarning: Unparsed groups in body 'WS R10' while processing 'SPECI RCSS 140452Z 09009KT 070V130 9999 FEW018 SCT025 BKN200 28/22 Q1013 WS R10 NOSIG RMK A2994(J)=   \n",
      "'\n",
      "  warnings.warn(message, RuntimeWarning)\n",
      "/usr/local/lib/python3.6/dist-packages/metar/Metar.py:437: RuntimeWarning: Unparsed groups in body 'WS R10' while processing 'METAR RCSS 140500Z 09010KT 9999 FEW015 SCT025 28/22 Q1013 WS R10 NOSIG RMK A2994(K)=   \n",
      "'\n",
      "  warnings.warn(message, RuntimeWarning)\n",
      "/usr/local/lib/python3.6/dist-packages/metar/Metar.py:437: RuntimeWarning: Unparsed groups in body 'WS R10' while processing 'METAR RCSS 140530Z 09009KT 9999 FEW015 SCT025 BKN040 26/21 Q1013 WS R10 NOSIG RMK A2994(L)=   \n",
      "'\n",
      "  warnings.warn(message, RuntimeWarning)\n",
      "/usr/local/lib/python3.6/dist-packages/metar/Metar.py:437: RuntimeWarning: Unparsed groups in body 'WS R10' while processing 'METAR RCSS 140600Z 09013KT 9999 SCT015 BKN025 BKN090 24/20 Q1013 WS R10 NOSIG RMK A2994(M)=   \n",
      "'\n",
      "  warnings.warn(message, RuntimeWarning)\n",
      "/usr/local/lib/python3.6/dist-packages/metar/Metar.py:437: RuntimeWarning: Unparsed groups in body 'WS R10' while processing 'METAR RCSS 140630Z 09010KT 9999 FEW012 BKN022 BKN080 24/20 Q1013 WS R10 NOSIG RMK A2994(N)=   \n",
      "'\n",
      "  warnings.warn(message, RuntimeWarning)\n",
      "/usr/local/lib/python3.6/dist-packages/metar/Metar.py:437: RuntimeWarning: Unparsed groups in body 'WS R10' while processing 'SPECI RCSS 180818Z 29008KT 260V320 9999 FEW022 SCT040 29/19 Q1009 WS R10 NOSIG RMK A2981(T)=   \n",
      "'\n",
      "  warnings.warn(message, RuntimeWarning)\n",
      "/usr/local/lib/python3.6/dist-packages/metar/Metar.py:437: RuntimeWarning: Unparsed groups in body 'WS R10' while processing 'METAR RCSS 180830Z 29007KT 9999 FEW022 BKN040 29/19 Q1009 WS R10 NOSIG RMK A2982(U)=   \n",
      "'\n",
      "  warnings.warn(message, RuntimeWarning)\n",
      "/usr/local/lib/python3.6/dist-packages/metar/Metar.py:437: RuntimeWarning: Unparsed groups in body 'WS R10' while processing 'SPECI RCSS 220741Z VRB04KT 2700 TSRA FEW008 FEW015CB BKN020 BKN040 28/24 Q1007 WS R10 NOSIG RMK TS S MOV NE A2976(Y)=   \n",
      "'\n",
      "  warnings.warn(message, RuntimeWarning)\n",
      "/usr/local/lib/python3.6/dist-packages/metar/Metar.py:437: RuntimeWarning: Unparsed groups in body 'WS R10' while processing 'SPECI RCSS 220748Z VRB04KT 2000 +TSRA FEW004 FEW010CB BKN015 BKN030 28/24 Q1007 WS R10 NOSIG RMK TS S MOV NE A2976(Z)=   \n",
      "'\n",
      "  warnings.warn(message, RuntimeWarning)\n",
      "/usr/local/lib/python3.6/dist-packages/metar/Metar.py:437: RuntimeWarning: Unparsed groups in body 'WS R10' while processing 'SPECI RCSS 220752Z VRB04KT 1200 R10/1700D +TSRA SCT003 FEW010CB BKN012 OVC025 28/24 Q1007 WS R10 NOSIG RMK TS S MOV NE A2976(A)=   \n",
      "'\n",
      "  warnings.warn(message, RuntimeWarning)\n",
      "/usr/local/lib/python3.6/dist-packages/metar/Metar.py:437: RuntimeWarning: Unparsed groups in body 'WS R10' while processing 'METAR RCSS 220800Z 08014KT 1200 R10/1600D +TSRA SCT003 FEW010CB BKN012 BKN025 25/24 Q1008 WS R10 NOSIG RMK TS S MOV NE A2977 RA AMT 5.6MM(B)=   \n",
      "'\n",
      "  warnings.warn(message, RuntimeWarning)\n",
      "/usr/local/lib/python3.6/dist-packages/metar/Metar.py:437: RuntimeWarning: Unparsed groups in body 'WS R10' while processing 'SPECI RCSS 220811Z 08007KT 2800 +TSRA SCT005 FEW010CB BKN014 BKN028 25/24 Q1008 WS R10 NOSIG RMK TS SE MOV NE A2977(C)=   \n",
      "'\n",
      "  warnings.warn(message, RuntimeWarning)\n",
      "/usr/local/lib/python3.6/dist-packages/metar/Metar.py:437: RuntimeWarning: Unparsed groups in body 'WS R10' while processing 'SPECI RCSS 220818Z 08007KT 3500 SHRA FEW006 FEW012CB BKN016 BKN032 25/24 Q1008 RETS WS R10 NOSIG RMK CB NE-E-SE A2978(E)=   \n",
      "'\n",
      "  warnings.warn(message, RuntimeWarning)\n"
     ]
    },
    {
     "name": "stderr",
     "output_type": "stream",
     "text": [
      "/usr/local/lib/python3.6/dist-packages/metar/Metar.py:437: RuntimeWarning: Unparsed groups in body 'WS R28' while processing 'METAR RCSS 250730Z 27013KT 9999 FEW025 35/22 Q1005 WS R28 NOSIG RMK 26009KT/R10 A2970(R)=   \n",
      "'\n",
      "  warnings.warn(message, RuntimeWarning)\n",
      "/usr/local/lib/python3.6/dist-packages/metar/Metar.py:437: RuntimeWarning: Unparsed groups in body 'WS R28' while processing 'METAR RCSS 250800Z 27011KT 9999 FEW025 BKN150 34/21 Q1006 WS R28 NOSIG RMK 26006KT/R10 A2971(T)=   \n",
      "'\n",
      "  warnings.warn(message, RuntimeWarning)\n",
      "/usr/local/lib/python3.6/dist-packages/metar/Metar.py:437: RuntimeWarning: Unparsed groups in body 'WS R10' while processing 'SPECI RCSS 250812Z 27007KT 240V350 9999 FEW025 BKN150 34/21 Q1006 WS R10 NOSIG RMK A2972(U)=   \n",
      "'\n",
      "  warnings.warn(message, RuntimeWarning)\n",
      "/usr/local/lib/python3.6/dist-packages/metar/Metar.py:437: RuntimeWarning: Unparsed groups in body 'WS R10' while processing 'METAR RCSS 250830Z 10010KT 9999 FEW025 BKN150 30/24 Q1006 WS R10 NOSIG RMK A2973(V)=   \n",
      "'\n",
      "  warnings.warn(message, RuntimeWarning)\n",
      "/usr/local/lib/python3.6/dist-packages/metar/Metar.py:437: RuntimeWarning: Unparsed groups in body 'WS R10' while processing 'METAR RCSS 250900Z 09014KT 9999 FEW020 SCT100 BKN150 29/23 Q1007 WS R10 NOSIG RMK A2975(W)=   \n",
      "'\n",
      "  warnings.warn(message, RuntimeWarning)\n",
      "/usr/local/lib/python3.6/dist-packages/metar/Metar.py:437: RuntimeWarning: Unparsed groups in body 'WS R10' while processing 'METAR RCSS 250930Z 31007KT 240V360 9999 FEW020 SCT100 BKN150 29/23 Q1007 WS R10 NOSIG RMK A2976(X)=   \n",
      "'\n",
      "  warnings.warn(message, RuntimeWarning)\n",
      "/usr/local/lib/python3.6/dist-packages/metar/Metar.py:437: RuntimeWarning: Unparsed groups in body 'WS R10' while processing 'METAR RCSS 251000Z VRB06KT 9999 FEW020 SCT150 28/23 Q1007 WS R10 NOSIG RMK A2976(Y)=   \n",
      "'\n",
      "  warnings.warn(message, RuntimeWarning)\n",
      "/usr/local/lib/python3.6/dist-packages/metar/Metar.py:437: RuntimeWarning: Unparsed groups in body 'WS R10' while processing 'SPECI RCSS 260723Z 08013KT 040V110 9999 FEW020 29/23 Q1010 WS R10 NOSIG RMK A2984(N)=   \n",
      "'\n",
      "  warnings.warn(message, RuntimeWarning)\n",
      "/usr/local/lib/python3.6/dist-packages/metar/Metar.py:437: RuntimeWarning: Unparsed groups in body 'WS R10' while processing 'METAR RCSS 260730Z 07012KT 040V100 9999 FEW020 28/23 Q1010 WS R10 NOSIG RMK A2985(O)=   \n",
      "'\n",
      "  warnings.warn(message, RuntimeWarning)\n",
      "/usr/local/lib/python3.6/dist-packages/metar/Metar.py:437: RuntimeWarning: Unparsed groups in body 'WS R10' while processing 'METAR RCSS 260800Z 08014KT 9999 FEW018 28/22 Q1010 WS R10 NOSIG RMK A2985(P)=   \n",
      "'\n",
      "  warnings.warn(message, RuntimeWarning)\n",
      "/usr/local/lib/python3.6/dist-packages/metar/Metar.py:437: RuntimeWarning: Unparsed groups in body 'WS R10' while processing 'METAR RCSS 260830Z 08015KT 9999 FEW018 27/22 Q1011 WS R10 NOSIG RMK A2986(Q)=   \n",
      "'\n",
      "  warnings.warn(message, RuntimeWarning)\n",
      "/usr/local/lib/python3.6/dist-packages/metar/Metar.py:437: RuntimeWarning: Unparsed groups in body 'WS R10' while processing 'SPECI RCSS 270715Z 08017KT 9000 VCSH FEW008 BKN016 BKN050 25/21 Q1013 WS R10 NOSIG RMK A2993(F)=   \n",
      "'\n",
      "  warnings.warn(message, RuntimeWarning)\n",
      "/usr/local/lib/python3.6/dist-packages/metar/Metar.py:437: RuntimeWarning: Unparsed groups in body 'WS R10' while processing 'METAR RCSS 270730Z 08016KT 9999 FEW008 SCT018 BKN080 24/21 Q1013 WS R10 NOSIG RMK A2993(G)=   \n",
      "'\n",
      "  warnings.warn(message, RuntimeWarning)\n",
      "/usr/local/lib/python3.6/dist-packages/metar/Metar.py:437: RuntimeWarning: Unparsed groups in body 'WS R10' while processing 'SPECI RCSS 270837Z 09015KT 9999 FEW010 BKN018 BKN100 24/21 Q1013 WS R10 NOSIG RMK A2994(K)=   \n",
      "'\n",
      "  warnings.warn(message, RuntimeWarning)\n",
      "/usr/local/lib/python3.6/dist-packages/metar/Metar.py:437: RuntimeWarning: Unparsed groups in body 'WS R10' while processing 'METAR RCSS 270900Z 08015KT 9999 FEW010 BKN016 BKN080 24/20 Q1013 WS R10 NOSIG RMK A2994(L)=   \n",
      "'\n",
      "  warnings.warn(message, RuntimeWarning)\n",
      "/usr/local/lib/python3.6/dist-packages/metar/Metar.py:437: RuntimeWarning: Unparsed groups in body 'WS R28' while processing 'SPECI RCSS 300603Z VRB03KT 9999 FEW015 BKN025 BKN040 30/26 Q1005 WS R28 NOSIG RMK 29007KT/R10 A2968(O)=   \n",
      "'\n",
      "  warnings.warn(message, RuntimeWarning)\n",
      "/usr/local/lib/python3.6/dist-packages/metar/Metar.py:437: RuntimeWarning: Unparsed groups in body 'WS R10' while processing 'SPECI RCSS 300610Z 30006KT 270V010 9999 FEW015 BKN025 BKN040 31/25 Q1005 WS R10 NOSIG RMK A2968(P)=   \n",
      "'\n",
      "  warnings.warn(message, RuntimeWarning)\n",
      "/usr/local/lib/python3.6/dist-packages/metar/Metar.py:437: RuntimeWarning: Unparsed groups in body 'WS R10' while processing 'METAR RCSS 300630Z 31006KT 250V020 9999 FEW012 FEW018TCU BKN022 BKN040 30/24 Q1004 WS R10 NOSIG RMK TCU NE A2967(Q)=   \n",
      "'\n",
      "  warnings.warn(message, RuntimeWarning)\n",
      "/usr/local/lib/python3.6/dist-packages/metar/Metar.py:437: RuntimeWarning: Unparsed groups in body 'WS R28' while processing 'SPECI RCSS 300736Z 29010KT 9999 FEW010 FEW015TCU BKN022 BKN040 30/25 Q1004 WS R28 NOSIG RMK 29009KT/R10 TCU NE-E A2967(U)=   \n",
      "'\n",
      "  warnings.warn(message, RuntimeWarning)\n",
      "/usr/local/lib/python3.6/dist-packages/metar/Metar.py:437: RuntimeWarning: Unparsed groups in body 'WS R28' while processing 'METAR RCSS 300800Z 30010KT 270V340 9999 FEW010 BKN020 BKN040 29/24 Q1004 WS R28 NOSIG RMK 28010KT/R10 A2967(V)=   \n",
      "'\n",
      "  warnings.warn(message, RuntimeWarning)\n",
      "/usr/local/lib/python3.6/dist-packages/metar/Metar.py:437: RuntimeWarning: Unparsed groups in body 'WS R10' while processing 'SPECI RCSS 030210Z 07011KT 030V100 9999 FEW015 24/18 Q1017 WS R10 NOSIG RMK A3004(W)=   \n",
      "'\n",
      "  warnings.warn(message, RuntimeWarning)\n",
      "/usr/local/lib/python3.6/dist-packages/metar/Metar.py:437: RuntimeWarning: Unparsed groups in body 'WS R10' while processing 'METAR RCSS 030230Z 08015KT 040V100 9999 FEW015 SCT040 24/17 Q1017 WS R10 NOSIG RMK A3004(X)=   \n",
      "'\n",
      "  warnings.warn(message, RuntimeWarning)\n",
      "/usr/local/lib/python3.6/dist-packages/metar/Metar.py:437: RuntimeWarning: Unparsed groups in body 'WS R10' while processing 'METAR RCSS 030300Z 07013KT 9999 FEW020 SCT100 25/16 Q1016 WS R10 NOSIG RMK A3003(Y)=   \n",
      "'\n",
      "  warnings.warn(message, RuntimeWarning)\n",
      "/usr/local/lib/python3.6/dist-packages/metar/Metar.py:437: RuntimeWarning: Unparsed groups in body 'WS R10' while processing 'METAR RCSS 030330Z 06013KT 030V100 9999 FEW018 SCT055 25/16 Q1016 WS R10 NOSIG RMK A3003(Z)=   \n",
      "'\n",
      "  warnings.warn(message, RuntimeWarning)\n",
      "/usr/local/lib/python3.6/dist-packages/metar/Metar.py:437: RuntimeWarning: Unparsed groups in body 'WS R10' while processing 'METAR RCSS 030400Z 09012KT 030V110 9999 FEW020 SCT050 25/16 Q1016 WS R10 NOSIG RMK A3003(A)=   \n",
      "'\n",
      "  warnings.warn(message, RuntimeWarning)\n",
      "/usr/local/lib/python3.6/dist-packages/metar/Metar.py:437: RuntimeWarning: Unparsed groups in body 'WS R10' while processing 'SPECI RCSS 030658Z 07013KT 030V100 9999 FEW025 SCT045 25/15 Q1015 WS R10 NOSIG RMK A2998(H)=   \n",
      "'\n",
      "  warnings.warn(message, RuntimeWarning)\n",
      "/usr/local/lib/python3.6/dist-packages/metar/Metar.py:437: RuntimeWarning: Unparsed groups in body 'WS R10' while processing 'METAR RCSS 030700Z 07013KT 030V100 9999 FEW025 SCT045 25/15 Q1015 WS R10 NOSIG RMK A2998(I)=   \n",
      "'\n",
      "  warnings.warn(message, RuntimeWarning)\n",
      "/usr/local/lib/python3.6/dist-packages/metar/Metar.py:437: RuntimeWarning: Unparsed groups in body 'WS R10' while processing 'SPECI RCSS 030755Z 07011KT 020V100 9999 FEW025 SCT050 25/15 Q1015 WS R10 NOSIG RMK A2999(L)=   \n",
      "'\n",
      "  warnings.warn(message, RuntimeWarning)\n",
      "/usr/local/lib/python3.6/dist-packages/metar/Metar.py:437: RuntimeWarning: Unparsed groups in body 'WS R10' while processing 'METAR RCSS 030800Z 07011KT 020V090 9999 FEW025 SCT050 25/15 Q1015 WS R10 NOSIG RMK A2999(M)=   \n",
      "'\n",
      "  warnings.warn(message, RuntimeWarning)\n",
      "/usr/local/lib/python3.6/dist-packages/metar/Metar.py:437: RuntimeWarning: Unparsed groups in body 'WS R10' while processing 'SPECI RCSS 030821Z 08013KT 9999 FEW025 SCT120 25/15 Q1015 WS R10 NOSIG RMK A2999(O)=   \n",
      "'\n",
      "  warnings.warn(message, RuntimeWarning)\n",
      "/usr/local/lib/python3.6/dist-packages/metar/Metar.py:437: RuntimeWarning: Unparsed groups in body 'WS R10' while processing 'METAR RCSS 030830Z 09015KT 9999 FEW025 SCT120 25/15 Q1015 WS R10 NOSIG RMK A2998(P)=   \n",
      "'\n",
      "  warnings.warn(message, RuntimeWarning)\n",
      "/usr/local/lib/python3.6/dist-packages/metar/Metar.py:437: RuntimeWarning: Unparsed groups in body 'WS R10' while processing 'SPECI RCSS 050602Z 10013KT 9999 FEW025 SCT040 BKN180 27/19 Q1009 WS R10 NOSIG RMK A2982(X)=   \n",
      "'\n",
      "  warnings.warn(message, RuntimeWarning)\n",
      "/usr/local/lib/python3.6/dist-packages/metar/Metar.py:437: RuntimeWarning: Unparsed groups in body 'WS R10' while processing 'SPECI RCSS 070403Z 09013KT 9999 -RA FEW010 BKN018 BKN030 20/17 Q1013 WS R10 NOSIG RMK A2994(I)=   \n",
      "'\n",
      "  warnings.warn(message, RuntimeWarning)\n",
      "/usr/local/lib/python3.6/dist-packages/metar/Metar.py:437: RuntimeWarning: Unparsed groups in body 'WS R10' while processing 'SPECI RCSS 070611Z 09015KT 9999 FEW010 BKN030 BKN050 20/16 Q1012 WS R10 NOSIG RMK A2989(N)=   \n",
      "'\n",
      "  warnings.warn(message, RuntimeWarning)\n",
      "/usr/local/lib/python3.6/dist-packages/metar/Metar.py:437: RuntimeWarning: Unparsed groups in body 'WS R10' while processing 'METAR RCSS 070630Z 09014KT 9999 FEW010 BKN030 BKN050 20/16 Q1012 WS R10 NOSIG RMK A2989(O)=   \n",
      "'\n",
      "  warnings.warn(message, RuntimeWarning)\n",
      "/usr/local/lib/python3.6/dist-packages/metar/Metar.py:437: RuntimeWarning: Unparsed groups in body 'WS R10' while processing 'SPECI RCSS 100233Z 08013KT 9999 SCT012 BKN022 BKN050 23/19 Q1011 WS R10 NOSIG RMK A2986(B)=   \n",
      "'\n",
      "  warnings.warn(message, RuntimeWarning)\n",
      "/usr/local/lib/python3.6/dist-packages/metar/Metar.py:437: RuntimeWarning: Unparsed groups in body 'WS R10' while processing 'METAR RCSS 100300Z 08011KT 9999 FEW012 BKN020 BKN050 23/19 Q1011 WS R10 NOSIG RMK A2986(C)=   \n",
      "'\n",
      "  warnings.warn(message, RuntimeWarning)\n",
      "/usr/local/lib/python3.6/dist-packages/metar/Metar.py:437: RuntimeWarning: Unparsed groups in body 'WS R10' while processing 'SPECI RCSS 110259Z 09017KT 9999 FEW015 BKN035 27/22 Q1012 WS R10 NOSIG RMK A2990(U)=   \n",
      "'\n",
      "  warnings.warn(message, RuntimeWarning)\n",
      "/usr/local/lib/python3.6/dist-packages/metar/Metar.py:437: RuntimeWarning: Unparsed groups in body 'WS R10' while processing 'METAR RCSS 110300Z 09017KT 9999 FEW015 BKN035 27/22 Q1012 WS R10 NOSIG RMK A2990(V)=   \n",
      "'\n",
      "  warnings.warn(message, RuntimeWarning)\n",
      "/usr/local/lib/python3.6/dist-packages/metar/Metar.py:437: RuntimeWarning: Unparsed groups in body 'WS R10' while processing 'METAR RCSS 110330Z 09015KT 9999 FEW012 BKN035 27/23 Q1012 WS R10 NOSIG RMK A2989(W)=   \n",
      "'\n",
      "  warnings.warn(message, RuntimeWarning)\n",
      "/usr/local/lib/python3.6/dist-packages/metar/Metar.py:437: RuntimeWarning: Unparsed groups in body 'WS R10' while processing 'SPECI RCSS 110533Z 09016KT 9999 FEW016 BKN035 BKN080 26/22 Q1011 WS R10 NOSIG RMK A2986(C)=   \n",
      "'\n",
      "  warnings.warn(message, RuntimeWarning)\n",
      "/usr/local/lib/python3.6/dist-packages/metar/Metar.py:437: RuntimeWarning: Unparsed groups in body 'WS R10' while processing 'METAR RCSS 110600Z 08015KT 9999 FEW016 SCT035 BKN090 27/22 Q1011 WS R10 NOSIG RMK A2986(D)=   \n",
      "'\n",
      "  warnings.warn(message, RuntimeWarning)\n",
      "/usr/local/lib/python3.6/dist-packages/metar/Metar.py:437: RuntimeWarning: Unparsed groups in body 'WS R10' while processing 'METAR RCSS 110630Z 08014KT 9999 SCT015 BKN090 BKN150 26/22 Q1011 WS R10 NOSIG RMK A2986(E)=   \n",
      "'\n",
      "  warnings.warn(message, RuntimeWarning)\n",
      "/usr/local/lib/python3.6/dist-packages/metar/Metar.py:437: RuntimeWarning: Unparsed groups in body 'WS R10' while processing 'METAR RCSS 110700Z 08016KT 040V110 9999 SCT015 SCT025 BKN090 26/21 Q1010 WS R10 NOSIG RMK A2985(F)=   \n",
      "'\n",
      "  warnings.warn(message, RuntimeWarning)\n",
      "/usr/local/lib/python3.6/dist-packages/metar/Metar.py:437: RuntimeWarning: Unparsed groups in body 'WS R10' while processing 'SPECI RCSS 110751Z 08015KT 9999 SCT015 SCT025 BKN090 26/21 Q1010 WS R10 NOSIG RMK A2984(H)=   \n",
      "'\n",
      "  warnings.warn(message, RuntimeWarning)\n",
      "/usr/local/lib/python3.6/dist-packages/metar/Metar.py:437: RuntimeWarning: Unparsed groups in body 'WS R10' while processing 'METAR RCSS 110800Z 08014KT 060V120 9999 FEW015 SCT025 BKN090 26/21 Q1010 WS R10 NOSIG RMK A2984(I)=   \n",
      "'\n",
      "  warnings.warn(message, RuntimeWarning)\n",
      "/usr/local/lib/python3.6/dist-packages/metar/Metar.py:437: RuntimeWarning: Unparsed groups in body 'WS R10' while processing 'METAR RCSS 110830Z 09015KT 9999 FEW015 SCT025 BKN090 25/21 Q1010 WS R10 NOSIG RMK A2985(J)=   \n",
      "'\n",
      "  warnings.warn(message, RuntimeWarning)\n"
     ]
    },
    {
     "name": "stderr",
     "output_type": "stream",
     "text": [
      "/usr/local/lib/python3.6/dist-packages/metar/Metar.py:437: RuntimeWarning: Unparsed groups in body 'WS R28' while processing 'SPECI RCSS 160511Z 28018KT 9999 FEW018 SCT035 BKN070 32/25 Q1005 WS R28 NOSIG RMK 28014KT/R10 A2968(P)=   \n",
      "'\n",
      "  warnings.warn(message, RuntimeWarning)\n",
      "/usr/local/lib/python3.6/dist-packages/metar/Metar.py:437: RuntimeWarning: Unparsed groups in body 'WS R28' while processing 'METAR RCSS 160530Z 28014KT 9999 VCSH FEW012 SCT028 BKN060 32/26 Q1005 WS R28 NOSIG RMK 28010KT/R10 A2968(Q)=   \n",
      "'\n",
      "  warnings.warn(message, RuntimeWarning)\n",
      "/usr/local/lib/python3.6/dist-packages/metar/Metar.py:437: RuntimeWarning: Unparsed groups in body 'WS R10' while processing 'SPECI RCSS 171155Z 09006KT 9999 FEW012 BKN060 26/24 Q1004 WS R10 NOSIG RMK A2965(B)=   \n",
      "'\n",
      "  warnings.warn(message, RuntimeWarning)\n",
      "/usr/local/lib/python3.6/dist-packages/metar/Metar.py:437: RuntimeWarning: Unparsed groups in body 'WS R10' while processing 'METAR RCSS 171200Z 09006KT 9999 FEW012 BKN060 26/24 Q1004 WS R10 NOSIG RMK A2966(C)=   \n",
      "'\n",
      "  warnings.warn(message, RuntimeWarning)\n",
      "/usr/local/lib/python3.6/dist-packages/metar/Metar.py:437: RuntimeWarning: Unparsed groups in body 'WS R28' while processing 'SPECI RCSS 180210Z 27018KT 8000 -SHRA FEW015 BKN040 BKN150 32/26 Q1005 WS R28 NOSIG RMK 26015G26KT/R10 A2968(C)=   \n",
      "'\n",
      "  warnings.warn(message, RuntimeWarning)\n",
      "/usr/local/lib/python3.6/dist-packages/metar/Metar.py:437: RuntimeWarning: Unparsed groups in body 'WS R28' while processing 'SPECI RCSS 180216Z 27018KT 8000 4000W SHRA FEW015 BKN035 BKN120 30/26 Q1005 WS R28 NOSIG RMK 27014KT/R10 A2969(D)=   \n",
      "'\n",
      "  warnings.warn(message, RuntimeWarning)\n",
      "/usr/local/lib/python3.6/dist-packages/metar/Metar.py:437: RuntimeWarning: Unparsed groups in body 'WS R28' while processing 'SPECI RCSS 180221Z 29012G22KT 8000 -SHRA FEW015 BKN035 BKN120 28/26 Q1005 RESHRA WS R28 NOSIG RMK 29008KT/R10 A2969(E)=   \n",
      "'\n",
      "  warnings.warn(message, RuntimeWarning)\n",
      "/usr/local/lib/python3.6/dist-packages/metar/Metar.py:437: RuntimeWarning: Unparsed groups in body 'WS R28' while processing 'METAR RCSS 180230Z 30008KT 9999 4000W -SHRA FEW015 BKN035 BKN120 29/27 Q1005 RESHRA WS R28 NOSIG RMK 30007KT/R10 A2969(F)=   \n",
      "'\n",
      "  warnings.warn(message, RuntimeWarning)\n",
      "/usr/local/lib/python3.6/dist-packages/metar/Metar.py:437: RuntimeWarning: Unparsed groups in body 'WS R28' while processing 'SPECI RCSS 180234Z 30008KT 6000 2000W SHRA FEW010 BKN035 BKN120 28/27 Q1005 WS R28 NOSIG RMK 31007KT/R10 A2970(G)=   \n",
      "'\n",
      "  warnings.warn(message, RuntimeWarning)\n",
      "/usr/local/lib/python3.6/dist-packages/metar/Metar.py:437: RuntimeWarning: Unparsed groups in body 'WS R28' while processing 'SPECI RCSS 180237Z 30008KT 4000 SHRA FEW010 BKN030 BKN100 28/26 Q1005 WS R28 NOSIG RMK 32007KT/R10 A2969(H)=   \n",
      "'\n",
      "  warnings.warn(message, RuntimeWarning)\n",
      "/usr/local/lib/python3.6/dist-packages/metar/Metar.py:437: RuntimeWarning: Unparsed groups in body 'WS R28' while processing 'SPECI RCSS 192257Z 29010G24KT 9999 -SHRA FEW016 FEW020CB SCT025 BKN070 29/26 Q1007 WS R28 TEMPO 3000 SHRA RMK 29010G25KT/R10 CB NW-N A2974(W)=   \n",
      "'\n",
      "  warnings.warn(message, RuntimeWarning)\n",
      "/usr/local/lib/python3.6/dist-packages/metar/Metar.py:437: RuntimeWarning: Unparsed groups in body 'WS R28' while processing 'METAR RCSS 192300Z 30021KT 9999 -SHRA FEW012 FEW015CB BKN025 BKN070 28/25 Q1007 WS R28 TEMPO 3000 SHRA RMK 30013G26KT/R10 CB NW-N A2976(X)=   \n",
      "'\n",
      "  warnings.warn(message, RuntimeWarning)\n",
      "/usr/local/lib/python3.6/dist-packages/metar/Metar.py:437: RuntimeWarning: Unparsed groups in body 'WS R28' while processing 'SPECI RCSS 192310Z 33015G30KT 300V010 7000 SHRA FEW006 FEW015CB BKN025 BKN060 26/24 Q1008 WS R28 TEMPO 3000 TSRA RMK 30012G25KT/R10 CB NW-N A2977(Y)=   \n",
      "'\n",
      "  warnings.warn(message, RuntimeWarning)\n",
      "/usr/local/lib/python3.6/dist-packages/metar/Metar.py:437: RuntimeWarning: Unparsed groups in body 'WS R28' while processing 'SPECI RCSS 192314Z 33012G25KT 300V010 4000 SHRA FEW005 FEW015CB BKN025 BKN060 25/24 Q1008 WS R28 TEMPO 3000 TSRA RMK 34010KT/R10 CB NW-N A2978(A)=   \n",
      "'\n",
      "  warnings.warn(message, RuntimeWarning)\n",
      "/usr/local/lib/python3.6/dist-packages/metar/Metar.py:437: RuntimeWarning: Unparsed groups in body 'WS R28' while processing 'METAR RCSS 192330Z 31007KT 280V340 7000 SHRA FEW005 FEW015CB BKN025 BKN050 24/23 Q1007 WS R28 TEMPO 3000 TSRA RMK 29007KT/R10 CB NW-NE A2976(B)=   \n",
      "'\n",
      "  warnings.warn(message, RuntimeWarning)\n",
      "/usr/local/lib/python3.6/dist-packages/metar/Metar.py:437: RuntimeWarning: Unparsed groups in body 'WS R28' while processing 'SPECI RCSS 192344Z 30007KT 270V330 5000 SHRA FEW005 FEW015CB BKN025 BKN050 24/23 Q1007 WS R28 TEMPO 3000 TSRA RMK 29007KT/R10 CB E AND NW-N A2976(C)=   \n",
      "'\n",
      "  warnings.warn(message, RuntimeWarning)\n",
      "/usr/local/lib/python3.6/dist-packages/metar/Metar.py:437: RuntimeWarning: Unparsed groups in body 'WS R28' while processing 'SPECI RCSS 192347Z 29006KT 250V330 4000 SHRA FEW003 FEW015CB BKN020 BKN050 24/23 Q1008 WS R28 TEMPO 3000 TSRA RMK 30007KT/R10 CB E AND NW-N A2977(D)=   \n",
      "'\n",
      "  warnings.warn(message, RuntimeWarning)\n",
      "/usr/local/lib/python3.6/dist-packages/metar/Metar.py:437: RuntimeWarning: Unparsed groups in body 'WS R28' while processing 'SPECI RCSS 192349Z 30005KT 270V330 3000 SHRA FEW003 FEW015CB BKN020 BKN050 24/23 Q1008 WS R28 TEMPO 2000 TSRA RMK 30008KT/R10 CB NE AND NW-N A2977(E)=   \n",
      "'\n",
      "  warnings.warn(message, RuntimeWarning)\n",
      "/usr/local/lib/python3.6/dist-packages/metar/Metar.py:437: RuntimeWarning: Unparsed groups in body 'WS R28' while processing 'SPECI RCSS 192354Z VRB04KT 3000 VCTS SHRA FEW003 FEW015CB BKN020 BKN050 24/24 Q1008 WS R28 TEMPO 2000 TSRA RMK 32008KT/R10 TS NE AND NW-N MOV SE A2977(F)=   \n",
      "'\n",
      "  warnings.warn(message, RuntimeWarning)\n",
      "/usr/local/lib/python3.6/dist-packages/metar/Metar.py:437: RuntimeWarning: Unparsed groups in body 'WS R28' while processing 'SPECI RCSS 192358Z 30003KT 270V340 2200 VCTS SHRA FEW003 FEW015CB BKN020 BKN050 24/24 Q1008 WS R28 TEMPO 2000 TSRA RMK 30007KT/R10 TS SE AND NW-NE MOV SE A2978(G)=   \n",
      "'\n",
      "  warnings.warn(message, RuntimeWarning)\n",
      "/usr/local/lib/python3.6/dist-packages/metar/Metar.py:437: RuntimeWarning: Unparsed groups in body 'WS R10' while processing 'SPECI RCSS 200201Z 08010KT 1800 VCTS SHRA SCT004 SCT012CB BKN015 OVC040 24/23 Q1007 WS R10 NOSIG RMK TS W-N-NE MOV SE A2976(Y)=   \n",
      "'\n",
      "  warnings.warn(message, RuntimeWarning)\n",
      "/usr/local/lib/python3.6/dist-packages/metar/Metar.py:437: RuntimeWarning: Unparsed groups in body 'WS R10' while processing 'SPECI RCSS 200206Z 07011KT 010V090 1800 TSRA SCT004 SCT012CB BKN015 OVC040 24/23 Q1007 WS R10 NOSIG RMK TS W-N-NE MOV SE A2976(Z)=   \n",
      "'\n",
      "  warnings.warn(message, RuntimeWarning)\n",
      "/usr/local/lib/python3.6/dist-packages/metar/Metar.py:437: RuntimeWarning: Unparsed groups in body 'WS R10' while processing 'SPECI RCSS 200222Z VRB04KT 1200 R10/1700D TSRA SCT004 SCT012CB BKN015 OVC040 24/24 Q1008 WS R10 NOSIG RMK TS W-N MOV S A2978(A)=   \n",
      "'\n",
      "  warnings.warn(message, RuntimeWarning)\n",
      "/usr/local/lib/python3.6/dist-packages/metar/Metar.py:437: RuntimeWarning: Unparsed groups in body 'WS R10' while processing 'SPECI RCSS 200226Z 23004KT 1000 R10/1400D +TSRA SCT004 SCT012CB BKN015 OVC040 24/24 Q1008 WS R10 NOSIG RMK TS W-N MOV S A2979(B)=   \n",
      "'\n",
      "  warnings.warn(message, RuntimeWarning)\n",
      "/usr/local/lib/python3.6/dist-packages/metar/Metar.py:437: RuntimeWarning: Unparsed groups in body 'WS R10' while processing 'METAR RCSS 200230Z 22006KT 180V250 1000 R10/1200D +TSRA SCT004 SCT012CB BKN015 OVC040 24/24 Q1008 WS R10 NOSIG RMK TS SW-NW MOV S A2979(C)=   \n",
      "'\n",
      "  warnings.warn(message, RuntimeWarning)\n",
      "/usr/local/lib/python3.6/dist-packages/metar/Metar.py:437: RuntimeWarning: Unparsed groups in body 'WS R10' while processing 'METAR RCSS 210500Z 08015KT 9999 FEW025 SCT060 BKN150 26/14 Q1011 WS R10 NOSIG RMK A2987(E)=   \n",
      "'\n",
      "  warnings.warn(message, RuntimeWarning)\n",
      "/usr/local/lib/python3.6/dist-packages/metar/Metar.py:437: RuntimeWarning: Unparsed groups in body 'WS R10' while processing 'METAR RCSS 210530Z 08011KT 040V110 9999 FEW025 SCT120 BKN150 27/14 Q1011 WS R10 NOSIG RMK A2986(F)=   \n",
      "'\n",
      "  warnings.warn(message, RuntimeWarning)\n",
      "/usr/local/lib/python3.6/dist-packages/metar/Metar.py:437: RuntimeWarning: Unparsed groups in body 'WS R10' while processing 'SPECI RCSS 241155Z 10016KT 9999 FEW020 BKN070 26/20 Q1012 WS R10 NOSIG RMK A2989(E)=  \n",
      "'\n",
      "  warnings.warn(message, RuntimeWarning)\n",
      "/usr/local/lib/python3.6/dist-packages/metar/Metar.py:437: RuntimeWarning: Unparsed groups in body 'WS R10' while processing 'METAR RCSS 241200Z 10016KT 9999 FEW020 BKN070 26/21 Q1012 WS R10 NOSIG RMK A2990(F)=  \n",
      "'\n",
      "  warnings.warn(message, RuntimeWarning)\n",
      "/usr/local/lib/python3.6/dist-packages/metar/Metar.py:437: RuntimeWarning: Unparsed groups in body 'WS R10' while processing 'SPECI RCSS 260731Z VRB04KT 9999 FEW020 BKN035 BKN100 31/24 Q1008 WS R10 NOSIG RMK A2978(E)=  \n",
      "'\n",
      "  warnings.warn(message, RuntimeWarning)\n",
      "/usr/local/lib/python3.6/dist-packages/metar/Metar.py:437: RuntimeWarning: Unparsed groups in body 'WS R10' while processing 'SPECI RCSS 270445Z 09006KT 040V210 3500 1600E SHRA FEW006 BKN018 BKN035 28/24 Q1008 WS R10 NOSIG RMK A2979(U)=  \n",
      "'\n",
      "  warnings.warn(message, RuntimeWarning)\n",
      "/usr/local/lib/python3.6/dist-packages/metar/Metar.py:437: RuntimeWarning: Unparsed groups in body 'WS R10' while processing 'SPECI RCSS 270454Z 09006KT 040V210 3500 VCTS SHRA FEW006 FEW012CB BKN016 BKN030 28/24 Q1008 WS R10 NOSIG RMK TS S MOV NE A2979(V)=  \n",
      "'\n",
      "  warnings.warn(message, RuntimeWarning)\n",
      "/usr/local/lib/python3.6/dist-packages/metar/Metar.py:437: RuntimeWarning: Unparsed groups in body 'WS R10' while processing 'METAR RCSS 270500Z VRB04KT 2500 VCTS +SHRA FEW004 FEW012CB BKN014 BKN028 27/25 Q1008 WS R10 NOSIG RMK TS S MOV NE A2979 RA AMT 11.6MM(W)=  \n",
      "'\n",
      "  warnings.warn(message, RuntimeWarning)\n",
      "/usr/local/lib/python3.6/dist-packages/metar/Metar.py:437: RuntimeWarning: Unparsed groups in body 'WS R10' while processing 'SPECI RCSS 270502Z VRB04KT 1000 R10/0800D VCTS +SHRA FEW004 FEW012CB BKN014 BKN028 27/25 Q1008 WS R10 NOSIG RMK TS S MOV NE A2979(X)=  \n",
      "'\n",
      "  warnings.warn(message, RuntimeWarning)\n",
      "/usr/local/lib/python3.6/dist-packages/metar/Metar.py:437: RuntimeWarning: Unparsed groups in body 'WS R10' while processing 'SPECI RCSS 270504Z 13005KT 050V180 0750 R10/0750D VCTS +SHRA FEW004 FEW012CB BKN014 BKN028 27/25 Q1008 WS R10 NOSIG RMK TS S MOV NE A2978(Y)=  \n",
      "'\n",
      "  warnings.warn(message, RuntimeWarning)\n",
      "/usr/local/lib/python3.6/dist-packages/metar/Metar.py:437: RuntimeWarning: Unparsed groups in body 'WS R10' while processing 'SPECI RCSS 270509Z 13009KT 110V180 0750 R10/0900U +TSRA FEW003 FEW012CB BKN014 BKN028 26/25 Q1008 WS R10 NOSIG RMK TS S-SW MOV NE A2978(Z)=  \n",
      "'\n",
      "  warnings.warn(message, RuntimeWarning)\n",
      "/usr/local/lib/python3.6/dist-packages/metar/Metar.py:437: RuntimeWarning: Unparsed groups in body 'WS R10' while processing 'SPECI RCSS 270516Z 12011KT 1000 R10/1600U +TSRA FEW003 SCT012CB BKN014 BKN028 26/25 Q1008 WS R10 NOSIG RMK TS N-NE AND S-SW MOV NE A2978(A)=  \n",
      "'\n",
      "  warnings.warn(message, RuntimeWarning)\n",
      "/usr/local/lib/python3.6/dist-packages/metar/Metar.py:437: RuntimeWarning: Unparsed groups in body 'WS R10' while processing 'SPECI RCSS 270523Z 13010KT 1200 R10/P2000 +TSRA SCT003 BKN012CB BKN014 BKN028 26/25 Q1008 WS R10 TEMPO 0800 RMK TS OVHD MOV NE A2979(B)=  \n",
      "'\n",
      "  warnings.warn(message, RuntimeWarning)\n",
      "/usr/local/lib/python3.6/dist-packages/metar/Metar.py:437: RuntimeWarning: Unparsed groups in body 'WS R10' while processing 'METAR RCSS 270530Z 13010KT 1200 R10/P2000 +TSRA SCT003 BKN012CB BKN014 BKN028 26/25 Q1008 WS R10 TEMPO 0800 RMK TS OVHD MOV NE A2979(C)=  \n",
      "'\n",
      "  warnings.warn(message, RuntimeWarning)\n",
      "/usr/local/lib/python3.6/dist-packages/metar/Metar.py:437: RuntimeWarning: Unparsed groups in body 'WS R10' while processing 'SPECI RCSS 270550Z VRB07KT 0600 R10/1600D +TSRA SCT003 BKN012CB BKN014 BKN028 25/24 Q1009 WS R10 TEMPO 0800 RMK TS OVHD MOV NE A2980(D)=  \n",
      "'\n",
      "  warnings.warn(message, RuntimeWarning)\n",
      "/usr/local/lib/python3.6/dist-packages/metar/Metar.py:437: RuntimeWarning: Unparsed groups in body 'WS R10' while processing 'SPECI RCSS 270556Z 16008KT 0500 R10/0800D +TSRA SCT003 BKN012CB BKN014 BKN028 24/24 Q1009 WS R10 TEMPO 0800 RMK TS OVHD MOV NE A2980(E)=  \n",
      "'\n",
      "  warnings.warn(message, RuntimeWarning)\n",
      "/usr/local/lib/python3.6/dist-packages/metar/Metar.py:437: RuntimeWarning: Unparsed groups in body 'WS R10' while processing 'SPECI RCSS 270558Z 15009KT 0600 R10/0750N +TSRA SCT003 BKN012CB BKN014 BKN028 24/24 Q1008 WS R10 TEMPO 0800 RMK TS OVHD MOV NE A2979(F)=  \n",
      "'\n",
      "  warnings.warn(message, RuntimeWarning)\n",
      "/usr/local/lib/python3.6/dist-packages/metar/Metar.py:437: RuntimeWarning: Unparsed groups in body 'WS R10' while processing 'SPECI RCSS 270559Z 15009KT 0600 R10/0700U +TSRA SCT003 BKN012CB BKN014 BKN028 24/24 Q1009 WS R10 TEMPO 0800 RMK TS OVHD MOV NE A2980(G)=  \n",
      "'\n",
      "  warnings.warn(message, RuntimeWarning)\n",
      "/usr/local/lib/python3.6/dist-packages/metar/Metar.py:437: RuntimeWarning: Unparsed groups in body 'WS R10' while processing 'METAR RCSS 270600Z 15009KT 0750 R10/0900U +TSRA SCT003 BKN012CB BKN014 BKN028 24/24 Q1009 WS R10 TEMPO 0800 RMK TS OVHD MOV NE A2980 RA AMT 30.0MM(H)=  \n",
      "'\n",
      "  warnings.warn(message, RuntimeWarning)\n",
      "/usr/local/lib/python3.6/dist-packages/metar/Metar.py:437: RuntimeWarning: Unparsed groups in body 'WS R10' while processing 'SPECI RCSS 270609Z 11007KT 070V150 1500 TSRA FEW003 SCT012CB BKN015 BKN028 25/24 Q1009 WS R10 TEMPO 2000 RMK TS OVHD MOV NE A2980(I)=  \n",
      "'\n",
      "  warnings.warn(message, RuntimeWarning)\n",
      "/usr/local/lib/python3.6/dist-packages/metar/Metar.py:437: RuntimeWarning: Unparsed groups in body 'WS R10' while processing 'SPECI RCSS 010534Z 09005KT 040V160 9999 -SHRA FEW012 FEW020CB SCT030 BKN045 30/25 Q1006 WS R10 NOSIG RMK CB SW-W A2972(S)=   \n",
      "'\n",
      "  warnings.warn(message, RuntimeWarning)\n",
      "/usr/local/lib/python3.6/dist-packages/metar/Metar.py:437: RuntimeWarning: Unparsed groups in body 'WS R10' while processing 'SPECI RCSS 010537Z 07005KT 020V100 8000 SHRA FEW012 FEW020CB SCT030 BKN045 29/25 Q1006 WS R10 TEMPO 5000 RMK CB SW-W A2972(T)=   \n",
      "'\n",
      "  warnings.warn(message, RuntimeWarning)\n",
      "/usr/local/lib/python3.6/dist-packages/metar/Metar.py:437: RuntimeWarning: Unparsed groups in body 'WS R10' while processing 'SPECI RCSS 010541Z VRB05KT 4500 SHRA FEW012 FEW020CB BKN030 BKN045 29/25 Q1006 WS R10 TEMPO 3000 RMK CB SW-W A2972(U)=   \n",
      "'\n",
      "  warnings.warn(message, RuntimeWarning)\n",
      "/usr/local/lib/python3.6/dist-packages/metar/Metar.py:437: RuntimeWarning: Unparsed groups in body 'WS R10' while processing 'SPECI RCSS 010544Z VRB04KT 2500 +SHRA FEW012 FEW020CB BKN030 BKN045 29/25 Q1006 WS R10 TEMPO 1500 RMK CB SW-W A2972(V)=   \n",
      "'\n",
      "  warnings.warn(message, RuntimeWarning)\n",
      "/usr/local/lib/python3.6/dist-packages/metar/Metar.py:437: RuntimeWarning: Unparsed groups in body 'WS R10' while processing 'SPECI RCSS 010548Z VRB08KT 1200 R10/1700D +SHRA SCT005 SCT015CB BKN020 BKN035 28/25 Q1006 WS R10 NOSIG RMK CB OVHD A2973(W)=   \n",
      "'\n",
      "  warnings.warn(message, RuntimeWarning)\n",
      "/usr/local/lib/python3.6/dist-packages/metar/Metar.py:437: RuntimeWarning: Unparsed groups in body 'WS R10' while processing 'SPECI RCSS 010551Z 28009KT 260V360 0800 R10/1400D +SHRA SCT005 SCT015CB BKN020 BKN035 27/25 Q1006 WS R10 NOSIG RMK CB OVHD A2973(X)=   \n",
      "'\n",
      "  warnings.warn(message, RuntimeWarning)\n",
      "/usr/local/lib/python3.6/dist-packages/metar/Metar.py:437: RuntimeWarning: Unparsed groups in body 'WS R10' while processing 'SPECI RCSS 010553Z 27009KT 240V310 0600 R10/0700 +SHRA SCT004 BKN012 SCT015CB BKN025 27/25 Q1006 WS R10 NOSIG RMK CB OVHD A2972(Y)=   \n",
      "'\n",
      "  warnings.warn(message, RuntimeWarning)\n",
      "/usr/local/lib/python3.6/dist-packages/metar/Metar.py:437: RuntimeWarning: Unparsed groups in body 'WS R10' while processing 'METAR RCSS 010600Z VRB04KT 1300 R10/1800U +SHRA SCT004 BKN012 SCT015CB BKN025 26/25 Q1006 WS R10 NOSIG RMK CB E-SE A2972 RA AMT 8.2MM(Z)=   \n",
      "'\n",
      "  warnings.warn(message, RuntimeWarning)\n",
      "/usr/local/lib/python3.6/dist-packages/metar/Metar.py:437: RuntimeWarning: Unparsed groups in body 'WS R10' while processing 'SPECI RCSS 010651Z 09014KT 7000 VCTS -SHRA SCT008 FEW015CB BKN020 BKN035 27/25 Q1005 WS R10 TEMPO 3000 SHRA RMK TS SE-S-SW MOV NE A2968(D)=   \n",
      "'\n",
      "  warnings.warn(message, RuntimeWarning)\n",
      "/usr/local/lib/python3.6/dist-packages/metar/Metar.py:437: RuntimeWarning: Unparsed groups in body 'WS R10' while processing 'METAR RCSS 010700Z 15010KT 100V270 7000 2500S VCTS -SHRA SCT008 FEW012CB BKN016 BKN025 27/26 Q1006 WS R10 TEMPO 3000 SHRA RMK TS SE-S-SW MOV NE A2971(E)=   \n",
      "'\n",
      "  warnings.warn(message, RuntimeWarning)\n",
      "/usr/local/lib/python3.6/dist-packages/metar/Metar.py:437: RuntimeWarning: Unparsed groups in body 'WS R10' while processing 'SPECI RCSS 010706Z VRB08KT 1400 0500S R10/1800D VCTS +SHRA SCT005 SCT012CB BKN016 BKN025 26/25 Q1006 WS R10 TEMPO 1500 RMK TS SE-S-SW MOV NE A2971(F)=   \n",
      "'\n",
      "  warnings.warn(message, RuntimeWarning)\n",
      "/usr/local/lib/python3.6/dist-packages/metar/Metar.py:437: RuntimeWarning: Unparsed groups in body 'WS R10' while processing 'SPECI RCSS 010713Z VRB06KT 3000 VCTS -SHRA SCT005 SCT012CB BKN016 BKN025 26/25 Q1005 RESHRA WS R10 NOSIG RMK TS E-SE-S MOV NE A2970(G)=   \n",
      "'\n",
      "  warnings.warn(message, RuntimeWarning)\n",
      "/usr/local/lib/python3.6/dist-packages/metar/Metar.py:437: RuntimeWarning: Unparsed groups in body 'WS R10' while processing 'SPECI RCSS 010723Z 13010KT 8000 VCTS -SHRA SCT005 BKN009 FEW015CB BKN020 26/25 Q1005 WS R10 NOSIG RMK TS E-SE-S MOV E A2970(H)=   \n",
      "'\n",
      "  warnings.warn(message, RuntimeWarning)\n",
      "/usr/local/lib/python3.6/dist-packages/metar/Metar.py:437: RuntimeWarning: Unparsed groups in body 'WS R10' while processing 'SPECI RCSS 010727Z 14009KT 110V180 8000 VCTS +SHRA SCT005 BKN009 FEW015CB BKN020 26/25 Q1006 WS R10 NOSIG RMK TS E-SE-S MOV E A2971(I)=   \n",
      "'\n",
      "  warnings.warn(message, RuntimeWarning)\n",
      "/usr/local/lib/python3.6/dist-packages/metar/Metar.py:437: RuntimeWarning: Unparsed groups in body 'WS R10' while processing 'METAR RCSS 010730Z 10009KT 6000 2000E VCTS +SHRA SCT005 BKN008 FEW015CB BKN020 26/25 Q1005 WS R10 NOSIG RMK TS E-SE-S MOV E A2969(J)=   \n",
      "'\n",
      "  warnings.warn(message, RuntimeWarning)\n",
      "/usr/local/lib/python3.6/dist-packages/metar/Metar.py:437: RuntimeWarning: Unparsed groups in body 'WS R10' while processing 'SPECI RCSS 020214Z VRB04KT 9999 FEW020 SCT080 BKN180 33/24 Q1006 WS R10 NOSIG RMK A2971(U)=   \n",
      "'\n",
      "  warnings.warn(message, RuntimeWarning)\n",
      "/usr/local/lib/python3.6/dist-packages/metar/Metar.py:437: RuntimeWarning: Unparsed groups in body 'WS R28' while processing 'METAR RCSS 020230Z 28010G22KT 9999 FEW020 SCT050 BKN180 33/25 Q1005 WS R28 NOSIG RMK 26010KT/R10 A2970(V)=   \n",
      "'\n",
      "  warnings.warn(message, RuntimeWarning)\n",
      "/usr/local/lib/python3.6/dist-packages/metar/Metar.py:437: RuntimeWarning: Unparsed groups in body 'WS R28' while processing 'METAR RCSS 020300Z 27015KT 240V300 9999 FEW020 SCT050 BKN160 34/25 Q1005 WS R28 NOSIG RMK 27012G24KT/R10 A2969(W)=   \n",
      "'\n",
      "  warnings.warn(message, RuntimeWarning)\n",
      "/usr/local/lib/python3.6/dist-packages/metar/Metar.py:437: RuntimeWarning: Unparsed groups in body 'WS R28' while processing 'SPECI RCSS 020353Z 28017KT 250V310 9999 FEW020 SCT040 BKN140 34/24 Q1005 WS R28 NOSIG RMK 28015KT/R10 A2969(A)=   \n",
      "'\n",
      "  warnings.warn(message, RuntimeWarning)\n",
      "/usr/local/lib/python3.6/dist-packages/metar/Metar.py:437: RuntimeWarning: Unparsed groups in body 'WS R28' while processing 'METAR RCSS 020400Z 28017KT 250V310 9999 FEW020 SCT040 BKN140 34/25 Q1005 WS R28 NOSIG RMK 28015KT/R10 A2969(B)=   \n",
      "'\n",
      "  warnings.warn(message, RuntimeWarning)\n",
      "/usr/local/lib/python3.6/dist-packages/metar/Metar.py:437: RuntimeWarning: Unparsed groups in body 'WS R28' while processing 'METAR RCSS 020430Z 28017G28KT 9999 FEW020 SCT040 BKN140 35/25 Q1005 WS R28 NOSIG RMK 28015KT/R10 A2968(C)=   \n",
      "'\n",
      "  warnings.warn(message, RuntimeWarning)\n",
      "/usr/local/lib/python3.6/dist-packages/metar/Metar.py:437: RuntimeWarning: Unparsed groups in body 'WS R28' while processing 'METAR RCSS 020500Z 27019KT 250V310 9999 FEW020 SCT080 BKN140 34/24 Q1004 WS R28 NOSIG RMK 27017KT/R10 A2967(D)=   \n",
      "'\n",
      "  warnings.warn(message, RuntimeWarning)\n",
      "/usr/local/lib/python3.6/dist-packages/metar/Metar.py:437: RuntimeWarning: Unparsed groups in body 'WS R28' while processing 'METAR RCSS 020530Z 27017KT 230V290 9999 FEW015 SCT080 35/25 Q1004 WS R28 NOSIG RMK 26015KT/R10 A2967(E)=   \n",
      "'\n",
      "  warnings.warn(message, RuntimeWarning)\n",
      "/usr/local/lib/python3.6/dist-packages/metar/Metar.py:437: RuntimeWarning: Unparsed groups in body 'WS R28' while processing 'METAR RCSS 020600Z 26021G31KT 9999 FEW015 SCT030 BKN100 33/25 Q1004 WS R28 NOSIG RMK 25018KT/R10 A2966(F)=   \n",
      "'\n",
      "  warnings.warn(message, RuntimeWarning)\n",
      "/usr/local/lib/python3.6/dist-packages/metar/Metar.py:437: RuntimeWarning: Unparsed groups in body 'WS R28' while processing 'SPECI RCSS 020607Z 26020G31KT 9999 -SHRA FEW015 SCT030 BKN100 33/24 Q1004 WS R28 NOSIG RMK 25013KT/R10 A2966(G)=   \n",
      "'\n",
      "  warnings.warn(message, RuntimeWarning)\n"
     ]
    },
    {
     "name": "stderr",
     "output_type": "stream",
     "text": [
      "/usr/local/lib/python3.6/dist-packages/metar/Metar.py:437: RuntimeWarning: Unparsed groups in body 'WS R28' while processing 'SPECI RCSS 020614Z 25019G31KT 220V280 9999 FEW012 SCT030 BKN100 32/26 Q1004 WS R28 NOSIG RMK 28012G22KT/R10 A2966(H)=   \n",
      "'\n",
      "  warnings.warn(message, RuntimeWarning)\n",
      "/usr/local/lib/python3.6/dist-packages/metar/Metar.py:437: RuntimeWarning: Unparsed groups in body 'WS R28' while processing 'SPECI RCSS 020705Z 25019G30KT 9999 FEW020 SCT120 33/24 Q1004 WS R28 NOSIG RMK 28014G24KT/R10 A2965(K)=   \n",
      "'\n",
      "  warnings.warn(message, RuntimeWarning)\n",
      "/usr/local/lib/python3.6/dist-packages/metar/Metar.py:437: RuntimeWarning: Unparsed groups in body 'WS R10' while processing 'SPECI RCSS 070652Z 31010KT 270V350 9999 FEW020 FEW025TCU BKN030 BKN080 33/26 Q1008 WS R10 NOSIG RMK TCU OVHD A2979(L)=   \n",
      "'\n",
      "  warnings.warn(message, RuntimeWarning)\n",
      "/usr/local/lib/python3.6/dist-packages/metar/Metar.py:437: RuntimeWarning: Unparsed groups in body 'WS R28' while processing 'SPECI RCSS 070656Z VRB04KT 9999 FEW020 FEW025TCU BKN030 BKN080 32/26 Q1009 WS R28 NOSIG RMK 01010KT/R10 TCU OVHD A2980(M)=   \n",
      "'\n",
      "  warnings.warn(message, RuntimeWarning)\n",
      "/usr/local/lib/python3.6/dist-packages/metar/Metar.py:437: RuntimeWarning: Unparsed groups in body 'WS R28' while processing 'METAR RCSS 070700Z VRB06KT 9999 VCTS FEW020 FEW025CB BKN030 BKN080 32/26 Q1009 WS R28 NOSIG RMK 04008KT/R10 TS E STNR A2980(N)=   \n",
      "'\n",
      "  warnings.warn(message, RuntimeWarning)\n",
      "/usr/local/lib/python3.6/dist-packages/metar/Metar.py:437: RuntimeWarning: Unparsed groups in body 'WS R10' while processing 'SPECI RCSS 070705Z VRB06KT 9999 VCTS FEW020 FEW025CB BKN030 BKN080 33/26 Q1008 WS R10 NOSIG RMK TS E MOV E A2979(O)=   \n",
      "'\n",
      "  warnings.warn(message, RuntimeWarning)\n",
      "/usr/local/lib/python3.6/dist-packages/metar/Metar.py:437: RuntimeWarning: Unparsed groups in body 'WS R10' while processing 'METAR RCSS 070730Z VRB06KT 9999 VCTS FEW018 FEW025CB BKN028 BKN080 33/26 Q1008 WS R10 NOSIG RMK TS E AND S MOV NE A2979(P)=   \n",
      "'\n",
      "  warnings.warn(message, RuntimeWarning)\n",
      "/usr/local/lib/python3.6/dist-packages/metar/Metar.py:437: RuntimeWarning: Unparsed groups in body 'WS R10' while processing 'METAR RCSS 070800Z 09012KT 9999 VCTS FEW018 FEW025CB BKN028 BKN080 30/25 Q1009 WS R10 NOSIG RMK TS NE-SE MOV NE A2980(Q)=   \n",
      "'\n",
      "  warnings.warn(message, RuntimeWarning)\n",
      "/usr/local/lib/python3.6/dist-packages/metar/Metar.py:437: RuntimeWarning: Unparsed groups in body 'WS R10' while processing 'METAR RCSS 070830Z 10009KT 9999 VCTS FEW018 FEW025CB BKN028 BKN080 29/24 Q1009 WS R10 NOSIG RMK TS SE MOV NE A2981(S)=   \n",
      "'\n",
      "  warnings.warn(message, RuntimeWarning)\n",
      "/usr/local/lib/python3.6/dist-packages/metar/Metar.py:437: RuntimeWarning: Unparsed groups in body 'WS R28' while processing 'SPECI RCSS 090233Z 26015G26KT 220V280 9999 FEW025 SCT150 BKN250 34/23 Q1004 WS R28 NOSIG RMK 27015G25KT/R10 A2967(R)=   \n",
      "'\n",
      "  warnings.warn(message, RuntimeWarning)\n",
      "/usr/local/lib/python3.6/dist-packages/metar/Metar.py:437: RuntimeWarning: Unparsed groups in body 'WS R28' while processing 'METAR RCSS 090300Z 25016KT 9999 FEW030 SCT150 BKN250 34/23 Q1004 WS R28 NOSIG RMK 24013G23KT/R10 A2967(S)=   \n",
      "'\n",
      "  warnings.warn(message, RuntimeWarning)\n",
      "/usr/local/lib/python3.6/dist-packages/metar/Metar.py:437: RuntimeWarning: Unparsed groups in body 'WS R28' while processing 'METAR RCSS 090330Z 26021KT 9999 FEW030 BKN250 34/23 Q1004 WS R28 NOSIG RMK 26017G27KT/R10 A2966(T)=   \n",
      "'\n",
      "  warnings.warn(message, RuntimeWarning)\n",
      "/usr/local/lib/python3.6/dist-packages/metar/Metar.py:437: RuntimeWarning: Unparsed groups in body 'WS R28' while processing 'METAR RCSS 090400Z 27023G33KT 9999 FEW030 BKN220 34/22 Q1004 WS R28 NOSIG RMK 26020G30KT/R10 A2965(U)=   \n",
      "'\n",
      "  warnings.warn(message, RuntimeWarning)\n",
      "/usr/local/lib/python3.6/dist-packages/metar/Metar.py:437: RuntimeWarning: Unparsed groups in body 'WS R28' while processing 'METAR RCSS 090430Z 28024G35KT 9999 FEW030 BKN220 34/23 Q1003 WS R28 NOSIG RMK 27015KT/R10 A2964(V)=   \n",
      "'\n",
      "  warnings.warn(message, RuntimeWarning)\n",
      "/usr/local/lib/python3.6/dist-packages/metar/Metar.py:437: RuntimeWarning: Unparsed groups in body 'WS R28' while processing 'METAR RCSS 090500Z 28019KT 250V310 9999 FEW030 BKN220 33/24 Q1003 WS R28 NOSIG RMK 28017KT/R10 A2963(W)=   \n",
      "'\n",
      "  warnings.warn(message, RuntimeWarning)\n",
      "/usr/local/lib/python3.6/dist-packages/metar/Metar.py:437: RuntimeWarning: Unparsed groups in body 'WS R28' while processing 'METAR RCSS 090530Z 27017KT 250V310 9999 FEW030 BKN220 35/25 Q1003 WS R28 NOSIG RMK 27016KT/R10 A2962(X)=   \n",
      "'\n",
      "  warnings.warn(message, RuntimeWarning)\n",
      "/usr/local/lib/python3.6/dist-packages/metar/Metar.py:437: RuntimeWarning: Unparsed groups in body 'WS R28' while processing 'SPECI RCSS 090659Z 27015KT 240V300 9999 FEW030 BKN250 33/24 Q1002 WS R28 NOSIG RMK 27013KT/R10 A2961(D)=   \n",
      "'\n",
      "  warnings.warn(message, RuntimeWarning)\n",
      "/usr/local/lib/python3.6/dist-packages/metar/Metar.py:437: RuntimeWarning: Unparsed groups in body 'WS R28' while processing 'METAR RCSS 090700Z 27015KT 240V300 9999 FEW030 BKN250 33/24 Q1002 WS R28 NOSIG RMK 27013KT/R10 A2961(E)=   \n",
      "'\n",
      "  warnings.warn(message, RuntimeWarning)\n",
      "/usr/local/lib/python3.6/dist-packages/metar/Metar.py:437: RuntimeWarning: Unparsed groups in body 'WS R28' while processing 'METAR RCSS 090730Z 27013KT 9999 FEW030 BKN250 33/24 Q1002 WS R28 NOSIG RMK 26008KT/R10 A2960(F)=   \n",
      "'\n",
      "  warnings.warn(message, RuntimeWarning)\n",
      "/usr/local/lib/python3.6/dist-packages/metar/Metar.py:437: RuntimeWarning: Unparsed groups in body 'WS R28' while processing 'METAR RCSS 090800Z 27013KT 9999 FEW030 BKN250 33/25 Q1002 WS R28 NOSIG RMK 27011KT/R10 A2960(G)=   \n",
      "'\n",
      "  warnings.warn(message, RuntimeWarning)\n",
      "/usr/local/lib/python3.6/dist-packages/metar/Metar.py:437: RuntimeWarning: Unparsed groups in body 'WS R28' while processing 'SPECI RCSS 170515Z VRB04KT 9999 FEW025 BKN180 34/26 Q1009 WS R28 NOSIG RMK 29008KT/R10 A2980(V)=   \n",
      "'\n",
      "  warnings.warn(message, RuntimeWarning)\n",
      "/usr/local/lib/python3.6/dist-packages/metar/Metar.py:437: RuntimeWarning: Unparsed groups in body 'WS R28' while processing 'METAR RCSS 170530Z 29005KT 220V030 9999 FEW025 SCT038 BKN180 33/25 Q1009 WS R28 NOSIG RMK 29009KT/R10 A2980(W)=   \n",
      "'\n",
      "  warnings.warn(message, RuntimeWarning)\n",
      "/usr/local/lib/python3.6/dist-packages/metar/Metar.py:437: RuntimeWarning: Unparsed groups in body 'WS R10' while processing 'SPECI RCSS 170614Z 30007KT 250V360 9999 FEW018 FEW025TCU SCT035 BKN200 34/25 Q1009 WS R10 NOSIG RMK TCU SE-S A2980(Z)=   \n",
      "'\n",
      "  warnings.warn(message, RuntimeWarning)\n",
      "/usr/local/lib/python3.6/dist-packages/metar/Metar.py:437: RuntimeWarning: Unparsed groups in body 'WS R10' while processing 'METAR RCSS 170630Z 30006KT 240V050 9999 VCSH FEW018 FEW020CB SCT035 BKN200 34/25 Q1009 WS R10 NOSIG RMK CB S A2980(A)=   \n",
      "'\n",
      "  warnings.warn(message, RuntimeWarning)\n",
      "/usr/local/lib/python3.6/dist-packages/metar/Metar.py:437: RuntimeWarning: Unparsed groups in body 'WS R28' while processing 'SPECI RCSS 190532Z 28012KT 240V330 9999 FEW025 SCT040 35/26 Q1006 WS R28 NOSIG RMK 29013KT/R10 A2972(P)=   \n",
      "'\n",
      "  warnings.warn(message, RuntimeWarning)\n",
      "/usr/local/lib/python3.6/dist-packages/metar/Metar.py:437: RuntimeWarning: Unparsed groups in body 'WS R28' while processing 'METAR RCSS 190600Z 30012KT 9999 FEW025 SCT040 36/27 Q1006 WS R28 NOSIG RMK 29012KT/R10 A2971(Q)=   \n",
      "'\n",
      "  warnings.warn(message, RuntimeWarning)\n",
      "/usr/local/lib/python3.6/dist-packages/metar/Metar.py:437: RuntimeWarning: Unparsed groups in body 'WS R28' while processing 'SPECI RCSS 190626Z 29014KT 9999 FEW025 SCT040 35/27 Q1005 WS R28 NOSIG RMK 29015KT/R10 A2970(S)=   \n",
      "'\n",
      "  warnings.warn(message, RuntimeWarning)\n",
      "/usr/local/lib/python3.6/dist-packages/metar/Metar.py:437: RuntimeWarning: Unparsed groups in body 'WS R28' while processing 'METAR RCSS 190630Z 29015KT 9999 FEW025 SCT040 35/27 Q1005 WS R28 NOSIG RMK 28014KT/R10 A2970(T)=   \n",
      "'\n",
      "  warnings.warn(message, RuntimeWarning)\n",
      "/usr/local/lib/python3.6/dist-packages/metar/Metar.py:437: RuntimeWarning: Unparsed groups in body 'WS R28' while processing 'SPECI RCSS 210245Z 26015KT 230V290 9999 FEW028 BKN300 36/24 Q1004 WS R28 NOSIG RMK 27014G24KT/R10 A2966(V)=   \n",
      "'\n",
      "  warnings.warn(message, RuntimeWarning)\n",
      "/usr/local/lib/python3.6/dist-packages/metar/Metar.py:437: RuntimeWarning: Unparsed groups in body 'WS R28' while processing 'METAR RCSS 210300Z 26016KT 230V290 9999 FEW025 SCT120 BKN300 36/24 Q1004 WS R28 NOSIG RMK 27014KT/R10 A2966(W)=   \n",
      "'\n",
      "  warnings.warn(message, RuntimeWarning)\n",
      "/usr/local/lib/python3.6/dist-packages/metar/Metar.py:437: RuntimeWarning: Unparsed groups in body 'WS R28' while processing 'METAR RCSS 210330Z 26019KT 9999 FEW025 SCT150 BKN300 36/24 Q1004 WS R28 NOSIG RMK 28015G27KT/R10 A2965(X)=   \n",
      "'\n",
      "  warnings.warn(message, RuntimeWarning)\n",
      "/usr/local/lib/python3.6/dist-packages/metar/Metar.py:437: RuntimeWarning: Unparsed groups in body 'WS R28' while processing 'METAR RCSS 210400Z 24021KT 9999 FEW025 SCT150 BKN300 37/24 Q1003 WS R28 NOSIG RMK 26015KT/R10 A2964(Y)=   \n",
      "'\n",
      "  warnings.warn(message, RuntimeWarning)\n",
      "/usr/local/lib/python3.6/dist-packages/metar/Metar.py:437: RuntimeWarning: Unparsed groups in body 'WS R28' while processing 'METAR RCSS 210430Z 28017KT 250V310 9999 FEW020 SCT150 BKN300 36/26 Q1003 WS R28 NOSIG RMK 28016KT/R10 A2963(Z)=   \n",
      "'\n",
      "  warnings.warn(message, RuntimeWarning)\n",
      "/usr/local/lib/python3.6/dist-packages/metar/Metar.py:437: RuntimeWarning: Unparsed groups in body 'WS R28' while processing 'METAR RCSS 210500Z 28015KT 9999 FEW020 SCT150 BKN300 36/26 Q1003 WS R28 NOSIG RMK 28015KT/R10 A2963(A)=   \n",
      "'\n",
      "  warnings.warn(message, RuntimeWarning)\n",
      "/usr/local/lib/python3.6/dist-packages/metar/Metar.py:437: RuntimeWarning: Unparsed groups in body 'WS R28' while processing 'METAR RCSS 210530Z 28015KT 9999 FEW020 SCT150 BKN300 36/26 Q1003 WS R28 NOSIG RMK 28013KT/R10 A2963(B)=   \n",
      "'\n",
      "  warnings.warn(message, RuntimeWarning)\n",
      "/usr/local/lib/python3.6/dist-packages/metar/Metar.py:437: RuntimeWarning: Unparsed groups in body 'WS R10' while processing 'SPECI RCSS 230909Z 27004KT 240V320 6000 -SHRA FEW008 BKN020 BKN060 27/25 Q1005 WS R10 NOSIG RMK A2969(F)=   \n",
      "'\n",
      "  warnings.warn(message, RuntimeWarning)\n",
      "/usr/local/lib/python3.6/dist-packages/metar/Metar.py:437: RuntimeWarning: Unparsed groups in body 'WS R10' while processing 'SPECI RCSS 230919Z VRB03KT 4500 SHRA FEW006 BKN018 BKN050 27/25 Q1005 WS R10 NOSIG RMK A2970(G)=   \n",
      "'\n",
      "  warnings.warn(message, RuntimeWarning)\n",
      "/usr/local/lib/python3.6/dist-packages/metar/Metar.py:437: RuntimeWarning: Unparsed groups in body 'WS R10' while processing 'SPECI RCSS 230927Z VRB03KT 2800 +SHRA SCT003 BKN012 FEW015CB OVC030 26/25 Q1005 WS R10 NOSIG RMK CB NW-N A2970(H)=   \n",
      "'\n",
      "  warnings.warn(message, RuntimeWarning)\n",
      "/usr/local/lib/python3.6/dist-packages/metar/Metar.py:437: RuntimeWarning: Unparsed groups in body 'WS R10' while processing 'METAR RCSS 230930Z VRB02KT 2200 +SHRA SCT003 BKN012 FEW015CB OVC030 26/25 Q1005 WS R10 NOSIG RMK CB NW-N A2970(I)=   \n",
      "'\n",
      "  warnings.warn(message, RuntimeWarning)\n",
      "/usr/local/lib/python3.6/dist-packages/metar/Metar.py:437: RuntimeWarning: Unparsed groups in body 'WS R10' while processing 'SPECI RCSS 230933Z 01003KT 290V100 3000 SHRA SCT004 BKN015 FEW018CB OVC035 26/25 Q1005 WS R10 NOSIG RMK CB NW-N A2970(J)=   \n",
      "'\n",
      "  warnings.warn(message, RuntimeWarning)\n",
      "/usr/local/lib/python3.6/dist-packages/metar/Metar.py:437: RuntimeWarning: Unparsed groups in body 'WS R10' while processing 'SPECI RCSS 230941Z VRB02KT 5000 SHRA SCT008 BKN020 OVC040 26/25 Q1005 WS R10 NOSIG RMK A2970(K)=   \n",
      "'\n",
      "  warnings.warn(message, RuntimeWarning)\n",
      "/usr/local/lib/python3.6/dist-packages/metar/Metar.py:437: RuntimeWarning: Unparsed groups in body 'WS R10' while processing 'SPECI RCSS 250629Z 10012KT 9999 VCSH FEW020 FEW025CB SCT100 34/25 Q1005 WS R10 NOSIG RMK CB S-SW AND NW-N A2969(R)=   \n",
      "'\n",
      "  warnings.warn(message, RuntimeWarning)\n",
      "/usr/local/lib/python3.6/dist-packages/metar/Metar.py:437: RuntimeWarning: Unparsed groups in body 'WS R10' while processing 'METAR RCSS 250630Z 10011KT 9999 VCSH FEW020 FEW025CB SCT100 34/26 Q1005 WS R10 NOSIG RMK CB S-SW AND NW-N A2969(S)=   \n",
      "'\n",
      "  warnings.warn(message, RuntimeWarning)\n",
      "/usr/local/lib/python3.6/dist-packages/metar/Metar.py:437: RuntimeWarning: Unparsed groups in body 'WS R10' while processing 'SPECI RCSS 250714Z 11015KT 9999 VCTS VCSH FEW015 FEW020CB SCT030 BKN100 31/24 Q1005 WS R10 NOSIG RMK TS W MOV N A2970(V)=   \n",
      "'\n",
      "  warnings.warn(message, RuntimeWarning)\n",
      "/usr/local/lib/python3.6/dist-packages/metar/Metar.py:437: RuntimeWarning: Unparsed groups in body 'WS R10' while processing 'SPECI RCSS 250719Z 11014KT 8000 TS FEW015 FEW020CB SCT030 BKN100 31/24 Q1006 WS R10 NOSIG RMK TS W MOV N A2971(W)=   \n",
      "'\n",
      "  warnings.warn(message, RuntimeWarning)\n",
      "/usr/local/lib/python3.6/dist-packages/metar/Metar.py:437: RuntimeWarning: Unparsed groups in body 'WS R10' while processing 'SPECI RCSS 250726Z 18010KT 140V270 7000 -TSRA FEW010 FEW020CB BKN030 BKN090 31/24 Q1006 WS R10 NOSIG RMK TS W MOV N A2972(X)=   \n",
      "'\n",
      "  warnings.warn(message, RuntimeWarning)\n",
      "/usr/local/lib/python3.6/dist-packages/metar/Metar.py:437: RuntimeWarning: Unparsed groups in body 'WS R10' while processing 'SPECI RCSS 250728Z 22010KT 180V270 4000 -TSRA FEW010 FEW020CB BKN030 BKN090 31/25 Q1006 WS R10 NOSIG RMK TS SW-NW MOV N A2972(Y)=   \n",
      "'\n",
      "  warnings.warn(message, RuntimeWarning)\n",
      "/usr/local/lib/python3.6/dist-packages/metar/Metar.py:437: RuntimeWarning: Unparsed groups in body 'WS R10' while processing 'METAR RCSS 250730Z 22010KT 180V270 4000 -TSRA FEW010 FEW020CB BKN030 BKN090 30/25 Q1006 WS R10 NOSIG RMK TS OVHD MOV N A2973(Z)=   \n",
      "'\n",
      "  warnings.warn(message, RuntimeWarning)\n",
      "/usr/local/lib/python3.6/dist-packages/metar/Metar.py:437: RuntimeWarning: Unparsed groups in body 'WS R10' while processing 'SPECI RCSS 250737Z 21010KT 170V240 1500 TSRA SCT010 FEW015CB BKN025 BKN090 28/25 Q1006 WS R10 NOSIG RMK TS OVHD MOV N A2973(A)=   \n",
      "'\n",
      "  warnings.warn(message, RuntimeWarning)\n",
      "/usr/local/lib/python3.6/dist-packages/metar/Metar.py:437: RuntimeWarning: Unparsed groups in body 'WS R28' while processing 'SPECI RCSS 050244Z 27017KT 9999 FEW025 SCT080 BKN160 34/24 Q1003 WS R28 NOSIG RMK 27017G28KT/R10 A2963(X)=   \n",
      "'\n",
      "  warnings.warn(message, RuntimeWarning)\n",
      "/usr/local/lib/python3.6/dist-packages/metar/Metar.py:437: RuntimeWarning: Unparsed groups in body 'WS R28' while processing 'METAR RCSS 050300Z 26017KT 9999 FEW025 SCT090 BKN180 35/24 Q1003 WS R28 NOSIG RMK 26014KT/R10 A2963(Y)=   \n",
      "'\n",
      "  warnings.warn(message, RuntimeWarning)\n",
      "/usr/local/lib/python3.6/dist-packages/metar/Metar.py:437: RuntimeWarning: Unparsed groups in body 'WS R28' while processing 'METAR RCSS 050330Z 26013G23KT 230V290 9999 FEW025 SCT090 BKN180 35/24 Q1002 WS R28 NOSIG RMK 27011KT/R10 A2961(Z)=   \n",
      "'\n",
      "  warnings.warn(message, RuntimeWarning)\n",
      "/usr/local/lib/python3.6/dist-packages/metar/Metar.py:437: RuntimeWarning: Unparsed groups in body 'WS R28' while processing 'METAR RCSS 050400Z 27019KT 9999 FEW020 BKN050 BKN120 35/23 Q1002 WS R28 NOSIG RMK 26014G25KT/R10 A2961(A)=   \n",
      "'\n",
      "  warnings.warn(message, RuntimeWarning)\n",
      "/usr/local/lib/python3.6/dist-packages/metar/Metar.py:437: RuntimeWarning: Unparsed groups in body 'WS R28' while processing 'METAR RCSS 050430Z 27017G27KT 9999 FEW020 SCT050 BKN100 36/24 Q1002 WS R28 NOSIG RMK 28015KT/R10 A2961(B)=   \n",
      "'\n",
      "  warnings.warn(message, RuntimeWarning)\n",
      "/usr/local/lib/python3.6/dist-packages/metar/Metar.py:437: RuntimeWarning: Unparsed groups in body 'WS R28' while processing 'SPECI RCSS 050537Z 28018KT 9999 FEW025 BKN250 35/24 Q1002 WS R28 NOSIG RMK 27014G24KT/R10 A2959(F)=   \n",
      "'\n",
      "  warnings.warn(message, RuntimeWarning)\n",
      "/usr/local/lib/python3.6/dist-packages/metar/Metar.py:437: RuntimeWarning: Unparsed groups in body 'WS R28' while processing 'SPECI RCSS 050557Z 27026G38KT 240V300 9999 FEW025 BKN250 35/24 Q1002 WS R28 NOSIG RMK 27020KT/R10 A2960(G)=   \n",
      "'\n",
      "  warnings.warn(message, RuntimeWarning)\n",
      "/usr/local/lib/python3.6/dist-packages/metar/Metar.py:437: RuntimeWarning: Unparsed groups in body 'WS R28' while processing 'METAR RCSS 050600Z 27027G38KT 9999 FEW025 BKN250 35/24 Q1002 WS R28 NOSIG RMK 26020KT/R10 A2960(H)=   \n",
      "'\n",
      "  warnings.warn(message, RuntimeWarning)\n",
      "/usr/local/lib/python3.6/dist-packages/metar/Metar.py:437: RuntimeWarning: Unparsed groups in body 'WS R28' while processing 'SPECI RCSS 050623Z 27018G28KT 9999 FEW025 BKN250 34/24 Q1002 WS R28 NOSIG RMK 27015KT/R10 A2960(I)=   \n",
      "'\n",
      "  warnings.warn(message, RuntimeWarning)\n",
      "/usr/local/lib/python3.6/dist-packages/metar/Metar.py:437: RuntimeWarning: Unparsed groups in body 'WS R28' while processing 'METAR RCSS 050630Z 28019G29KT 9999 FEW025 BKN250 34/24 Q1002 WS R28 NOSIG RMK 27015G25KT/R10 A2959(J)=   \n",
      "'\n",
      "  warnings.warn(message, RuntimeWarning)\n",
      "/usr/local/lib/python3.6/dist-packages/metar/Metar.py:437: RuntimeWarning: Unparsed groups in body 'WS R28' while processing 'METAR RCSS 050700Z 27019KT 9999 FEW025 BKN250 35/24 Q1001 WS R28 NOSIG RMK 27018G30KT/R10 A2958(K)=   \n",
      "'\n",
      "  warnings.warn(message, RuntimeWarning)\n",
      "/usr/local/lib/python3.6/dist-packages/metar/Metar.py:437: RuntimeWarning: Unparsed groups in body 'WS R28' while processing 'METAR RCSS 050730Z 27016G30KT 240V300 9999 FEW030 BKN250 35/23 Q1001 WS R28 NOSIG RMK 28017G27KT/R10 A2958(L)=   \n",
      "'\n",
      "  warnings.warn(message, RuntimeWarning)\n",
      "/usr/local/lib/python3.6/dist-packages/metar/Metar.py:437: RuntimeWarning: Unparsed groups in body 'WS R28' while processing 'METAR RCSS 050800Z 27015KT 9999 FEW030 BKN250 35/23 Q1001 WS R28 NOSIG RMK 27011KT/R10 A2957(M)=   \n",
      "'\n",
      "  warnings.warn(message, RuntimeWarning)\n"
     ]
    },
    {
     "name": "stderr",
     "output_type": "stream",
     "text": [
      "/usr/local/lib/python3.6/dist-packages/metar/Metar.py:437: RuntimeWarning: Unparsed groups in body 'WS R28' while processing 'METAR RCSS 050830Z 28015KT 9999 FEW030 BKN250 34/24 Q1001 WS R28 NOSIG RMK 27013KT/R10 A2956(N)=   \n",
      "'\n",
      "  warnings.warn(message, RuntimeWarning)\n",
      "/usr/local/lib/python3.6/dist-packages/metar/Metar.py:437: RuntimeWarning: Unparsed groups in body 'WS R28' while processing 'SPECI RCSS 050836Z 28016G27KT 250V310 9999 FEW030 BKN250 35/23 Q1001 WS R28 NOSIG RMK 27015KT/R10 A2956(P)=   \n",
      "'\n",
      "  warnings.warn(message, RuntimeWarning)\n",
      "/usr/local/lib/python3.6/dist-packages/metar/Metar.py:437: RuntimeWarning: Unparsed groups in body 'WS R28' while processing 'METAR RCSS 050900Z 26018G28KT 9999 FEW030 BKN250 35/23 Q1001 WS R28 NOSIG RMK 27013G23KT/R10 A2956(Q)=   \n",
      "'\n",
      "  warnings.warn(message, RuntimeWarning)\n",
      "/usr/local/lib/python3.6/dist-packages/metar/Metar.py:437: RuntimeWarning: Unparsed groups in body 'WS R28' while processing 'METAR RCSS 050930Z 26015KT 240V300 9999 FEW030 BKN250 34/22 Q1001 WS R28 NOSIG RMK 28012KT/R10 A2956(R)=   \n",
      "'\n",
      "  warnings.warn(message, RuntimeWarning)\n",
      "/usr/local/lib/python3.6/dist-packages/metar/Metar.py:437: RuntimeWarning: Unparsed groups in body 'WS R28' while processing 'METAR RCSS 051000Z 27015KT 9999 FEW030 SCT120 BKN250 33/23 Q1001 WS R28 NOSIG RMK 27012KT/R10 A2957(S)=   \n",
      "'\n",
      "  warnings.warn(message, RuntimeWarning)\n",
      "/usr/local/lib/python3.6/dist-packages/metar/Metar.py:437: RuntimeWarning: Unparsed groups in body 'WS R28' while processing 'METAR RCSS 051030Z 27012KT 9999 FEW030 SCT120 BKN250 33/23 Q1001 WS R28 NOSIG RMK 28012KT/R10 A2958(T)=   \n",
      "'\n",
      "  warnings.warn(message, RuntimeWarning)\n",
      "/usr/local/lib/python3.6/dist-packages/metar/Metar.py:437: RuntimeWarning: Unparsed groups in body 'WS R28' while processing 'SPECI RCSS 060314Z 27014KT 9999 FEW025 SCT070 BKN130 35/25 Q1002 WS R28 NOSIG RMK 27012KT/R10 A2959(X)=   \n",
      "'\n",
      "  warnings.warn(message, RuntimeWarning)\n",
      "/usr/local/lib/python3.6/dist-packages/metar/Metar.py:437: RuntimeWarning: Unparsed groups in body 'WS R28' while processing 'SPECI RCSS 060319Z 27024KT 9999 FEW025 SCT070 BKN130 34/25 Q1002 WS R28 NOSIG RMK 26015KT/R10 A2959(Y)=   \n",
      "'\n",
      "  warnings.warn(message, RuntimeWarning)\n",
      "/usr/local/lib/python3.6/dist-packages/metar/Metar.py:437: RuntimeWarning: Unparsed groups in body 'WS R28' while processing 'METAR RCSS 060330Z 26019KT 9999 FEW025 SCT070 BKN120 34/24 Q1002 WS R28 NOSIG RMK 26015KT/R10 A2959(Z)=   \n",
      "'\n",
      "  warnings.warn(message, RuntimeWarning)\n",
      "/usr/local/lib/python3.6/dist-packages/metar/Metar.py:437: RuntimeWarning: Unparsed groups in body 'WS R28' while processing 'SPECI RCSS 060343Z 26016G27KT 9999 -RA FEW025 SCT045 BKN080 33/24 Q1002 WS R28 NOSIG RMK 27014G26KT/R10 A2960(A)=   \n",
      "'\n",
      "  warnings.warn(message, RuntimeWarning)\n",
      "/usr/local/lib/python3.6/dist-packages/metar/Metar.py:437: RuntimeWarning: Unparsed groups in body 'WS R28' while processing 'SPECI RCSS 060405Z 27016KT 9999 FEW025 SCT045 BKN070 32/24 Q1002 WS R28 NOSIG RMK 27014KT/R10 A2960(D)=   \n",
      "'\n",
      "  warnings.warn(message, RuntimeWarning)\n",
      "/usr/local/lib/python3.6/dist-packages/metar/Metar.py:437: RuntimeWarning: Unparsed groups in body 'WS R28' while processing 'METAR RCSS 060430Z 24014KT 220V290 9999 VCSH FEW025 SCT040 BKN070 32/24 Q1002 WS R28 NOSIG RMK 25011KT/R10 A2960(E)=   \n",
      "'\n",
      "  warnings.warn(message, RuntimeWarning)\n",
      "/usr/local/lib/python3.6/dist-packages/metar/Metar.py:437: RuntimeWarning: Unparsed groups in body 'WS R28' while processing 'METAR RCSS 060500Z 25014KT 220V290 9999 FEW025 SCT040 BKN090 33/25 Q1002 WS R28 NOSIG RMK 25013KT/R10 A2959(F)=   \n",
      "'\n",
      "  warnings.warn(message, RuntimeWarning)\n",
      "/usr/local/lib/python3.6/dist-packages/metar/Metar.py:437: RuntimeWarning: Unparsed groups in body 'WS R28' while processing 'SPECI RCSS 070631Z 27016G26KT 250V310 9999 FEW025 SCT045 35/25 Q1003 WS R28 NOSIG RMK 28014KT/R10 A2964(D)=   \n",
      "'\n",
      "  warnings.warn(message, RuntimeWarning)\n",
      "/usr/local/lib/python3.6/dist-packages/metar/Metar.py:437: RuntimeWarning: Unparsed groups in body 'WS R28' while processing 'METAR RCSS 070700Z 29013KT 9999 FEW020 SCT035 BKN120 34/26 Q1004 WS R28 NOSIG RMK 29013KT/R10 A2965(E)=   \n",
      "'\n",
      "  warnings.warn(message, RuntimeWarning)\n",
      "/usr/local/lib/python3.6/dist-packages/metar/Metar.py:437: RuntimeWarning: Unparsed groups in body 'WS R28' while processing 'SPECI RCSS 080713Z 31011KT 260V340 9999 VCSH FEW012 FEW020TCU BKN040 BKN150 34/27 Q1004 WS R28 NOSIG RMK 30012KT/R10 TCU NE-E A2965(A)=   \n",
      "'\n",
      "  warnings.warn(message, RuntimeWarning)\n",
      "/usr/local/lib/python3.6/dist-packages/metar/Metar.py:437: RuntimeWarning: Unparsed groups in body 'WS R28' while processing 'METAR RCSS 080730Z 30010KT 9999 VCSH FEW012 FEW020CB BKN035 BKN150 34/27 Q1004 WS R28 NOSIG RMK 29012KT/R10 CB E-SE A2966(B)=   \n",
      "'\n",
      "  warnings.warn(message, RuntimeWarning)\n",
      "/usr/local/lib/python3.6/dist-packages/metar/Metar.py:437: RuntimeWarning: Unparsed groups in body 'WS R28' while processing 'METAR RCSS 080800Z 28007KT 240V320 9999 VCSH FEW012 FEW020TCU BKN035 BKN150 34/27 Q1004 WS R28 NOSIG RMK 28010KT/R10 TCU E-SE A2966(C)=   \n",
      "'\n",
      "  warnings.warn(message, RuntimeWarning)\n",
      "/usr/local/lib/python3.6/dist-packages/metar/Metar.py:437: RuntimeWarning: Unparsed groups in body 'WS R28' while processing 'METAR RCSS 080830Z VRB06KT 9999 FEW015 FEW020TCU BKN035 BKN150 32/27 Q1004 WS R28 NOSIG RMK 29007KT/R10 TCU E-SE A2967(D)=   \n",
      "'\n",
      "  warnings.warn(message, RuntimeWarning)\n",
      "/usr/local/lib/python3.6/dist-packages/metar/Metar.py:437: RuntimeWarning: Unparsed groups in body 'WS R28' while processing 'SPECI RCSS 090506Z 27013KT 230V300 9999 FEW025 SCT050 BKN150 36/25 Q1002 WS R28 NOSIG RMK 28013KT/R10 A2960(P)=   \n",
      "'\n",
      "  warnings.warn(message, RuntimeWarning)\n",
      "/usr/local/lib/python3.6/dist-packages/metar/Metar.py:437: RuntimeWarning: Unparsed groups in body 'WS R28' while processing 'METAR RCSS 090530Z 25015G25KT 9999 FEW025 SCT100 BKN250 36/24 Q1001 WS R28 NOSIG RMK 24013G24KT/R10 A2958(Q)=   \n",
      "'\n",
      "  warnings.warn(message, RuntimeWarning)\n",
      "/usr/local/lib/python3.6/dist-packages/metar/Metar.py:437: RuntimeWarning: Unparsed groups in body 'WS R28' while processing 'METAR RCSS 090600Z 26018G31KT 9999 FEW025 SCT100 BKN250 36/24 Q1001 WS R28 NOSIG RMK 25015KT/R10 A2958(R)=   \n",
      "'\n",
      "  warnings.warn(message, RuntimeWarning)\n",
      "/usr/local/lib/python3.6/dist-packages/metar/Metar.py:437: RuntimeWarning: Unparsed groups in body 'WS R28' while processing 'METAR RCSS 090630Z 27017KT 240V310 9999 FEW025 SCT120 BKN200 36/24 Q1001 WS R28 NOSIG RMK 28015KT/R10 A2958(S)=   \n",
      "'\n",
      "  warnings.warn(message, RuntimeWarning)\n",
      "/usr/local/lib/python3.6/dist-packages/metar/Metar.py:437: RuntimeWarning: Unparsed groups in body 'WS R28' while processing 'METAR RCSS 090700Z 26019KT 9999 FEW025 SCT120 BKN200 36/24 Q1001 WS R28 NOSIG RMK 26011KT/R10 A2958(T)=   \n",
      "'\n",
      "  warnings.warn(message, RuntimeWarning)\n",
      "/usr/local/lib/python3.6/dist-packages/metar/Metar.py:437: RuntimeWarning: Unparsed groups in body 'WS R28' while processing 'SPECI RCSS 090724Z 27014KT 9999 FEW025 SCT120 BKN200 35/24 Q1001 WS R28 NOSIG RMK 27013KT/R10 A2957(V)=   \n",
      "'\n",
      "  warnings.warn(message, RuntimeWarning)\n",
      "/usr/local/lib/python3.6/dist-packages/metar/Metar.py:437: RuntimeWarning: Unparsed groups in body 'WS R28' while processing 'METAR RCSS 090730Z 27014KT 240V300 9999 FEW025 SCT120 BKN200 35/24 Q1001 WS R28 NOSIG RMK 27013KT/R10 A2957(W)=   \n",
      "'\n",
      "  warnings.warn(message, RuntimeWarning)\n",
      "/usr/local/lib/python3.6/dist-packages/metar/Metar.py:437: RuntimeWarning: Unparsed groups in body 'WS R28' while processing 'METAR RCSS 090800Z 27016G26KT 9999 FEW025 SCT100 BKN180 35/24 Q1001 WS R28 NOSIG RMK 26013KT/R10 A2956(X)=   \n",
      "'\n",
      "  warnings.warn(message, RuntimeWarning)\n",
      "/usr/local/lib/python3.6/dist-packages/metar/Metar.py:437: RuntimeWarning: Unparsed groups in body 'WS R28' while processing 'SPECI RCSS 100516Z 27009KT 230V320 9999 FEW025 SCT045 BKN200 36/25 Q1001 WS R28 NOSIG RMK 27010KT/R10 A2958(N)=   \n",
      "'\n",
      "  warnings.warn(message, RuntimeWarning)\n",
      "/usr/local/lib/python3.6/dist-packages/metar/Metar.py:437: RuntimeWarning: Unparsed groups in body 'WS R28' while processing 'METAR RCSS 100530Z VRB07KT 9999 FEW025 SCT045 BKN200 36/25 Q1001 WS R28 NOSIG RMK 28011KT/R10 A2958(O)=   \n",
      "'\n",
      "  warnings.warn(message, RuntimeWarning)\n",
      "/usr/local/lib/python3.6/dist-packages/metar/Metar.py:437: RuntimeWarning: Unparsed groups in body 'WS R10' while processing 'SPECI RCSS 100607Z 23007KT 140V290 9999 FEW025 SCT045 BKN200 36/26 Q1002 WS R10 NOSIG RMK A2959(Q)=   \n",
      "'\n",
      "  warnings.warn(message, RuntimeWarning)\n",
      "/usr/local/lib/python3.6/dist-packages/metar/Metar.py:437: RuntimeWarning: Unparsed groups in body 'WS R10' while processing 'METAR RCSS 100630Z 09014KT 9999 FEW025 SCT045 BKN200 33/26 Q1002 WS R10 NOSIG RMK A2959(R)=   \n",
      "'\n",
      "  warnings.warn(message, RuntimeWarning)\n",
      "/usr/local/lib/python3.6/dist-packages/metar/Metar.py:437: RuntimeWarning: Unparsed groups in body 'WS R10' while processing 'METAR RCSS 100700Z 09012KT 9999 VCSH FEW025 SCT050 BKN200 33/26 Q1002 WS R10 NOSIG RMK A2959(S)=   \n",
      "'\n",
      "  warnings.warn(message, RuntimeWarning)\n",
      "/usr/local/lib/python3.6/dist-packages/metar/Metar.py:437: RuntimeWarning: Unparsed groups in body 'WS R10' while processing 'METAR RCSS 100730Z 08010KT 9999 VCSH FEW020 FEW022CB SCT045 BKN130 33/26 Q1002 WS R10 NOSIG RMK CB S A2960(T)=   \n",
      "'\n",
      "  warnings.warn(message, RuntimeWarning)\n",
      "/usr/local/lib/python3.6/dist-packages/metar/Metar.py:437: RuntimeWarning: Unparsed groups in body 'WS R10' while processing 'METAR RCSS 100800Z 09010KT 9999 VCSH FEW016 FEW020CB SCT045 BKN220 33/26 Q1002 WS R10 NOSIG RMK CB SE A2960(U)=   \n",
      "'\n",
      "  warnings.warn(message, RuntimeWarning)\n",
      "/usr/local/lib/python3.6/dist-packages/metar/Metar.py:437: RuntimeWarning: Unparsed groups in body 'WS R10' while processing 'METAR RCSS 100830Z 09012KT 9999 FEW016 BKN250 32/25 Q1002 WS R10 NOSIG RMK A2960(V)=   \n",
      "'\n",
      "  warnings.warn(message, RuntimeWarning)\n",
      "/usr/local/lib/python3.6/dist-packages/metar/Metar.py:437: RuntimeWarning: Unparsed groups in body 'WS R10' while processing 'SPECI RCSS 120532Z 06008KT 010V090 8000 VCTS -SHRA FEW008 SCT020CB BKN030 BKN050 32/25 Q1006 WS R10 TEMPO 3000 TSRA RMK TS NE-SE MOV N A2973(M)=   \n",
      "'\n",
      "  warnings.warn(message, RuntimeWarning)\n",
      "/usr/local/lib/python3.6/dist-packages/metar/Metar.py:437: RuntimeWarning: Unparsed groups in body 'WS R10' while processing 'SPECI RCSS 120535Z 07010KT 010V090 5000 VCTS -SHRA FEW008 SCT020CB BKN030 BKN050 32/26 Q1006 WS R10 TEMPO 3000 TSRA RMK TS NE-SE MOV N A2972(N)=   \n",
      "'\n",
      "  warnings.warn(message, RuntimeWarning)\n",
      "/usr/local/lib/python3.6/dist-packages/metar/Metar.py:437: RuntimeWarning: Unparsed groups in body 'WS R10' while processing 'SPECI RCSS 120544Z 09015KT 3000 VCTS SHRA FEW005 SCT016CB BKN025 BKN045 30/26 Q1006 WS R10 TEMPO 2000 TSRA RMK TS NE-SE MOV NW A2973(O)=   \n",
      "'\n",
      "  warnings.warn(message, RuntimeWarning)\n",
      "/usr/local/lib/python3.6/dist-packages/metar/Metar.py:437: RuntimeWarning: Unparsed groups in body 'WS R10' while processing 'SPECI RCSS 120547Z 10017G27KT 1200 R10/P2000 +TSRA FEW003 SCT012CB BKN020 BKN045 29/26 Q1007 WS R10 TEMPO 2000 TSRA RMK TS NE-SE MOV NW A2975(P)=   \n",
      "'\n",
      "  warnings.warn(message, RuntimeWarning)\n",
      "/usr/local/lib/python3.6/dist-packages/metar/Metar.py:437: RuntimeWarning: Unparsed groups in body 'WS R10' while processing 'SPECI RCSS 120550Z 11018KT 1000 R10/P2000 +TSRA FEW003 BKN012CB BKN020 BKN045 29/26 Q1007 WS R10 NOSIG RMK TS OVHD MOV NW A2975(Q)=   \n",
      "'\n",
      "  warnings.warn(message, RuntimeWarning)\n",
      "/usr/local/lib/python3.6/dist-packages/metar/Metar.py:437: RuntimeWarning: Unparsed groups in body 'WS R10' while processing 'SPECI RCSS 120555Z 12017G27KT 080V150 0600 R10/1700D +TSRA FEW003 BKN012CB BKN020 BKN045 28/26 Q1008 WS R10 NOSIG RMK TS OVHD MOV NW A2977(R)=   \n",
      "'\n",
      "  warnings.warn(message, RuntimeWarning)\n",
      "/usr/local/lib/python3.6/dist-packages/metar/Metar.py:437: RuntimeWarning: Unparsed groups in body 'WS R10' while processing 'METAR RCSS 120600Z 09015KT 1000 R10/1200D +TSRA FEW003 BKN015CB BKN020 BKN045 27/26 Q1007 WS R10 NOSIG RMK TS OVHD MOV NW A2975 RA AMT 6.4MM(S)=   \n",
      "'\n",
      "  warnings.warn(message, RuntimeWarning)\n",
      "/usr/local/lib/python3.6/dist-packages/metar/Metar.py:437: RuntimeWarning: Unparsed groups in body 'WS R10' while processing 'SPECI RCSS 120605Z 08014KT 1500 TSRA FEW003 BKN012 SCT015CB BKN030 26/26 Q1007 WS R10 NOSIG RMK TS OVHD MOV NW A2975(T)=   \n",
      "'\n",
      "  warnings.warn(message, RuntimeWarning)\n",
      "/usr/local/lib/python3.6/dist-packages/metar/Metar.py:437: RuntimeWarning: Unparsed groups in body 'WS R10' while processing 'SPECI RCSS 120613Z 09012KT 3000 -TSRA FEW003 BKN012 SCT015CB BKN030 26/26 Q1007 RESHRA WS R10 NOSIG RMK TS SW AND NW-NE MOV NW A2975(U)=   \n",
      "'\n",
      "  warnings.warn(message, RuntimeWarning)\n",
      "/usr/local/lib/python3.6/dist-packages/metar/Metar.py:437: RuntimeWarning: Unparsed groups in body 'WS R28' while processing 'SPECI RCSS 130556Z 27018KT 9999 FEW025 37/25 Q1002 WS R28 NOSIG RMK 26013KT/R10 A2960(R)=   \n",
      "'\n",
      "  warnings.warn(message, RuntimeWarning)\n",
      "/usr/local/lib/python3.6/dist-packages/metar/Metar.py:437: RuntimeWarning: Unparsed groups in body 'WS R28' while processing 'METAR RCSS 130600Z 27018KT 9999 FEW025 37/25 Q1002 WS R28 NOSIG RMK 27013KT/R10 A2960(S)=   \n",
      "'\n",
      "  warnings.warn(message, RuntimeWarning)\n",
      "/usr/local/lib/python3.6/dist-packages/metar/Metar.py:437: RuntimeWarning: Unparsed groups in body 'WS R28' while processing 'SPECI RCSS 130931Z 28014KT 9999 FEW030 33/25 Q1002 WS R28 NOSIG RMK 28013KT/R10 A2960(A)=   \n",
      "'\n",
      "  warnings.warn(message, RuntimeWarning)\n",
      "/usr/local/lib/python3.6/dist-packages/metar/Metar.py:437: RuntimeWarning: Unparsed groups in body 'WS R28' while processing 'SPECI RCSS 140134Z 27014G24KT 250V320 9999 FEW025 SCT300 34/25 Q1004 WS R28 NOSIG RMK 27015G26KT/R10 A2965(D)=   \n",
      "'\n",
      "  warnings.warn(message, RuntimeWarning)\n",
      "/usr/local/lib/python3.6/dist-packages/metar/Metar.py:437: RuntimeWarning: Unparsed groups in body 'WS R28' while processing 'SPECI RCSS 140354Z 27016KT 9999 FEW025 SCT045 35/26 Q1003 WS R28 NOSIG RMK 28015KT/R10 A2963(J)=   \n",
      "'\n",
      "  warnings.warn(message, RuntimeWarning)\n",
      "/usr/local/lib/python3.6/dist-packages/metar/Metar.py:437: RuntimeWarning: Unparsed groups in body 'WS R28' while processing 'METAR RCSS 140400Z 27017KT 9999 FEW025 SCT045 35/26 Q1003 WS R28 NOSIG RMK 28015KT/R10 A2963(K)=   \n",
      "'\n",
      "  warnings.warn(message, RuntimeWarning)\n",
      "/usr/local/lib/python3.6/dist-packages/metar/Metar.py:437: RuntimeWarning: Unparsed groups in body 'WS R10' while processing 'SPECI RCSS 140906Z VRB06G17KT 9999 VCSH FEW018 FEW020TCU BKN035 BKN050 32/27 Q1003 WS R10 NOSIG RMK TCU E-SE A2963(W)=   \n",
      "'\n",
      "  warnings.warn(message, RuntimeWarning)\n",
      "/usr/local/lib/python3.6/dist-packages/metar/Metar.py:437: RuntimeWarning: Unparsed groups in body 'WS R10' while processing 'SPECI RCSS 140914Z 10016KT 9999 VCSH FEW018 FEW020TCU BKN035 BKN050 31/27 Q1003 WS R10 NOSIG RMK TCU E A2963(X)=   \n",
      "'\n",
      "  warnings.warn(message, RuntimeWarning)\n",
      "/usr/local/lib/python3.6/dist-packages/metar/Metar.py:437: RuntimeWarning: Unparsed groups in body 'WS R10' while processing 'METAR RCSS 140930Z 09012KT 9999 FEW018 FEW025TCU BKN035 BKN050 31/26 Q1003 WS R10 NOSIG RMK TCU E A2964(Y)=   \n",
      "'\n",
      "  warnings.warn(message, RuntimeWarning)\n",
      "/usr/local/lib/python3.6/dist-packages/metar/Metar.py:437: RuntimeWarning: Unparsed groups in body 'WS R10' while processing 'SPECI RCSS 150528Z 06007KT 360V090 9999 FEW020 SCT035 35/27 Q1004 WS R10 NOSIG RMK A2966(H)=   \n",
      "'\n",
      "  warnings.warn(message, RuntimeWarning)\n",
      "/usr/local/lib/python3.6/dist-packages/metar/Metar.py:437: RuntimeWarning: Unparsed groups in body 'WS R10' while processing 'METAR RCSS 150530Z 06007KT 020V090 9999 FEW020 SCT035 35/27 Q1004 WS R10 NOSIG RMK A2966(I)=   \n",
      "'\n",
      "  warnings.warn(message, RuntimeWarning)\n",
      "/usr/local/lib/python3.6/dist-packages/metar/Metar.py:437: RuntimeWarning: Unparsed groups in body 'WS R10' while processing 'METAR RCSS 150600Z VRB07G17KT 9999 FEW020 SCT035 BKN220 34/26 Q1004 WS R10 NOSIG RMK A2966(J)=   \n",
      "'\n",
      "  warnings.warn(message, RuntimeWarning)\n",
      "/usr/local/lib/python3.6/dist-packages/metar/Metar.py:437: RuntimeWarning: Unparsed groups in body 'WS R10' while processing 'SPECI RCSS 150632Z 08010KT 9999 FEW020 SCT035 BKN220 34/26 Q1004 WS R10 NOSIG RMK A2966(M)=   \n",
      "'\n",
      "  warnings.warn(message, RuntimeWarning)\n",
      "/usr/local/lib/python3.6/dist-packages/metar/Metar.py:437: RuntimeWarning: Unparsed groups in body 'WS R10' while processing 'METAR RCSS 150700Z 07010KT 040V100 9999 FEW020 BKN035 BKN220 33/26 Q1004 WS R10 NOSIG RMK A2967(N)=   \n",
      "'\n",
      "  warnings.warn(message, RuntimeWarning)\n",
      "/usr/local/lib/python3.6/dist-packages/metar/Metar.py:437: RuntimeWarning: Unparsed groups in body 'WS R10' while processing 'SPECI RCSS 160752Z 09015KT 9999 FEW025 35/25 Q1003 WS R10 NOSIG RMK A2962(G)=   \n",
      "'\n",
      "  warnings.warn(message, RuntimeWarning)\n",
      "/usr/local/lib/python3.6/dist-packages/metar/Metar.py:437: RuntimeWarning: Unparsed groups in body 'WS R10' while processing 'METAR RCSS 160800Z 08012KT 9999 FEW025 35/25 Q1003 WS R10 NOSIG RMK A2962(H)=   \n",
      "'\n",
      "  warnings.warn(message, RuntimeWarning)\n",
      "/usr/local/lib/python3.6/dist-packages/metar/Metar.py:437: RuntimeWarning: Unparsed groups in body 'WS R10' while processing 'SPECI RCSS 170037Z 09016KT 050V110 9999 FEW020 32/27 Q1002 WS R10 NOSIG RMK A2959(M)=   \n",
      "'\n",
      "  warnings.warn(message, RuntimeWarning)\n",
      "/usr/local/lib/python3.6/dist-packages/metar/Metar.py:437: RuntimeWarning: Unparsed groups in body 'WS R10' while processing 'METAR RCSS 170100Z 08014KT 9999 FEW020 SCT035 32/27 Q1002 WS R10 NOSIG RMK A2959(N)=   \n",
      "'\n",
      "  warnings.warn(message, RuntimeWarning)\n",
      "/usr/local/lib/python3.6/dist-packages/metar/Metar.py:437: RuntimeWarning: Unparsed groups in body 'WS R10' while processing 'SPECI RCSS 170252Z 08015KT 9999 FEW018 SCT032 33/27 Q1001 WS R10 NOSIG RMK A2958(R)=   \n",
      "'\n",
      "  warnings.warn(message, RuntimeWarning)\n",
      "/usr/local/lib/python3.6/dist-packages/metar/Metar.py:437: RuntimeWarning: Unparsed groups in body 'WS R10' while processing 'METAR RCSS 170300Z 08015KT 040V110 9999 FEW020 SCT035 34/28 Q1001 WS R10 NOSIG RMK QFF 1001.7HPA A2958(S)=   \n",
      "'\n",
      "  warnings.warn(message, RuntimeWarning)\n",
      "/usr/local/lib/python3.6/dist-packages/metar/Metar.py:437: RuntimeWarning: Unparsed groups in body 'WS R10' while processing 'METAR RCSS 170330Z 09016KT 9999 FEW020 SCT035 34/28 Q1001 WS R10 NOSIG RMK A2958(T)=   \n",
      "'\n",
      "  warnings.warn(message, RuntimeWarning)\n",
      "/usr/local/lib/python3.6/dist-packages/metar/Metar.py:437: RuntimeWarning: Unparsed groups in body 'WS R10' while processing 'METAR RCSS 170400Z 08016G26KT 9999 FEW020 BKN035 32/27 Q1001 WS R10 NOSIG RMK QFF 1001.3HPA A2957(U)=   \n",
      "'\n",
      "  warnings.warn(message, RuntimeWarning)\n",
      "/usr/local/lib/python3.6/dist-packages/metar/Metar.py:437: RuntimeWarning: Unparsed groups in body 'WS R10' while processing 'METAR RCSS 170430Z 08015KT 040V110 9999 FEW018 BKN032 33/28 Q1001 WS R10 NOSIG RMK A2956(V)=   \n",
      "'\n",
      "  warnings.warn(message, RuntimeWarning)\n",
      "/usr/local/lib/python3.6/dist-packages/metar/Metar.py:437: RuntimeWarning: Unparsed groups in body 'WS R10' while processing 'SPECI RCSS 170512Z 08015KT 9999 FEW020 SCT038 34/28 Q1000 WS R10 NOSIG RMK A2955(Y)=   \n",
      "'\n",
      "  warnings.warn(message, RuntimeWarning)\n",
      "/usr/local/lib/python3.6/dist-packages/metar/Metar.py:437: RuntimeWarning: Unparsed groups in body 'WS R10' while processing 'METAR RCSS 170530Z 08014KT 030V110 9999 FEW018 SCT035 34/28 Q1000 WS R10 NOSIG RMK A2955(Z)=   \n",
      "'\n",
      "  warnings.warn(message, RuntimeWarning)\n",
      "/usr/local/lib/python3.6/dist-packages/metar/Metar.py:437: RuntimeWarning: Unparsed groups in body 'WS R10' while processing 'METAR RCSS 170600Z 08015KT 9999 FEW020 SCT040 34/27 Q1000 WS R10 NOSIG RMK QFF 1000.3HPA A2954(A)=   \n",
      "'\n",
      "  warnings.warn(message, RuntimeWarning)\n",
      "/usr/local/lib/python3.6/dist-packages/metar/Metar.py:437: RuntimeWarning: Unparsed groups in body 'WS R10' while processing 'METAR RCSS 170630Z 08014KT 9999 FEW020 BKN035 33/27 Q1000 WS R10 NOSIG RMK A2954(B)=   \n",
      "'\n",
      "  warnings.warn(message, RuntimeWarning)\n",
      "/usr/local/lib/python3.6/dist-packages/metar/Metar.py:437: RuntimeWarning: Unparsed groups in body 'WS R10' while processing 'METAR RCSS 170700Z 07013KT 9999 FEW015 BKN028 34/27 Q1000 WS R10 NOSIG RMK QFF 1000.0HPA A2953(C)=   \n",
      "'\n",
      "  warnings.warn(message, RuntimeWarning)\n",
      "/usr/local/lib/python3.6/dist-packages/metar/Metar.py:437: RuntimeWarning: Unparsed groups in body 'WS R10' while processing 'SPECI RCSS 170724Z 08014KT 9999 -SHRA FEW015 BKN025 31/27 Q0999 WS R10 NOSIG RMK A2952(G)=   \n",
      "'\n",
      "  warnings.warn(message, RuntimeWarning)\n",
      "/usr/local/lib/python3.6/dist-packages/metar/Metar.py:437: RuntimeWarning: Unparsed groups in body 'WS R10' while processing 'METAR RCSS 170730Z 08014KT 040V110 8000 -SHRA FEW010 BKN022 BKN040 32/27 Q0999 WS R10 NOSIG RMK A2952(H)=   \n",
      "'\n",
      "  warnings.warn(message, RuntimeWarning)\n",
      "/usr/local/lib/python3.6/dist-packages/metar/Metar.py:437: RuntimeWarning: Unparsed groups in body 'WS R10' while processing 'METAR RCSS 170800Z 08015KT 040V110 8000 -SHRA FEW008 BKN020 BKN040 32/27 Q0999 WS R10 NOSIG RMK QFF 999.3HPA A2951(I)=   \n",
      "'\n",
      "  warnings.warn(message, RuntimeWarning)\n",
      "/usr/local/lib/python3.6/dist-packages/metar/Metar.py:437: RuntimeWarning: Unparsed groups in body 'WS R10' while processing 'METAR RCSS 170830Z 08015KT 8000 -SHRA FEW010 BKN022 BKN045 30/27 Q0999 WS R10 NOSIG RMK A2951(J)=   \n",
      "'\n",
      "  warnings.warn(message, RuntimeWarning)\n",
      "/usr/local/lib/python3.6/dist-packages/metar/Metar.py:437: RuntimeWarning: Unparsed groups in body 'WS R10' while processing 'SPECI RCSS 170836Z 08015KT 4800 -SHRA FEW010 BKN022 BKN045 30/27 Q0999 WS R10 NOSIG RMK A2950(K)=   \n",
      "'\n",
      "  warnings.warn(message, RuntimeWarning)\n",
      "/usr/local/lib/python3.6/dist-packages/metar/Metar.py:437: RuntimeWarning: Unparsed groups in body 'WS R28' while processing 'SPECI RCSS 190534Z 32007KT 260V010 9999 VCSH FEW012 FEW015CB BKN035 BKN300 34/27 Q0998 WS R28 NOSIG RMK 30011KT/R10 CB ESE-SE A2949(B)=   \n",
      "'\n",
      "  warnings.warn(message, RuntimeWarning)\n",
      "/usr/local/lib/python3.6/dist-packages/metar/Metar.py:437: RuntimeWarning: Unparsed groups in body 'WS R28' while processing 'SPECI RCSS 190537Z VRB06KT 9999 VCTS VCSH FEW012 FEW015CB BKN035 BKN300 34/27 Q0999 WS R28 NOSIG RMK 30010KT/R10 TS ESE-SE MOV E A2950(C)=   \n",
      "'\n",
      "  warnings.warn(message, RuntimeWarning)\n",
      "/usr/local/lib/python3.6/dist-packages/metar/Metar.py:437: RuntimeWarning: Unparsed groups in body 'WS R10' while processing 'METAR RCSS 190600Z 09008KT 9999 VCSH FEW012 FEW020CB BKN035 BKN060 32/27 Q0998 RETS WS R10 NOSIG RMK CB E-SE A2949(D)=   \n",
      "'\n",
      "  warnings.warn(message, RuntimeWarning)\n",
      "/usr/local/lib/python3.6/dist-packages/metar/Metar.py:437: RuntimeWarning: Unparsed groups in body 'WS R10' while processing 'METAR RCSS 190630Z 08005KT 040V100 9999 FEW012 FEW020TCU BKN035 BKN050 32/27 Q0998 WS R10 NOSIG RMK TCU E-SE A2949(E)=   \n",
      "'\n",
      "  warnings.warn(message, RuntimeWarning)\n",
      "/usr/local/lib/python3.6/dist-packages/metar/Metar.py:437: RuntimeWarning: Unparsed groups in body 'WS R10' while processing 'SPECI RCSS 200508Z VRB03KT 9999 FEW020 SCT040 BKN080 36/25 Q1004 WS R10 NOSIG RMK A2965(X)=   \n",
      "'\n",
      "  warnings.warn(message, RuntimeWarning)\n",
      "/usr/local/lib/python3.6/dist-packages/metar/Metar.py:437: RuntimeWarning: Unparsed groups in body 'WS R10' while processing 'METAR RCSS 200530Z VRB04KT 9999 VCSH FEW016 FEW025TCU SCT040 BKN080 36/27 Q1004 WS R10 NOSIG RMK TCU E AND S A2965(Y)=   \n",
      "'\n",
      "  warnings.warn(message, RuntimeWarning)\n",
      "/usr/local/lib/python3.6/dist-packages/metar/Metar.py:437: RuntimeWarning: Unparsed groups in body 'WS R10' while processing 'SPECI RCSS 200540Z 05006KT 350V120 9999 -TSRA FEW016 FEW020CB SCT040 BKN080 35/27 Q1003 WS R10 NOSIG RMK TS SE-S MOV E A2964(Z)=   \n",
      "'\n",
      "  warnings.warn(message, RuntimeWarning)\n",
      "/usr/local/lib/python3.6/dist-packages/metar/Metar.py:437: RuntimeWarning: Unparsed groups in body 'WS R10' while processing 'SPECI RCSS 200550Z 07010G20KT 030V110 9999 1500S TSRA FEW008 FEW015CB BKN040 BKN080 34/26 Q1004 WS R10 TEMPO 1500 +TSRA RMK TS OVHD A2965(A)=   \n",
      "'\n",
      "  warnings.warn(message, RuntimeWarning)\n",
      "/usr/local/lib/python3.6/dist-packages/metar/Metar.py:437: RuntimeWarning: Unparsed groups in body 'WS R10' while processing 'SPECI RCSS 200554Z 10025KT 9999 1500S TSRA FEW008 FEW015CB BKN040 BKN080 31/26 Q1004 WS R10 TEMPO 1500 +TSRA RMK TS OVHD A2965(B)=   \n",
      "'\n",
      "  warnings.warn(message, RuntimeWarning)\n",
      "/usr/local/lib/python3.6/dist-packages/metar/Metar.py:437: RuntimeWarning: Unparsed groups in body 'WS R10' while processing 'METAR RCSS 200600Z 10024G34KT 9999 3000E TSRA FEW008 FEW015CB BKN040 BKN080 28/25 Q1004 WS R10 TEMPO 1500 +TSRA RMK TS OVHD A2965(C)=   \n",
      "'\n",
      "  warnings.warn(message, RuntimeWarning)\n",
      "/usr/local/lib/python3.6/dist-packages/metar/Metar.py:437: RuntimeWarning: Unparsed groups in body 'WS R10' while processing 'SPECI RCSS 200612Z 07013KT 9999 3500SE -TSRA FEW008 FEW015CB BKN040 BKN080 29/25 Q1004 RESHRA WS R10 BECMG NSW RMK TS NE-E MOV E A2966(D)=   \n",
      "'\n",
      "  warnings.warn(message, RuntimeWarning)\n",
      "/usr/local/lib/python3.6/dist-packages/metar/Metar.py:437: RuntimeWarning: Unparsed groups in body 'WS R28' while processing 'SPECI RCSS 220622Z 30008KT 270V340 9999 FEW020 SCT035 35/27 Q1004 WS R28 NOSIG RMK 30012KT/R10 A2967(Z)=   \n",
      "'\n",
      "  warnings.warn(message, RuntimeWarning)\n"
     ]
    },
    {
     "name": "stderr",
     "output_type": "stream",
     "text": [
      "/usr/local/lib/python3.6/dist-packages/metar/Metar.py:437: RuntimeWarning: Unparsed groups in body 'WS R28' while processing 'METAR RCSS 220630Z 30007KT 270V330 8000 FEW018 FEW020CB BKN038 34/27 Q1005 WS R28 NOSIG RMK 30012KT/R10 CB NE-E A2968(A)=   \n",
      "'\n",
      "  warnings.warn(message, RuntimeWarning)\n",
      "/usr/local/lib/python3.6/dist-packages/metar/Metar.py:437: RuntimeWarning: Unparsed groups in body 'WS R10' while processing 'SPECI RCSS 220636Z 31010KT 270V360 9000 FEW018 FEW020CB BKN038 34/26 Q1005 WS R10 NOSIG RMK CB NE-E A2968(B)=   \n",
      "'\n",
      "  warnings.warn(message, RuntimeWarning)\n",
      "/usr/local/lib/python3.6/dist-packages/metar/Metar.py:437: RuntimeWarning: Unparsed groups in body 'WS R10' while processing 'SPECI RCSS 220644Z 32007KT 270V030 9000 SHRA FEW015 FEW020CB BKN035 33/27 Q1005 WS R10 NOSIG RMK CB NE A2969(D)=   \n",
      "'\n",
      "  warnings.warn(message, RuntimeWarning)\n",
      "/usr/local/lib/python3.6/dist-packages/metar/Metar.py:437: RuntimeWarning: Unparsed groups in body 'WS R10' while processing 'SPECI RCSS 220652Z VRB05KT 8000 -SHRA FEW015 FEW020CB BKN035 31/27 Q1005 RESHRA WS R10 NOSIG RMK CB N AND SW A2969(E)=   \n",
      "'\n",
      "  warnings.warn(message, RuntimeWarning)\n",
      "/usr/local/lib/python3.6/dist-packages/metar/Metar.py:437: RuntimeWarning: Unparsed groups in body 'WS R10' while processing 'METAR RCSS 220700Z VRB06KT 8000 -SHRA FEW015 FEW020CB BKN035 30/27 Q1005 RESHRA WS R10 NOSIG RMK CB N AND SW-W A2968 RA AMT 1.6MM(F)=   \n",
      "'\n",
      "  warnings.warn(message, RuntimeWarning)\n",
      "/usr/local/lib/python3.6/dist-packages/metar/Metar.py:437: RuntimeWarning: Unparsed groups in body 'WS R10' while processing 'SPECI RCSS 220714Z 33007G19KT 230V040 8000 -TSRA FEW015 FEW020CB BKN035 29/26 Q1005 WS R10 NOSIG RMK TS S-W M0V NE A2969(G)=   \n",
      "'\n",
      "  warnings.warn(message, RuntimeWarning)\n",
      "/usr/local/lib/python3.6/dist-packages/metar/Metar.py:437: RuntimeWarning: Unparsed groups in body 'WS R10' while processing 'SPECI RCSS 220719Z 27011G21KT 230V300 6000 -TSRA FEW012 FEW020CB BKN030 28/26 Q1005 WS R10 TEMPO 3000 SHRA RMK TS OVHD A2969(H)=   \n",
      "'\n",
      "  warnings.warn(message, RuntimeWarning)\n",
      "/usr/local/lib/python3.6/dist-packages/metar/Metar.py:437: RuntimeWarning: Unparsed groups in body 'WS R10' while processing 'SPECI RCSS 220725Z 27013KT 3000 TSRA FEW006 FEW015CB BKN025 27/26 Q1005 WS R10 TEMPO 2000 +SHRA RMK TS OVHD A2969(I)=   \n",
      "'\n",
      "  warnings.warn(message, RuntimeWarning)\n",
      "/usr/local/lib/python3.6/dist-packages/metar/Metar.py:437: RuntimeWarning: Unparsed groups in body 'WS R10' while processing 'METAR RCSS 220730Z 26013KT 1400 R10/1600D +TSRA FEW004 FEW015CB BKN018 27/25 Q1005 WS R10 NOSIG RMK TS OVHD A2969(J)=   \n",
      "'\n",
      "  warnings.warn(message, RuntimeWarning)\n",
      "/usr/local/lib/python3.6/dist-packages/metar/Metar.py:437: RuntimeWarning: Unparsed groups in body 'WS R28' while processing 'SPECI RCSS 220735Z 17013KT 150V240 1400 R28/1300D +TSRA FEW004 FEW015CB BKN018 27/26 Q1005 WS R28 NOSIG RMK 25013KT/R10 TS OVHD A2970(K)=   \n",
      "'\n",
      "  warnings.warn(message, RuntimeWarning)\n",
      "/usr/local/lib/python3.6/dist-packages/metar/Metar.py:437: RuntimeWarning: Unparsed groups in body 'WS R28' while processing 'SPECI RCSS 220742Z 23011G21KT 0800 R28/1500D +TSRA SCT003 FEW010CB BKN012 27/26 Q1006 WS R28 NOSIG RMK 22011KT/R10 TS OVHD A2972(L)=   \n",
      "'\n",
      "  warnings.warn(message, RuntimeWarning)\n",
      "/usr/local/lib/python3.6/dist-packages/metar/Metar.py:437: RuntimeWarning: Unparsed groups in body 'WS R28' while processing 'SPECI RCSS 220745Z 23013KT 0700 R28/1000D +TSRA SCT003 FEW010CB BKN012 26/26 Q1006 WS R28 NOSIG RMK 20010KT/R10 TS OVHD A2972(M)=   \n",
      "'\n",
      "  warnings.warn(message, RuntimeWarning)\n",
      "/usr/local/lib/python3.6/dist-packages/metar/Metar.py:437: RuntimeWarning: Unparsed groups in body 'WS R28' while processing 'SPECI RCSS 220747Z 23014KT 0600 R28/0800D +TSRA SCT003 FEW010CB BKN012 26/26 Q1006 WS R28 NOSIG RMK 20010KT/R10 TS OVHD A2972(N)=   \n",
      "'\n",
      "  warnings.warn(message, RuntimeWarning)\n",
      "/usr/local/lib/python3.6/dist-packages/metar/Metar.py:437: RuntimeWarning: Unparsed groups in body 'WS R28' while processing 'SPECI RCSS 220748Z 23014KT 0600 R28/0500 +TSRA SCT003 FEW008CB BKN010 26/25 Q1006 WS R28 NOSIG RMK 20010KT/R10 TS OVHD A2972(O)=   \n",
      "'\n",
      "  warnings.warn(message, RuntimeWarning)\n",
      "/usr/local/lib/python3.6/dist-packages/metar/Metar.py:437: RuntimeWarning: Unparsed groups in body 'WS R10' while processing 'SPECI RCSS 220753Z 26009G19KT 230V290 0600 R10/0500 +TSRA SCT003 FEW008CB BKN010 25/25 Q1006 WS R10 NOSIG RMK TS OVHD A2972(P)=   \n",
      "'\n",
      "  warnings.warn(message, RuntimeWarning)\n",
      "/usr/local/lib/python3.6/dist-packages/metar/Metar.py:437: RuntimeWarning: Unparsed groups in body 'WS R10' while processing 'METAR RCSS 220800Z 24009KT 210V290 0600 R10/0550 +TSRA SCT003 FEW008CB BKN010 25/25 Q1006 WS R10 NOSIG RMK TS OVHD A2972 RA AMT 47.6MM(Q)=   \n",
      "'\n",
      "  warnings.warn(message, RuntimeWarning)\n",
      "/usr/local/lib/python3.6/dist-packages/metar/Metar.py:437: RuntimeWarning: Unparsed groups in body 'WS R10' while processing 'SPECI RCSS 220804Z 23011KT 1200 R10/0900 +TSRA SCT003 FEW008CB BKN010 25/25 Q1006 WS R10 NOSIG RMK TS OVHD A2973(R)=   \n",
      "'\n",
      "  warnings.warn(message, RuntimeWarning)\n",
      "/usr/local/lib/python3.6/dist-packages/metar/Metar.py:437: RuntimeWarning: Unparsed groups in body 'WS R10' while processing 'SPECI RCSS 220824Z 19005KT 160V270 1500 R10/1000U +TSRA SCT005 FEW010CB BKN014 25/25 Q1006 WS R10 NOSIG RMK TS OVHD A2972(S)=   \n",
      "'\n",
      "  warnings.warn(message, RuntimeWarning)\n",
      "/usr/local/lib/python3.6/dist-packages/metar/Metar.py:437: RuntimeWarning: Unparsed groups in body 'WS R10' while processing 'METAR RCSS 220830Z 22004KT 180V290 2700 TSRA FEW006 FEW012CB BKN018 25/25 Q1006 WS R10 BECMG 5000 RMK TS OVHD A2973(T)=   \n",
      "'\n",
      "  warnings.warn(message, RuntimeWarning)\n",
      "/usr/local/lib/python3.6/dist-packages/metar/Metar.py:437: RuntimeWarning: Unparsed groups in body 'WS R10' while processing 'SPECI RCSS 220837Z 22005KT 180V290 3200 TSRA FEW006 FEW012CB BKN020 BKN040 25/25 Q1006 WS R10 BECMG 5000 RMK TS S-W-N MOV NW A2972(V)=   \n",
      "'\n",
      "  warnings.warn(message, RuntimeWarning)\n",
      "/usr/local/lib/python3.6/dist-packages/metar/Metar.py:437: RuntimeWarning: Unparsed groups in body 'WS R10' while processing 'SPECI RCSS 260636Z 32005KT 270V020 9999 VCSH FEW020 FEW025TCU BKN035 35/27 Q1004 WS R10 NOSIG RMK TCU SW A2966(F)=   \n",
      "'\n",
      "  warnings.warn(message, RuntimeWarning)\n",
      "/usr/local/lib/python3.6/dist-packages/metar/Metar.py:437: RuntimeWarning: Unparsed groups in body 'WS R10' while processing 'SPECI RCSS 260647Z VRB03KT 9999 3500SW -SHRA FEW020 FEW025CB BKN035 34/27 Q1004 WS R10 NOSIG RMK CB S-SW A2966(G)=   \n",
      "'\n",
      "  warnings.warn(message, RuntimeWarning)\n",
      "/usr/local/lib/python3.6/dist-packages/metar/Metar.py:437: RuntimeWarning: Unparsed groups in body 'WS R10' while processing 'METAR RCSS 260700Z VRB07KT 9999 4000SW -SHRA FEW015 FEW020CB BKN035 33/26 Q1004 WS R10 NOSIG RMK CB S-SW A2966(H)=   \n",
      "'\n",
      "  warnings.warn(message, RuntimeWarning)\n",
      "/usr/local/lib/python3.6/dist-packages/metar/Metar.py:437: RuntimeWarning: Unparsed groups in body 'WS R10' while processing 'SPECI RCSS 260707Z 18007KT 090V240 9999 3000S -TSRA FEW010 FEW015CB BKN030 32/25 Q1004 WS R10 NOSIG RMK TS S-SW MOV N A2966(I)=   \n",
      "'\n",
      "  warnings.warn(message, RuntimeWarning)\n",
      "/usr/local/lib/python3.6/dist-packages/metar/Metar.py:437: RuntimeWarning: Unparsed groups in body 'WS R10' while processing 'SPECI RCSS 260715Z 15009KT 8000 1000S TSRA FEW010 SCT015CB BKN030 32/26 Q1004 WS R10 NOSIG RMK TS S-SW MOV N A2966(J)=   \n",
      "'\n",
      "  warnings.warn(message, RuntimeWarning)\n",
      "/usr/local/lib/python3.6/dist-packages/metar/Metar.py:437: RuntimeWarning: Unparsed groups in body 'WS R10' while processing 'SPECI RCSS 260723Z 13013KT 9000 1500S TSRA FEW010 SCT015CB BKN030 31/24 Q1004 WS R10 NOSIG RMK TS OVHD A2967(K)=   \n",
      "'\n",
      "  warnings.warn(message, RuntimeWarning)\n",
      "/usr/local/lib/python3.6/dist-packages/metar/Metar.py:437: RuntimeWarning: Unparsed groups in body 'WS R10' while processing 'METAR RCSS 260730Z 14013KT 9000 2000SE TSRA FEW010 SCT015CB BKN030 30/25 Q1004 WS R10 NOSIG RMK TS OVHD A2967(L)=   \n",
      "'\n",
      "  warnings.warn(message, RuntimeWarning)\n",
      "/usr/local/lib/python3.6/dist-packages/metar/Metar.py:437: RuntimeWarning: Unparsed groups in body 'WS R10' while processing 'SPECI RCSS 260738Z 14011KT 9000 3000E -TSRA FEW010 SCT015CB BKN030 30/24 Q1005 RESHRA WS R10 NOSIG RMK TS S-SW MOV NE A2968(M)=   \n",
      "'\n",
      "  warnings.warn(message, RuntimeWarning)\n",
      "/usr/local/lib/python3.6/dist-packages/metar/Metar.py:437: RuntimeWarning: Unparsed groups in body 'WS R10' while processing 'SPECI RCSS 260754Z 13014KT 9000 1200E TSRA FEW008 SCT012CB BKN030 29/25 Q1005 WS R10 NOSIG RMK TS NE-E-S MOV N A2968(N)=   \n",
      "'\n",
      "  warnings.warn(message, RuntimeWarning)\n",
      "/usr/local/lib/python3.6/dist-packages/metar/Metar.py:437: RuntimeWarning: Unparsed groups in body 'WS R10' while processing 'METAR RCSS 260800Z 13013KT 8000 1200E TSRA FEW005 SCT012CB BKN030 29/25 Q1005 WS R10 NOSIG RMK TS NE-E-S MOV N A2968(O)=   \n",
      "'\n",
      "  warnings.warn(message, RuntimeWarning)\n",
      "/usr/local/lib/python3.6/dist-packages/metar/Metar.py:437: RuntimeWarning: Unparsed groups in body 'WS R28' while processing 'SPECI RCSS 270513Z VRB04KT 9999 -TSRA FEW020 SCT022CB BKN035 33/26 Q1005 WS R28 TEMPO 3000 TSRA RMK 29008KT/R10 TS OVHD A2969(H)=   \n",
      "'\n",
      "  warnings.warn(message, RuntimeWarning)\n",
      "/usr/local/lib/python3.6/dist-packages/metar/Metar.py:437: RuntimeWarning: Unparsed groups in body 'WS R28' while processing 'SPECI RCSS 270516Z 26005KT 180V300 4800 -TSRA FEW008 SCT015CB BKN035 33/26 Q1005 WS R28 TEMPO 3000 TSRA RMK 29009G19KT/R10 TS OVHD A2969(I)=   \n",
      "'\n",
      "  warnings.warn(message, RuntimeWarning)\n",
      "/usr/local/lib/python3.6/dist-packages/metar/Metar.py:437: RuntimeWarning: Unparsed groups in body 'WS R28' while processing 'METAR RCSS 270530Z 26017KT 6000 -TSRA FEW008 SCT015CB BKN035 30/25 Q1005 WS R28 TEMPO 3000 TSRA RMK 27014KT/R10 TS OVHD A2969(J)=   \n",
      "'\n",
      "  warnings.warn(message, RuntimeWarning)\n",
      "/usr/local/lib/python3.6/dist-packages/metar/Metar.py:437: RuntimeWarning: Unparsed groups in body 'WS R28' while processing 'SPECI RCSS 270539Z 28013KT 6000 2000W TSRA FEW008 BKN015CB BKN035 31/25 Q1005 WS R28 TEMPO 3000 +TSRA RMK 27012KT/R10 TS OVHD A2969(K)=   \n",
      "'\n",
      "  warnings.warn(message, RuntimeWarning)\n",
      "/usr/local/lib/python3.6/dist-packages/metar/Metar.py:437: RuntimeWarning: Unparsed groups in body 'WS R28' while processing 'SPECI RCSS 270548Z 29009KT 260V320 6000 -TSRA FEW008 SCT015CB BKN035 30/26 Q1005 RESHRA WS R28 BECMG NSW RMK 23010KT/R10 TS OVHD A2969(L)=   \n",
      "'\n",
      "  warnings.warn(message, RuntimeWarning)\n",
      "/usr/local/lib/python3.6/dist-packages/metar/Metar.py:437: RuntimeWarning: Unparsed groups in body 'WS R28' while processing 'SPECI RCSS 270552Z 30006KT 250V040 8000 -TSRA FEW008 FEW020CB BKN035 BKN070 30/26 Q1005 WS R28 BECMG NSW RMK 25006KT/R10 TS SW-W STNR A2968(M)=   \n",
      "'\n",
      "  warnings.warn(message, RuntimeWarning)\n",
      "/usr/local/lib/python3.6/dist-packages/metar/Metar.py:437: RuntimeWarning: Unparsed groups in body 'WS R28' while processing 'METAR RCSS 270600Z 29007KT 250V040 8000 -TSRA FEW008 FEW020CB BKN035 BKN070 30/27 Q1005 RESHRA WS R28 BECMG NSW RMK 25006KT/R10 TS S-SW MOV E A2968 RA AMT 8.0MM(N)=   \n",
      "'\n",
      "  warnings.warn(message, RuntimeWarning)\n",
      "/usr/local/lib/python3.6/dist-packages/metar/Metar.py:437: RuntimeWarning: Unparsed groups in body 'WS R10' while processing 'SPECI RCSS 280601Z 09006KT 9999 FEW018 SCT030 BKN070 34/27 Q1007 WS R10 NOSIG RMK A2976(O)=   \n",
      "'\n",
      "  warnings.warn(message, RuntimeWarning)\n",
      "/usr/local/lib/python3.6/dist-packages/metar/Metar.py:437: RuntimeWarning: Unparsed groups in body 'WS R10' while processing 'SPECI RCSS 301156Z 12012KT 9999 FEW025 31/24 Q1006 WS R10 NOSIG RMK A2972(K)=   \n",
      "'\n",
      "  warnings.warn(message, RuntimeWarning)\n",
      "/usr/local/lib/python3.6/dist-packages/metar/Metar.py:437: RuntimeWarning: Unparsed groups in body 'WS R10' while processing 'METAR RCSS 301200Z 12011KT 9999 FEW025 31/24 Q1006 WS R10 NOSIG RMK A2972(L)=   \n",
      "'\n",
      "  warnings.warn(message, RuntimeWarning)\n",
      "/usr/local/lib/python3.6/dist-packages/metar/Metar.py:437: RuntimeWarning: Unparsed groups in body 'WS R10' while processing 'METAR RCSS 301230Z 12014KT 9999 FEW025 31/24 Q1006 WS R10 NOSIG RMK A2972(M)=   \n",
      "'\n",
      "  warnings.warn(message, RuntimeWarning)\n",
      "/usr/local/lib/python3.6/dist-packages/metar/Metar.py:437: RuntimeWarning: Unparsed groups in body 'WS R10' while processing 'SPECI RCSS 310323Z 12018KT 9999 FEW025 36/24 Q1005 WS R10 NOSIG RMK A2970(L)=   \n",
      "'\n",
      "  warnings.warn(message, RuntimeWarning)\n",
      "/usr/local/lib/python3.6/dist-packages/metar/Metar.py:437: RuntimeWarning: Unparsed groups in body 'WS R10' while processing 'METAR RCSS 310330Z 12016KT 9999 FEW025 36/24 Q1005 WS R10 NOSIG RMK A2969(M)=   \n",
      "'\n",
      "  warnings.warn(message, RuntimeWarning)\n",
      "/usr/local/lib/python3.6/dist-packages/metar/Metar.py:437: RuntimeWarning: Unparsed groups in body 'WS R10' while processing 'METAR RCSS 310400Z 10018KT 9999 FEW025 35/25 Q1005 WS R10 NOSIG RMK A2969(N)=   \n",
      "'\n",
      "  warnings.warn(message, RuntimeWarning)\n",
      "/usr/local/lib/python3.6/dist-packages/metar/Metar.py:437: RuntimeWarning: Unparsed groups in body 'WS R10' while processing 'SPECI RCSS 310452Z 09018KT 9999 FEW025 36/25 Q1005 WS R10 NOSIG RMK A2969(Q)=   \n",
      "'\n",
      "  warnings.warn(message, RuntimeWarning)\n",
      "/usr/local/lib/python3.6/dist-packages/metar/Metar.py:437: RuntimeWarning: Unparsed groups in body 'WS R10' while processing 'METAR RCSS 310500Z 09018KT 9999 FEW025 35/25 Q1005 WS R10 NOSIG RMK A2969(R)=   \n",
      "'\n",
      "  warnings.warn(message, RuntimeWarning)\n",
      "/usr/local/lib/python3.6/dist-packages/metar/Metar.py:437: RuntimeWarning: Unparsed groups in body 'WS R10' while processing 'METAR RCSS 310530Z 10016KT 9999 FEW025 SCT040 36/25 Q1005 WS R10 NOSIG RMK A2968(S)=   \n",
      "'\n",
      "  warnings.warn(message, RuntimeWarning)\n",
      "/usr/local/lib/python3.6/dist-packages/metar/Metar.py:437: RuntimeWarning: Unparsed groups in body 'WS R10' while processing 'SPECI RCSS 310621Z 13018KT 9999 FEW025 35/24 Q1005 WS R10 NOSIG RMK A2968(V)=   \n",
      "'\n",
      "  warnings.warn(message, RuntimeWarning)\n",
      "/usr/local/lib/python3.6/dist-packages/metar/Metar.py:437: RuntimeWarning: Unparsed groups in body 'WS R10' while processing 'METAR RCSS 310630Z 12018KT 9999 FEW025 35/24 Q1005 WS R10 NOSIG RMK A2968(W)=   \n",
      "'\n",
      "  warnings.warn(message, RuntimeWarning)\n",
      "/usr/local/lib/python3.6/dist-packages/metar/Metar.py:437: RuntimeWarning: Unparsed groups in body 'WS R10' while processing 'SPECI RCSS 310810Z 12015KT 090V150 9999 FEW025 35/24 Q1005 WS R10 NOSIG RMK A2968(B)=   \n",
      "'\n",
      "  warnings.warn(message, RuntimeWarning)\n",
      "/usr/local/lib/python3.6/dist-packages/metar/Metar.py:437: RuntimeWarning: Unparsed groups in body 'WS R10' while processing 'METAR RCSS 310830Z 12015KT 090V150 9999 FEW025 35/24 Q1005 WS R10 NOSIG RMK A2968(C)=   \n",
      "'\n",
      "  warnings.warn(message, RuntimeWarning)\n",
      "/usr/local/lib/python3.6/dist-packages/metar/Metar.py:437: RuntimeWarning: Unparsed groups in body 'WS R10' while processing 'SPECI RCSS 310928Z 11015KT 9999 FEW020 33/24 Q1005 WS R10 NOSIG RMK A2969(E)=   \n",
      "'\n",
      "  warnings.warn(message, RuntimeWarning)\n",
      "/usr/local/lib/python3.6/dist-packages/metar/Metar.py:437: RuntimeWarning: Unparsed groups in body 'WS R10' while processing 'METAR RCSS 310930Z 11016KT 9999 FEW020 33/24 Q1005 WS R10 NOSIG RMK A2969(F)=   \n",
      "'\n",
      "  warnings.warn(message, RuntimeWarning)\n",
      "/usr/local/lib/python3.6/dist-packages/metar/Metar.py:437: RuntimeWarning: Unparsed groups in body 'WS R10' while processing 'SPECI RCSS 010351Z 10018KT 9999 FEW025 36/24 Q1006 WS R10 NOSIG RMK A2972(K)=   \n",
      "'\n",
      "  warnings.warn(message, RuntimeWarning)\n",
      "/usr/local/lib/python3.6/dist-packages/metar/Metar.py:437: RuntimeWarning: Unparsed groups in body 'WS R10' while processing 'METAR RCSS 010400Z 10018KT 9999 FEW025 36/25 Q1006 WS R10 NOSIG RMK A2972(L)=   \n",
      "'\n",
      "  warnings.warn(message, RuntimeWarning)\n",
      "/usr/local/lib/python3.6/dist-packages/metar/Metar.py:437: RuntimeWarning: Unparsed groups in body 'WS R10' while processing 'METAR RCSS 010430Z 11016KT 080V140 9999 FEW025 36/24 Q1006 WS R10 NOSIG RMK A2972(M)=   \n",
      "'\n",
      "  warnings.warn(message, RuntimeWarning)\n",
      "/usr/local/lib/python3.6/dist-packages/metar/Metar.py:437: RuntimeWarning: Unparsed groups in body 'WS R10' while processing 'SPECI RCSS 030840Z 06011KT 9999 FEW025 32/24 Q1002 WS R10 NOSIG RMK A2959(E)=   \n",
      "'\n",
      "  warnings.warn(message, RuntimeWarning)\n",
      "/usr/local/lib/python3.6/dist-packages/metar/Metar.py:437: RuntimeWarning: Unparsed groups in body 'WS R10' while processing 'SPECI RCSS 040752Z 11017KT 9999 FEW020 SCT050 35/26 Q1001 WS R10 NOSIG RMK A2956(U)=   \n",
      "'\n",
      "  warnings.warn(message, RuntimeWarning)\n",
      "/usr/local/lib/python3.6/dist-packages/metar/Metar.py:437: RuntimeWarning: Unparsed groups in body 'WS R10' while processing 'METAR RCSS 040800Z 11017KT 9999 FEW020 SCT050 35/26 Q1001 WS R10 NOSIG RMK A2956(V)=   \n",
      "'\n",
      "  warnings.warn(message, RuntimeWarning)\n",
      "/usr/local/lib/python3.6/dist-packages/metar/Metar.py:437: RuntimeWarning: Unparsed groups in body 'WS R10' while processing 'SPECI RCSS 050317Z 07011KT 030V100 9999 -SHRA FEW015 BKN030 34/27 Q1003 WS R10 NOSIG RMK A2962(M)=   \n",
      "'\n",
      "  warnings.warn(message, RuntimeWarning)\n",
      "/usr/local/lib/python3.6/dist-packages/metar/Metar.py:437: RuntimeWarning: Unparsed groups in body 'WS R10' while processing 'METAR RCSS 050330Z 08009KT 040V100 9999 VCSH FEW015 SCT030 31/28 Q1002 WS R10 NOSIG RMK A2961(N)=   \n",
      "'\n",
      "  warnings.warn(message, RuntimeWarning)\n",
      "/usr/local/lib/python3.6/dist-packages/metar/Metar.py:437: RuntimeWarning: Unparsed groups in body 'WS R10' while processing 'SPECI RCSS 070429Z 08010KT 030V110 2500 +SHRA FEW005 SCT022 FEW025CB BKN045 30/28 Q0999 WS R10 NOSIG RMK CB NE AND SW-W A2952(M)=   \n",
      "'\n",
      "  warnings.warn(message, RuntimeWarning)\n",
      "/usr/local/lib/python3.6/dist-packages/metar/Metar.py:437: RuntimeWarning: Unparsed groups in body 'WS R10' while processing 'METAR RCSS 070430Z 08011G22KT 030V110 2500 +SHRA FEW005 BKN022 FEW025CB BKN045 29/27 Q0999 WS R10 NOSIG RMK CB NE AND SW-W A2952(N)=   \n",
      "'\n",
      "  warnings.warn(message, RuntimeWarning)\n",
      "/usr/local/lib/python3.6/dist-packages/metar/Metar.py:437: RuntimeWarning: Unparsed groups in body 'WS R10' while processing 'SPECI RCSS 070440Z 07011KT 040V100 3500 VCTS SHRA FEW005 BKN022 FEW025CB BKN045 28/27 Q0999 WS R10 NOSIG RMK TS NE AND SW-W MOV SW A2952(O)=   \n",
      "'\n",
      "  warnings.warn(message, RuntimeWarning)\n",
      "/usr/local/lib/python3.6/dist-packages/metar/Metar.py:437: RuntimeWarning: Unparsed groups in body 'WS R10' while processing 'SPECI RCSS 070450Z 08008KT 6000 VCTS -SHRA FEW005 SCT022 FEW025CB BKN045 29/27 Q0999 RESHRA WS R10 NOSIG RMK TS NE AND SW-W MOV SW A2952(P)=   \n",
      "'\n",
      "  warnings.warn(message, RuntimeWarning)\n"
     ]
    },
    {
     "name": "stderr",
     "output_type": "stream",
     "text": [
      "/usr/local/lib/python3.6/dist-packages/metar/Metar.py:437: RuntimeWarning: Unparsed groups in body 'WS R10' while processing 'SPECI RCSS 080732Z 03006KT 310V100 1200 R10/1800D +SHRA FEW004 BKN025 BKN035 29/26 Q0993 WS R10 NOSIG RMK A2933(Z)=   \n",
      "'\n",
      "  warnings.warn(message, RuntimeWarning)\n",
      "/usr/local/lib/python3.6/dist-packages/metar/Metar.py:437: RuntimeWarning: Unparsed groups in body 'WS R10' while processing 'SPECI RCSS 080738Z VRB07KT 4000 -SHRA FEW004 BKN025 BKN035 28/26 Q0992 RESHRA WS R10 NOSIG RMK A2932(A)=   \n",
      "'\n",
      "  warnings.warn(message, RuntimeWarning)\n",
      "/usr/local/lib/python3.6/dist-packages/metar/Metar.py:437: RuntimeWarning: Unparsed groups in body 'WS R10' while processing 'SPECI RCSS 080743Z VRB05KT 7000 -SHRA FEW004 BKN025 BKN035 28/26 Q0992 WS R10 NOSIG RMK A2932(B)=   \n",
      "'\n",
      "  warnings.warn(message, RuntimeWarning)\n",
      "/usr/local/lib/python3.6/dist-packages/metar/Metar.py:437: RuntimeWarning: Unparsed groups in body 'WS R28' while processing 'SPECI RCSS 082235Z 28016KT 2000 SHRA FEW005 BKN015 BKN030 28/27 Q0986 WS R28 NOSIG RMK 28015KT/R10 A2913(I)=   \n",
      "'\n",
      "  warnings.warn(message, RuntimeWarning)\n",
      "/usr/local/lib/python3.6/dist-packages/metar/Metar.py:437: RuntimeWarning: Unparsed groups in body 'WS R28' while processing 'SPECI RCSS 082240Z 28018KT 0800 R28/0900D +SHRA SCT005 BKN010 BKN020 28/27 Q0986 WS R28 NOSIG RMK 28017G28KT/R10 A2914(J)=   \n",
      "'\n",
      "  warnings.warn(message, RuntimeWarning)\n",
      "/usr/local/lib/python3.6/dist-packages/metar/Metar.py:437: RuntimeWarning: Unparsed groups in body 'WS R28' while processing 'SPECI RCSS 082243Z 28019KT 0600 R28/0600D +SHRA SCT005 BKN010 BKN020 27/27 Q0986 WS R28 NOSIG RMK 29017G28KT/R10 A2914(K)=   \n",
      "'\n",
      "  warnings.warn(message, RuntimeWarning)\n",
      "/usr/local/lib/python3.6/dist-packages/metar/Metar.py:437: RuntimeWarning: Unparsed groups in body 'WS R28' while processing 'SPECI RCSS 082249Z 29018KT 1500 SHRA FEW005 BKN010 BKN025 27/27 Q0987 WS R28 NOSIG RMK 29015G28KT/R10 A2915(L)=   \n",
      "'\n",
      "  warnings.warn(message, RuntimeWarning)\n",
      "/usr/local/lib/python3.6/dist-packages/metar/Metar.py:437: RuntimeWarning: Unparsed groups in body 'WS R28' while processing 'METAR RCSS 082300Z 30015G27KT 2500 SHRA FEW005 BKN012 BKN025 27/27 Q0987 WS R28 NOSIG RMK 30015G25KT/R10 QFF 987.1HPA A2915 RA AMT 14.4MM(M)=   \n",
      "'\n",
      "  warnings.warn(message, RuntimeWarning)\n",
      "/usr/local/lib/python3.6/dist-packages/metar/Metar.py:437: RuntimeWarning: Unparsed groups in body 'WS R28' while processing 'SPECI RCSS 082310Z 29016KT 260V320 1400 R28/1800U +SHRA FEW003 BKN012 OVC020 27/27 Q0986 WS R28 NOSIG RMK 29017G30KT/R10 A2914(O)=   \n",
      "'\n",
      "  warnings.warn(message, RuntimeWarning)\n",
      "/usr/local/lib/python3.6/dist-packages/metar/Metar.py:437: RuntimeWarning: Unparsed groups in body 'WS R28' while processing 'SPECI RCSS 082317Z 29018G35KT 270V330 3000 1400E -SHRA FEW006 BKN012 OVC030 27/27 Q0987 RESHRA WS R28 NOSIG RMK 30019G30KT/R10 A2915(P)=   \n",
      "'\n",
      "  warnings.warn(message, RuntimeWarning)\n",
      "/usr/local/lib/python3.6/dist-packages/metar/Metar.py:437: RuntimeWarning: Unparsed groups in body 'WS R28' while processing 'SPECI RCSS 082322Z 29019G35KT 270V330 4000 -SHRA FEW008 BKN014 OVC030 27/27 Q0986 RESHRA WS R28 NOSIG RMK 30016G29KT/R10 A2914(Q)=   \n",
      "'\n",
      "  warnings.warn(message, RuntimeWarning)\n",
      "/usr/local/lib/python3.6/dist-packages/metar/Metar.py:437: RuntimeWarning: Unparsed groups in body 'WS R28' while processing 'METAR RCSS 082330Z 29017G29KT 270V330 5000 -SHRA FEW008 BKN016 OVC028 28/27 Q0987 RESHRA WS R28 NOSIG RMK 29013KT/R10 A2915(R)=   \n",
      "'\n",
      "  warnings.warn(message, RuntimeWarning)\n",
      "/usr/local/lib/python3.6/dist-packages/metar/Metar.py:437: RuntimeWarning: Unparsed groups in body 'WS R28' while processing 'METAR RCSS 090000Z 29017G27KT 8000 -SHRA FEW008 BKN016 BKN028 28/27 Q0987 WS R28 NOSIG RMK 29014KT/R10 QFF 987.1HPA A2915 RA AMT 2.0MM(S)=   \n",
      "'\n",
      "  warnings.warn(message, RuntimeWarning)\n",
      "/usr/local/lib/python3.6/dist-packages/metar/Metar.py:437: RuntimeWarning: Unparsed groups in body 'WS R28' while processing 'SPECI RCSS 090022Z 28019KT 6000 -SHRA FEW008 BKN014 BKN025 28/27 Q0986 WS R28 TEMPO 3000 SHRA RMK 27015KT/R10 A2914(U)=   \n",
      "'\n",
      "  warnings.warn(message, RuntimeWarning)\n",
      "/usr/local/lib/python3.6/dist-packages/metar/Metar.py:437: RuntimeWarning: Unparsed groups in body 'WS R28' while processing 'METAR RCSS 090030Z 28021KT 6000 -SHRA FEW006 BKN014 BKN025 28/27 Q0986 WS R28 TEMPO 3000 SHRA RMK 28015KT/R10 A2914(V)=   \n",
      "'\n",
      "  warnings.warn(message, RuntimeWarning)\n",
      "/usr/local/lib/python3.6/dist-packages/metar/Metar.py:437: RuntimeWarning: Unparsed groups in body 'WS R28' while processing 'SPECI RCSS 090041Z 28022KT 4000 SHRA FEW006 BKN012 BKN025 29/27 Q0986 WS R28 TEMPO 3000 SHRA RMK 28016KT/R10 A2914(W)=   \n",
      "'\n",
      "  warnings.warn(message, RuntimeWarning)\n",
      "/usr/local/lib/python3.6/dist-packages/metar/Metar.py:437: RuntimeWarning: Unparsed groups in body 'WS R28' while processing 'SPECI RCSS 090047Z 28023KT 5000 -SHRA FEW006 BKN016 BKN030 29/27 Q0986 RESHRA WS R28 NOSIG RMK 28016KT/R10 A2914(X)=   \n",
      "'\n",
      "  warnings.warn(message, RuntimeWarning)\n",
      "/usr/local/lib/python3.6/dist-packages/metar/Metar.py:437: RuntimeWarning: Unparsed groups in body 'WS R28' while processing 'METAR RCSS 090100Z 29020KT 260V320 7000 -SHRA FEW008 BKN016 BKN030 29/27 Q0986 RESHRA WS R28 NOSIG RMK 28018G29KT/R10 QFF 986.7HPA A2914 RA AMT 0.2MM(Y)=   \n",
      "'\n",
      "  warnings.warn(message, RuntimeWarning)\n",
      "/usr/local/lib/python3.6/dist-packages/metar/Metar.py:437: RuntimeWarning: Unparsed groups in body 'WS R28' while processing 'SPECI RCSS 090120Z 28022KT 4500 SHRA FEW006 BKN016 BKN025 29/27 Q0986 WS R28 NOSIG RMK 28017G28KT/R10 A2914(Z)=   \n",
      "'\n",
      "  warnings.warn(message, RuntimeWarning)\n",
      "/usr/local/lib/python3.6/dist-packages/metar/Metar.py:437: RuntimeWarning: Unparsed groups in body 'WS R28' while processing 'METAR RCSS 090130Z 28018G29KT 250V310 4000 SHRA FEW006 BKN016 BKN025 28/27 Q0987 WS R28 NOSIG RMK 27017KT/R10 A2915(A)=   \n",
      "'\n",
      "  warnings.warn(message, RuntimeWarning)\n",
      "/usr/local/lib/python3.6/dist-packages/metar/Metar.py:437: RuntimeWarning: Unparsed groups in body 'WS R28' while processing 'SPECI RCSS 090131Z 27018KT 250V310 2500 SHRA FEW006 BKN014 BKN025 28/27 Q0987 WS R28 NOSIG RMK 27017KT/R10 A2915(B)=   \n",
      "'\n",
      "  warnings.warn(message, RuntimeWarning)\n",
      "/usr/local/lib/python3.6/dist-packages/metar/Metar.py:437: RuntimeWarning: Unparsed groups in body 'WS R28' while processing 'SPECI RCSS 090140Z 28020G30KT 5000 -SHRA FEW006 BKN016 BKN028 28/27 Q0987 RESHRA WS R28 TEMPO 3000 SHRA RMK 28017KT/R10 A2915(C)=   \n",
      "'\n",
      "  warnings.warn(message, RuntimeWarning)\n",
      "/usr/local/lib/python3.6/dist-packages/metar/Metar.py:437: RuntimeWarning: Unparsed groups in body 'WS R28' while processing 'METAR RCSS 090200Z 28022KT 260V320 6000 -SHRA FEW008 BKN018 OVC025 29/27 Q0986 RESHRA WS R28 NOSIG RMK 28018KT/R10 QFF 986.7HPA A2914 RA AMT 0.4MM(D)=   \n",
      "'\n",
      "  warnings.warn(message, RuntimeWarning)\n",
      "/usr/local/lib/python3.6/dist-packages/metar/Metar.py:437: RuntimeWarning: Unparsed groups in body 'WS R28' while processing 'SPECI RCSS 090205Z 28025G38KT 2500 SHRA FEW006 BKN014 OVC025 29/27 Q0986 WS R28 NOSIG RMK 28019KT/R10 A2914(E)=   \n",
      "'\n",
      "  warnings.warn(message, RuntimeWarning)\n",
      "/usr/local/lib/python3.6/dist-packages/metar/Metar.py:437: RuntimeWarning: Unparsed groups in body 'WS R28' while processing 'SPECI RCSS 090207Z 28025G38KT 1400 R28/1800D SHRA FEW006 BKN010 OVC025 28/27 Q0986 WS R28 TEMPO 3000 RMK 29020G30KT/R10 A2914(F)=   \n",
      "'\n",
      "  warnings.warn(message, RuntimeWarning)\n",
      "/usr/local/lib/python3.6/dist-packages/metar/Metar.py:437: RuntimeWarning: Unparsed groups in body 'WS R28' while processing 'SPECI RCSS 090211Z 28023G38KT 1000 R28/1500D +SHRA FEW004 BKN008 OVC025 28/26 Q0986 WS R28 TEMPO 3000 RMK 29020G30KT/R10 A2914(G)=   \n",
      "'\n",
      "  warnings.warn(message, RuntimeWarning)\n",
      "/usr/local/lib/python3.6/dist-packages/metar/Metar.py:437: RuntimeWarning: Unparsed groups in body 'WS R28' while processing 'SPECI RCSS 090219Z 28023G35KT 1000 R28/1000U +SHRA FEW004 BKN008 OVC025 27/26 Q0986 WS R28 TEMPO 3000 RMK 28017G28KT/R10 A2914(H)=   \n",
      "'\n",
      "  warnings.warn(message, RuntimeWarning)\n",
      "/usr/local/lib/python3.6/dist-packages/metar/Metar.py:437: RuntimeWarning: Unparsed groups in body 'WS R28' while processing 'METAR RCSS 090230Z 28020KT 250V320 4500 R28/1200U -SHRA FEW004 BKN008 OVC020 27/26 Q0986 RESHRA WS R28 NOSIG RMK 28016G26KT/R10 A2914(I)=   \n",
      "'\n",
      "  warnings.warn(message, RuntimeWarning)\n",
      "/usr/local/lib/python3.6/dist-packages/metar/Metar.py:437: RuntimeWarning: Unparsed groups in body 'WS R28' while processing 'SPECI RCSS 090234Z 28018G28KT 260V340 8000 -SHRA FEW004 BKN016 BKN025 27/27 Q0986 WS R28 NOSIG RMK 27017G28KT/R10 A2914(J)=   \n",
      "'\n",
      "  warnings.warn(message, RuntimeWarning)\n",
      "/usr/local/lib/python3.6/dist-packages/metar/Metar.py:437: RuntimeWarning: Unparsed groups in body 'WS R28' while processing 'SPECI RCSS 090244Z 28024G40KT 8000 -SHRA FEW008 BKN016 BKN030 28/27 Q0986 WS R28 NOSIG RMK 28020G32KT/R10 A2914(K)=   \n",
      "'\n",
      "  warnings.warn(message, RuntimeWarning)\n",
      "/usr/local/lib/python3.6/dist-packages/metar/Metar.py:437: RuntimeWarning: Unparsed groups in body 'WS R28' while processing 'SPECI RCSS 090254Z 28023G38KT 5000 -SHRA FEW006 BKN016 BKN028 28/27 Q0987 WS R28 NOSIG RMK 27021KT/R10 A2915(L)=   \n",
      "'\n",
      "  warnings.warn(message, RuntimeWarning)\n",
      "/usr/local/lib/python3.6/dist-packages/metar/Metar.py:437: RuntimeWarning: Unparsed groups in body 'WS R28' while processing 'METAR RCSS 090300Z 28023G37KT 7000 -SHRA FEW008 BKN018 BKN030 28/27 Q0987 WS R28 NOSIG RMK 27020G30KT/R10 QFF 987.1HPA A2915 RA AMT 9.6MM(M)=   \n",
      "'\n",
      "  warnings.warn(message, RuntimeWarning)\n",
      "/usr/local/lib/python3.6/dist-packages/metar/Metar.py:437: RuntimeWarning: Unparsed groups in body 'WS R28' while processing 'METAR RCSS 090330Z 27026G37KT 8000 FEW010 BKN018 BKN030 29/27 Q0986 WS R28 NOSIG RMK 27020KT/R10 A2914(N)=   \n",
      "'\n",
      "  warnings.warn(message, RuntimeWarning)\n",
      "/usr/local/lib/python3.6/dist-packages/metar/Metar.py:437: RuntimeWarning: Unparsed groups in body 'WS R28' while processing 'SPECI RCSS 090350Z 27026G41KT 7000 -SHRA FEW010 BKN018 BKN030 29/27 Q0986 WS R28 NOSIG RMK 27019KT/R10 A2914(O)=   \n",
      "'\n",
      "  warnings.warn(message, RuntimeWarning)\n",
      "/usr/local/lib/python3.6/dist-packages/metar/Metar.py:437: RuntimeWarning: Unparsed groups in body 'WS R28' while processing 'METAR RCSS 090400Z 27023KT 4000 -SHRA FEW008 BKN016 BKN030 29/27 Q0986 WS R28 NOSIG RMK 28018KT/R10 QFF 986.7HPA A2914(P)=   \n",
      "'\n",
      "  warnings.warn(message, RuntimeWarning)\n",
      "/usr/local/lib/python3.6/dist-packages/metar/Metar.py:437: RuntimeWarning: Unparsed groups in body 'WS R28' while processing 'SPECI RCSS 090401Z 27023KT 2500 -SHRA FEW006 BKN014 OVC030 28/27 Q0987 WS R28 NOSIG RMK 28018G29KT/R10 A2915(Q)=   \n",
      "'\n",
      "  warnings.warn(message, RuntimeWarning)\n",
      "/usr/local/lib/python3.6/dist-packages/metar/Metar.py:437: RuntimeWarning: Unparsed groups in body 'WS R28' while processing 'SPECI RCSS 090409Z 27023G33KT 4000 -SHRA FEW008 BKN016 BKN030 28/27 Q0986 WS R28 NOSIG RMK 27018G29KT/R10 A2914(R)=   \n",
      "'\n",
      "  warnings.warn(message, RuntimeWarning)\n",
      "/usr/local/lib/python3.6/dist-packages/metar/Metar.py:437: RuntimeWarning: Unparsed groups in body 'WS R28' while processing 'SPECI RCSS 090412Z 28020G33KT 8000 -SHRA FEW008 BKN016 BKN030 28/27 Q0986 WS R28 NOSIG RMK 28016G27KT/R10 A2914(S)=   \n",
      "'\n",
      "  warnings.warn(message, RuntimeWarning)\n",
      "/usr/local/lib/python3.6/dist-packages/metar/Metar.py:437: RuntimeWarning: Unparsed groups in body 'WS R28' while processing 'SPECI RCSS 090416Z 28017G29KT 4000 2000W -SHRA FEW008 BKN016 BKN030 28/27 Q0987 WS R28 NOSIG RMK 27016G26KT/R10 A2915(T)=   \n",
      "'\n",
      "  warnings.warn(message, RuntimeWarning)\n",
      "/usr/local/lib/python3.6/dist-packages/metar/Metar.py:437: RuntimeWarning: Unparsed groups in body 'WS R28' while processing 'SPECI RCSS 090427Z 27022G32KT 1600 +SHRA FEW006 BKN012 BKN030 28/27 Q0987 WS R28 NOSIG RMK 27020G30KT/R10 A2916(U)=   \n",
      "'\n",
      "  warnings.warn(message, RuntimeWarning)\n",
      "/usr/local/lib/python3.6/dist-packages/metar/Metar.py:437: RuntimeWarning: Unparsed groups in body 'WS R28' while processing 'METAR RCSS 090430Z 27022G32KT 1600 +SHRA FEW006 BKN012 BKN025 28/27 Q0987 WS R28 NOSIG RMK 27020G30KT/R10 A2916(V)=   \n",
      "'\n",
      "  warnings.warn(message, RuntimeWarning)\n",
      "/usr/local/lib/python3.6/dist-packages/metar/Metar.py:437: RuntimeWarning: Unparsed groups in body 'WS R28' while processing 'SPECI RCSS 090434Z 28020KT 5000 2000S -SHRA FEW006 BKN016 BKN030 27/26 Q0987 RESHRA WS R28 NOSIG RMK 27019G31KT/R10 A2916(W)=   \n",
      "'\n",
      "  warnings.warn(message, RuntimeWarning)\n",
      "/usr/local/lib/python3.6/dist-packages/metar/Metar.py:437: RuntimeWarning: Unparsed groups in body 'WS R28' while processing 'METAR RCSS 090500Z 27023G33KT 250V310 9999 -SHRA FEW010 BKN018 BKN030 28/27 Q0987 RESHRA WS R28 NOSIG RMK 27019KT/R10 QFF 987.4HPA A2916 RA AMT 2.6MM(X)=   \n",
      "'\n",
      "  warnings.warn(message, RuntimeWarning)\n",
      "/usr/local/lib/python3.6/dist-packages/metar/Metar.py:437: RuntimeWarning: Unparsed groups in body 'WS R28' while processing 'SPECI RCSS 090502Z 27021G31KT 5000 -SHRA FEW006 BKN018 BKN030 28/27 Q0987 WS R28 NOSIG RMK 27018G28KT/R10 A2916(Z)=   \n",
      "'\n",
      "  warnings.warn(message, RuntimeWarning)\n",
      "/usr/local/lib/python3.6/dist-packages/metar/Metar.py:437: RuntimeWarning: Unparsed groups in body 'WS R28' while processing 'SPECI RCSS 090523Z 25020KT 4000 SHRA FEW006 BKN018 BKN030 28/27 Q0986 WS R28 NOSIG RMK 25018G28KT/R10 A2914(A)=   \n",
      "'\n",
      "  warnings.warn(message, RuntimeWarning)\n",
      "/usr/local/lib/python3.6/dist-packages/metar/Metar.py:437: RuntimeWarning: Unparsed groups in body 'WS R28' while processing 'METAR RCSS 090530Z 25022G35KT 3600 SHRA SCT005 BKN018 BKN035 28/27 Q0986 WS R28 NOSIG RMK 25017KT/R10 A2914(B)=   \n",
      "'\n",
      "  warnings.warn(message, RuntimeWarning)\n",
      "/usr/local/lib/python3.6/dist-packages/metar/Metar.py:437: RuntimeWarning: Unparsed groups in body 'WS R28' while processing 'SPECI RCSS 090540Z 25021G35KT 7000 -SHRA FEW005 BKN018 BKN035 28/27 Q0986 RESHRA WS R28 TEMPO 5000 RMK 25016G27KT/R10 A2914(C)=   \n",
      "'\n",
      "  warnings.warn(message, RuntimeWarning)\n",
      "/usr/local/lib/python3.6/dist-packages/metar/Metar.py:437: RuntimeWarning: Unparsed groups in body 'WS R28' while processing 'SPECI RCSS 090552Z 25022KT 3000 SHRA SCT005 BKN018 BKN032 28/27 Q0986 WS R28 NOSIG RMK 25017KT/R10 A2914(D)=   \n",
      "'\n",
      "  warnings.warn(message, RuntimeWarning)\n",
      "/usr/local/lib/python3.6/dist-packages/metar/Metar.py:437: RuntimeWarning: Unparsed groups in body 'WS R28' while processing 'METAR RCSS 090600Z 26022G34KT 3000 SHRA SCT005 BKN018 BKN032 27/26 Q0986 WS R28 NOSIG RMK 26018G30KT/R10 QFF 986.7HPA A2914 RA AMT 2.6MM(E)=   \n",
      "'\n",
      "  warnings.warn(message, RuntimeWarning)\n",
      "/usr/local/lib/python3.6/dist-packages/metar/Metar.py:437: RuntimeWarning: Unparsed groups in body 'WS R28' while processing 'SPECI RCSS 090615Z 27018KT 3000 SHRA SCT004 BKN012 BKN030 27/26 Q0987 WS R28 NOSIG RMK 27016G26KT/R10 A2915(F)=   \n",
      "'\n",
      "  warnings.warn(message, RuntimeWarning)\n",
      "/usr/local/lib/python3.6/dist-packages/metar/Metar.py:437: RuntimeWarning: Unparsed groups in body 'WS R28' while processing 'METAR RCSS 090630Z 26020KT 8000 -SHRA FEW004 BKN012 BKN030 27/26 Q0987 RESHRA WS R28 NOSIG RMK 26015KT/R10 A2915(G)=   \n",
      "'\n",
      "  warnings.warn(message, RuntimeWarning)\n",
      "/usr/local/lib/python3.6/dist-packages/metar/Metar.py:437: RuntimeWarning: Unparsed groups in body 'WS R28' while processing 'SPECI RCSS 090644Z 25019KT 9999 -SHRA FEW005 SCT015 BKN030 28/26 Q0986 WS R28 NOSIG RMK 25013KT/R10 A2913(H)=   \n",
      "'\n",
      "  warnings.warn(message, RuntimeWarning)\n",
      "/usr/local/lib/python3.6/dist-packages/metar/Metar.py:437: RuntimeWarning: Unparsed groups in body 'WS R28' while processing 'METAR RCSS 090700Z 25022G35KT 9999 -SHRA FEW005 SCT015 BKN030 28/26 Q0985 WS R28 NOSIG RMK 25016G27KT/R10 QFF 985.7HPA A2911 RA AMT 1.8MM(I)=   \n",
      "'\n",
      "  warnings.warn(message, RuntimeWarning)\n",
      "/usr/local/lib/python3.6/dist-packages/metar/Metar.py:437: RuntimeWarning: Unparsed groups in body 'WS R28' while processing 'SPECI RCSS 090750Z 25020KT 9999 -SHRA FEW010 SCT025 BKN060 30/26 Q0984 WS R28 NOSIG RMK 25016KT/R10 A2908(K)=   \n",
      "'\n",
      "  warnings.warn(message, RuntimeWarning)\n",
      "/usr/local/lib/python3.6/dist-packages/metar/Metar.py:437: RuntimeWarning: Unparsed groups in body 'WS R28' while processing 'METAR RCSS 090800Z 25020G35KT 9999 VCSH FEW015 BKN070 30/25 Q0984 WS R28 NOSIG RMK 26016KT/R10 QFF 984.3HPA A2907(L)=   \n",
      "'\n",
      "  warnings.warn(message, RuntimeWarning)\n",
      "/usr/local/lib/python3.6/dist-packages/metar/Metar.py:437: RuntimeWarning: Unparsed groups in body 'WS R28' while processing 'METAR RCSS 090830Z 26023KT 9999 FEW015 BKN080 31/25 Q0984 WS R28 NOSIG RMK 26021KT/R10 A2907(M)=   \n",
      "'\n",
      "  warnings.warn(message, RuntimeWarning)\n",
      "/usr/local/lib/python3.6/dist-packages/metar/Metar.py:437: RuntimeWarning: Unparsed groups in body 'WS R28' while processing 'METAR RCSS 090900Z 27025G36KT 9999 VCSH FEW015 SCT035 BKN070 31/25 Q0984 WS R28 NOSIG RMK 26020G32KT/R10 QFF 984.7HPA A2908(N)=   \n",
      "'\n",
      "  warnings.warn(message, RuntimeWarning)\n",
      "/usr/local/lib/python3.6/dist-packages/metar/Metar.py:437: RuntimeWarning: Unparsed groups in body 'WS R28' while processing 'METAR RCSS 090930Z 25027G37KT 9999 VCSH FEW015 SCT035 BKN070 31/25 Q0984 WS R28 NOSIG RMK 25023G36KT/R10 A2908(O)=   \n",
      "'\n",
      "  warnings.warn(message, RuntimeWarning)\n",
      "/usr/local/lib/python3.6/dist-packages/metar/Metar.py:437: RuntimeWarning: Unparsed groups in body 'WS R28' while processing 'SPECI RCSS 090946Z 26027G39KT 7000 -SHRA FEW006 BKN030 BKN060 31/25 Q0985 WS R28 TEMPO 3000 SHRA RMK 26020KT/R10 A2911(P)=   \n",
      "'\n",
      "  warnings.warn(message, RuntimeWarning)\n",
      "/usr/local/lib/python3.6/dist-packages/metar/Metar.py:437: RuntimeWarning: Unparsed groups in body 'WS R28' while processing 'SPECI RCSS 090954Z 27026G38KT 4000 SHRA SCT006 BKN030 BKN060 29/25 Q0986 WS R28 TEMPO 3000 SHRA RMK 27023G33KT/R10 A2913(Q)=   \n",
      "'\n",
      "  warnings.warn(message, RuntimeWarning)\n",
      "/usr/local/lib/python3.6/dist-packages/metar/Metar.py:437: RuntimeWarning: Unparsed groups in body 'WS R28' while processing 'SPECI RCSS 090956Z 27025G38KT 2500 +SHRA SCT006 BKN030 BKN060 29/25 Q0986 WS R28 NOSIG RMK 27024G41KT/R10 A2913(R)=   \n",
      "'\n",
      "  warnings.warn(message, RuntimeWarning)\n",
      "/usr/local/lib/python3.6/dist-packages/metar/Metar.py:437: RuntimeWarning: Unparsed groups in body 'WS R28' while processing 'METAR RCSS 091000Z 26027G38KT 3600 SHRA SCT006 BKN030 BKN070 28/26 Q0986 WS R28 NOSIG RMK 25025G41KT/R10 QFF 986.4HPA A2913 RA AMT 1.4MM(S)=   \n",
      "'\n",
      "  warnings.warn(message, RuntimeWarning)\n",
      "/usr/local/lib/python3.6/dist-packages/metar/Metar.py:437: RuntimeWarning: Unparsed groups in body 'WS R28' while processing 'SPECI RCSS 091007Z 25027KT 7000 -SHRA FEW008 SCT030 BKN070 28/25 Q0986 RESHRA WS R28 NOSIG RMK 25023G36KT/R10 A2912(T)=   \n",
      "'\n",
      "  warnings.warn(message, RuntimeWarning)\n",
      "/usr/local/lib/python3.6/dist-packages/metar/Metar.py:437: RuntimeWarning: Unparsed groups in body 'WS R28' while processing 'METAR RCSS 091030Z 26025G39KT 9999 FEW010 BKN100 30/25 Q0985 WS R28 NOSIG RMK 25019G32KT/R10 A2910(U)=   \n",
      "'\n",
      "  warnings.warn(message, RuntimeWarning)\n",
      "/usr/local/lib/python3.6/dist-packages/metar/Metar.py:437: RuntimeWarning: Unparsed groups in body 'WS R28' while processing 'METAR RCSS 091100Z 26026G38KT 9999 FEW010 SCT080 BKN200 30/25 Q0986 WS R28 NOSIG RMK 26023G34KT/R10 QFF 986.0HPA A2912 RA AMT 0.2MM(V)=   \n",
      "'\n",
      "  warnings.warn(message, RuntimeWarning)\n",
      "/usr/local/lib/python3.6/dist-packages/metar/Metar.py:437: RuntimeWarning: Unparsed groups in body 'WS R28' while processing 'METAR RCSS 091130Z 26026G40KT 9999 FEW025 31/25 Q0986 WS R28 NOSIG RMK 25021G32KT/R10 A2914(W)=   \n",
      "'\n",
      "  warnings.warn(message, RuntimeWarning)\n",
      "/usr/local/lib/python3.6/dist-packages/metar/Metar.py:437: RuntimeWarning: Unparsed groups in body 'WS R28' while processing 'METAR RCSS 091200Z 26020G36KT 9999 FEW025 31/25 Q0987 WS R28 NOSIG RMK 26019KT/R10 QFF 987.1HPA A2915(X)=   \n",
      "'\n",
      "  warnings.warn(message, RuntimeWarning)\n",
      "/usr/local/lib/python3.6/dist-packages/metar/Metar.py:437: RuntimeWarning: Unparsed groups in body 'WS R28' while processing 'METAR RCSS 091230Z 26023KT 9999 FEW025 31/25 Q0987 WS R28 NOSIG RMK 26018KT/R10 A2916(Y)=   \n",
      "'\n",
      "  warnings.warn(message, RuntimeWarning)\n",
      "/usr/local/lib/python3.6/dist-packages/metar/Metar.py:437: RuntimeWarning: Unparsed groups in body 'WS R28' while processing 'METAR RCSS 091300Z 26019G29KT 9999 FEW025 32/25 Q0987 WS R28 NOSIG RMK 25016G27KT/R10 QFF 987.7HPA A2917(Z)=   \n",
      "'\n",
      "  warnings.warn(message, RuntimeWarning)\n",
      "/usr/local/lib/python3.6/dist-packages/metar/Metar.py:437: RuntimeWarning: Unparsed groups in body 'WS R28' while processing 'METAR RCSS 091330Z 25018G28KT 9999 FEW025 32/25 Q0988 WS R28 NOSIG RMK 26013G23KT/R10 A2918(A)=   \n",
      "'\n",
      "  warnings.warn(message, RuntimeWarning)\n",
      "/usr/local/lib/python3.6/dist-packages/metar/Metar.py:437: RuntimeWarning: Unparsed groups in body 'WS R28' while processing 'METAR RCSS 091400Z 26015G27KT 9999 FEW025 SCT100 33/25 Q0988 WS R28 NOSIG RMK 26010KT/R10 A2918(B)=   \n",
      "'\n",
      "  warnings.warn(message, RuntimeWarning)\n",
      "/usr/local/lib/python3.6/dist-packages/metar/Metar.py:437: RuntimeWarning: Unparsed groups in body 'WS R28' while processing 'METAR RCSS 091430Z 27015KT 9999 FEW025 BKN100 33/25 Q0988 WS R28 NOSIG RMK 27012G22KT/R10 A2919(C)=   \n",
      "'\n",
      "  warnings.warn(message, RuntimeWarning)\n",
      "/usr/local/lib/python3.6/dist-packages/metar/Metar.py:437: RuntimeWarning: Unparsed groups in body 'WS R28' while processing 'METAR RCSS 091530Z 26016G26KT 9999 FEW025 SCT100 33/25 Q0988 WS R28 NOSIG RMK 26014KT/R10 A2919(E)=   \n",
      "'\n",
      "  warnings.warn(message, RuntimeWarning)\n",
      "/usr/local/lib/python3.6/dist-packages/metar/Metar.py:437: RuntimeWarning: Unparsed groups in body 'WS R28' while processing 'METAR RCSS 091600Z 26016KT 9999 FEW025 SCT100 32/25 Q0988 WS R28 NOSIG RMK 26016KT/R10 A2920(F)=   \n",
      "'\n",
      "  warnings.warn(message, RuntimeWarning)\n",
      "/usr/local/lib/python3.6/dist-packages/metar/Metar.py:437: RuntimeWarning: Unparsed groups in body 'WS R28' while processing 'METAR RCSS 091700Z 25022G33KT 220V280 9999 FEW020 BKN040 32/26 Q0988 WS R28 NOSIG RMK 26018G32KT/R10 A2920(G)=   \n",
      "'\n",
      "  warnings.warn(message, RuntimeWarning)\n",
      "/usr/local/lib/python3.6/dist-packages/metar/Metar.py:437: RuntimeWarning: Unparsed groups in body 'WS R28' while processing 'METAR RCSS 091800Z 27008KT 9999 FEW020 BKN090 29/27 Q0989 WS R28 NOSIG RMK 28007KT/R10 A2921(H)=   \n",
      "'\n",
      "  warnings.warn(message, RuntimeWarning)\n",
      "/usr/local/lib/python3.6/dist-packages/metar/Metar.py:437: RuntimeWarning: Unparsed groups in body 'WS R28' while processing 'METAR RCSS 091900Z 28013G24KT 9999 FEW020 BKN090 31/27 Q0988 WS R28 NOSIG RMK 28011KT/R10 A2920(I)=   \n",
      "'\n",
      "  warnings.warn(message, RuntimeWarning)\n",
      "/usr/local/lib/python3.6/dist-packages/metar/Metar.py:437: RuntimeWarning: Unparsed groups in body 'WS R28' while processing 'SPECI RCSS 092054Z 26020KT 9999 FEW020 BKN090 32/27 Q0989 WS R28 NOSIG RMK 26015G26KT/R10 A2921(K)=   \n",
      "'\n",
      "  warnings.warn(message, RuntimeWarning)\n",
      "/usr/local/lib/python3.6/dist-packages/metar/Metar.py:437: RuntimeWarning: Unparsed groups in body 'WS R28' while processing 'METAR RCSS 092100Z 26020G30KT 9999 FEW020 BKN150 32/27 Q0989 WS R28 NOSIG RMK 26015G26KT/R10 A2921(L)=   \n",
      "'\n",
      "  warnings.warn(message, RuntimeWarning)\n",
      "/usr/local/lib/python3.6/dist-packages/metar/Metar.py:437: RuntimeWarning: Unparsed groups in body 'WS R28' while processing 'METAR RCSS 092200Z 26020G37KT 9999 FEW020 BKN120 32/26 Q0989 WS R28 NOSIG RMK 27017G28KT/R10 A2921(M)=   \n",
      "'\n",
      "  warnings.warn(message, RuntimeWarning)\n",
      "/usr/local/lib/python3.6/dist-packages/metar/Metar.py:437: RuntimeWarning: Unparsed groups in body 'WS R28' while processing 'METAR RCSS 092230Z 27018KT 9999 FEW020 BKN100 32/26 Q0990 WS R28 NOSIG RMK 27014G24KT/R10 A2924(N)=   \n",
      "'\n",
      "  warnings.warn(message, RuntimeWarning)\n",
      "/usr/local/lib/python3.6/dist-packages/metar/Metar.py:437: RuntimeWarning: Unparsed groups in body 'WS R28' while processing 'METAR RCSS 092300Z 27019KT 9999 FEW020 BKN100 BKN150 32/26 Q0990 WS R28 NOSIG RMK 27015KT/R10 A2926(O)=   \n",
      "'\n",
      "  warnings.warn(message, RuntimeWarning)\n",
      "/usr/local/lib/python3.6/dist-packages/metar/Metar.py:437: RuntimeWarning: Unparsed groups in body 'WS R28' while processing 'METAR RCSS 092330Z 25017G27KT 9999 FEW020 SCT100 BKN150 32/27 Q0991 WS R28 NOSIG RMK 26014KT/R10 A2927(P)=   \n",
      "'\n",
      "  warnings.warn(message, RuntimeWarning)\n",
      "/usr/local/lib/python3.6/dist-packages/metar/Metar.py:437: RuntimeWarning: Unparsed groups in body 'WS R28' while processing 'METAR RCSS 100000Z 25013KT 230V300 9999 FEW025 SCT100 BKN150 33/27 Q0991 WS R28 NOSIG RMK 25013KT/R10 A2927(Q)=   \n",
      "'\n",
      "  warnings.warn(message, RuntimeWarning)\n",
      "/usr/local/lib/python3.6/dist-packages/metar/Metar.py:437: RuntimeWarning: Unparsed groups in body 'WS R28' while processing 'SPECI RCSS 100308Z 26014G24KT 9999 FEW025 SCT120 BKN200 35/27 Q0992 WS R28 NOSIG RMK 27012KT/R10 A2930(X)=   \n",
      "'\n",
      "  warnings.warn(message, RuntimeWarning)\n",
      "/usr/local/lib/python3.6/dist-packages/metar/Metar.py:437: RuntimeWarning: Unparsed groups in body 'WS R28' while processing 'METAR RCSS 100330Z 25017KT 230V290 9999 FEW025 SCT120 BKN200 36/26 Q0992 WS R28 NOSIG RMK 25014KT/R10 A2930(Y)=   \n",
      "'\n",
      "  warnings.warn(message, RuntimeWarning)\n",
      "/usr/local/lib/python3.6/dist-packages/metar/Metar.py:437: RuntimeWarning: Unparsed groups in body 'WS R28' while processing 'METAR RCSS 100400Z 25017KT 230V290 9999 FEW025 BKN200 37/27 Q0991 WS R28 NOSIG RMK 26013KT/R10 A2929(Z)=   \n",
      "'\n",
      "  warnings.warn(message, RuntimeWarning)\n",
      "/usr/local/lib/python3.6/dist-packages/metar/Metar.py:437: RuntimeWarning: Unparsed groups in body 'WS R28' while processing 'SPECI RCSS 100409Z 25015G26KT 210V290 9999 FEW025 BKN200 37/27 Q0991 WS R28 NOSIG RMK 27013G24KT/R10 A2929(B)=   \n",
      "'\n",
      "  warnings.warn(message, RuntimeWarning)\n",
      "/usr/local/lib/python3.6/dist-packages/metar/Metar.py:437: RuntimeWarning: Unparsed groups in body 'WS R28' while processing 'METAR RCSS 100430Z 25016KT 220V280 9999 FEW025 BKN200 38/26 Q0991 WS R28 NOSIG RMK 26015KT/R10 A2929(C)=   \n",
      "'\n",
      "  warnings.warn(message, RuntimeWarning)\n",
      "/usr/local/lib/python3.6/dist-packages/metar/Metar.py:437: RuntimeWarning: Unparsed groups in body 'WS R28' while processing 'METAR RCSS 100500Z 27022G32KT 9999 FEW025 BKN200 37/26 Q0991 WS R28 NOSIG RMK 26018G28KT/R10 A2927(D)=   \n",
      "'\n",
      "  warnings.warn(message, RuntimeWarning)\n",
      "/usr/local/lib/python3.6/dist-packages/metar/Metar.py:437: RuntimeWarning: Unparsed groups in body 'WS R28' while processing 'METAR RCSS 100530Z 26016G33KT 9999 FEW025 BKN200 37/26 Q0991 WS R28 NOSIG RMK 26014KT/R10 A2927(E)=   \n",
      "'\n",
      "  warnings.warn(message, RuntimeWarning)\n",
      "/usr/local/lib/python3.6/dist-packages/metar/Metar.py:437: RuntimeWarning: Unparsed groups in body 'WS R28' while processing 'SPECI RCSS 100554Z 26015KT 230V290 9999 FEW025 BKN200 38/27 Q0991 WS R28 NOSIG RMK 26016G28KT/R10 A2927(F)=   \n",
      "'\n",
      "  warnings.warn(message, RuntimeWarning)\n",
      "/usr/local/lib/python3.6/dist-packages/metar/Metar.py:437: RuntimeWarning: Unparsed groups in body 'WS R28' while processing 'METAR RCSS 100600Z 25017G29KT 9999 FEW025 BKN200 38/26 Q0991 WS R28 NOSIG RMK 27015G28KT/R10 A2927(G)=   \n",
      "'\n",
      "  warnings.warn(message, RuntimeWarning)\n",
      "/usr/local/lib/python3.6/dist-packages/metar/Metar.py:437: RuntimeWarning: Unparsed groups in body 'WS R28' while processing 'METAR RCSS 100630Z 26019KT 230V290 9999 FEW025 BKN250 38/26 Q0991 WS R28 NOSIG RMK 26018KT/R10 A2927(H)=   \n",
      "'\n",
      "  warnings.warn(message, RuntimeWarning)\n",
      "/usr/local/lib/python3.6/dist-packages/metar/Metar.py:437: RuntimeWarning: Unparsed groups in body 'WS R28' while processing 'METAR RCSS 100700Z 27021KT 9999 FEW025 BKN250 37/26 Q0991 WS R28 NOSIG RMK 26018G28KT/R10 A2927(I)=   \n",
      "'\n",
      "  warnings.warn(message, RuntimeWarning)\n",
      "/usr/local/lib/python3.6/dist-packages/metar/Metar.py:437: RuntimeWarning: Unparsed groups in body 'WS R28' while processing 'METAR RCSS 100730Z 27020G30KT 9999 FEW025 SCT250 38/25 Q0991 WS R28 NOSIG RMK 26018G29KT/R10 A2927(J)=   \n",
      "'\n",
      "  warnings.warn(message, RuntimeWarning)\n",
      "/usr/local/lib/python3.6/dist-packages/metar/Metar.py:437: RuntimeWarning: Unparsed groups in body 'WS R28' while processing 'METAR RCSS 100800Z 26020KT 9999 FEW025 SCT250 37/25 Q0991 WS R28 NOSIG RMK 27018KT/R10 A2927(K)=   \n",
      "'\n",
      "  warnings.warn(message, RuntimeWarning)\n",
      "/usr/local/lib/python3.6/dist-packages/metar/Metar.py:437: RuntimeWarning: Unparsed groups in body 'WS R28' while processing 'METAR RCSS 100830Z 26017KT 9999 FEW025 SCT200 37/25 Q0991 WS R28 NOSIG RMK 26014G24KT/R10 A2929(L)=   \n",
      "'\n",
      "  warnings.warn(message, RuntimeWarning)\n",
      "/usr/local/lib/python3.6/dist-packages/metar/Metar.py:437: RuntimeWarning: Unparsed groups in body 'WS R28' while processing 'METAR RCSS 100900Z 27019KT 9999 FEW025 BKN250 36/27 Q0992 WS R28 NOSIG RMK 27013G23KT/R10 A2931(M)=   \n",
      "'\n",
      "  warnings.warn(message, RuntimeWarning)\n",
      "/usr/local/lib/python3.6/dist-packages/metar/Metar.py:437: RuntimeWarning: Unparsed groups in body 'WS R28' while processing 'SPECI RCSS 100919Z 26018KT 9999 FEW025 BKN250 35/26 Q0992 WS R28 NOSIG RMK 26013KT/R10 A2932(O)=   \n",
      "'\n",
      "  warnings.warn(message, RuntimeWarning)\n",
      "/usr/local/lib/python3.6/dist-packages/metar/Metar.py:437: RuntimeWarning: Unparsed groups in body 'WS R28' while processing 'METAR RCSS 100930Z 26020KT 9999 FEW028 BKN250 35/26 Q0992 WS R28 NOSIG RMK 27014G26KT/R10 A2932(P)=   \n",
      "'\n",
      "  warnings.warn(message, RuntimeWarning)\n",
      "/usr/local/lib/python3.6/dist-packages/metar/Metar.py:437: RuntimeWarning: Unparsed groups in body 'WS R28' while processing 'SPECI RCSS 100953Z 25017KT 9999 FEW028 BKN250 34/26 Q0992 WS R28 NOSIG RMK 25013KT/R10 A2932(R)=   \n",
      "'\n",
      "  warnings.warn(message, RuntimeWarning)\n",
      "/usr/local/lib/python3.6/dist-packages/metar/Metar.py:437: RuntimeWarning: Unparsed groups in body 'WS R28' while processing 'METAR RCSS 101000Z 25017KT 9999 FEW028 BKN250 34/26 Q0992 WS R28 NOSIG RMK 25014KT/R10 A2932(S)=   \n",
      "'\n",
      "  warnings.warn(message, RuntimeWarning)\n",
      "/usr/local/lib/python3.6/dist-packages/metar/Metar.py:437: RuntimeWarning: Unparsed groups in body 'WS R28' while processing 'METAR RCSS 101030Z 25018KT 220V280 9999 FEW028 BKN250 34/26 Q0993 WS R28 NOSIG RMK 25015KT/R10 A2934(T)=   \n",
      "'\n",
      "  warnings.warn(message, RuntimeWarning)\n",
      "/usr/local/lib/python3.6/dist-packages/metar/Metar.py:437: RuntimeWarning: Unparsed groups in body 'WS R28' while processing 'SPECI RCSS 102328Z 27015KT 9999 FEW025 BKN200 31/26 Q0999 WS R28 NOSIG RMK 26011KT/R10 A2950(Q)=   \n",
      "'\n",
      "  warnings.warn(message, RuntimeWarning)\n",
      "/usr/local/lib/python3.6/dist-packages/metar/Metar.py:437: RuntimeWarning: Unparsed groups in body 'WS R28' while processing 'METAR RCSS 102330Z 27016KT 9999 FEW025 BKN200 31/26 Q0999 WS R28 NOSIG RMK 26011KT/R10 A2950(R)=   \n",
      "'\n",
      "  warnings.warn(message, RuntimeWarning)\n",
      "/usr/local/lib/python3.6/dist-packages/metar/Metar.py:437: RuntimeWarning: Unparsed groups in body 'WS R28' while processing 'SPECI RCSS 110133Z 27016G26KT 9999 FEW025 BKN220 35/28 Q0999 WS R28 NOSIG RMK 25013G23KT/R10 A2950(W)=   \n",
      "'\n",
      "  warnings.warn(message, RuntimeWarning)\n",
      "/usr/local/lib/python3.6/dist-packages/metar/Metar.py:437: RuntimeWarning: Unparsed groups in body 'WS R28' while processing 'METAR RCSS 110200Z 27016KT 9999 FEW025 BKN250 35/28 Q0998 WS R28 NOSIG RMK 26014KT/R10 A2949(X)=   \n",
      "'\n",
      "  warnings.warn(message, RuntimeWarning)\n",
      "/usr/local/lib/python3.6/dist-packages/metar/Metar.py:437: RuntimeWarning: Unparsed groups in body 'WS R28' while processing 'METAR RCSS 110230Z 26015KT 9999 FEW025 BKN220 36/27 Q0998 WS R28 NOSIG RMK 27015KT/R10 A2949(Y)=   \n",
      "'\n",
      "  warnings.warn(message, RuntimeWarning)\n",
      "/usr/local/lib/python3.6/dist-packages/metar/Metar.py:437: RuntimeWarning: Unparsed groups in body 'WS R28' while processing 'METAR RCSS 110300Z 27016G26KT 230V290 9999 FEW025 SCT250 36/28 Q0998 WS R28 NOSIG RMK 24013KT/R10 A2948(Z)=   \n",
      "'\n",
      "  warnings.warn(message, RuntimeWarning)\n",
      "/usr/local/lib/python3.6/dist-packages/metar/Metar.py:437: RuntimeWarning: Unparsed groups in body 'WS R28' while processing 'METAR RCSS 110330Z 26019G29KT 9999 FEW025 SCT050 36/27 Q0998 WS R28 NOSIG RMK 25015G27KT/R10 A2949(A)=   \n",
      "'\n",
      "  warnings.warn(message, RuntimeWarning)\n",
      "/usr/local/lib/python3.6/dist-packages/metar/Metar.py:437: RuntimeWarning: Unparsed groups in body 'WS R28' while processing 'METAR RCSS 110400Z 28020G31KT 9999 FEW025 SCT040 36/28 Q0998 WS R28 NOSIG RMK 26017KT/R10 A2948(B)=   \n",
      "'\n",
      "  warnings.warn(message, RuntimeWarning)\n",
      "/usr/local/lib/python3.6/dist-packages/metar/Metar.py:437: RuntimeWarning: Unparsed groups in body 'WS R28' while processing 'METAR RCSS 110430Z 27021KT 9999 FEW025 SCT040 36/27 Q0998 WS R28 NOSIG RMK 26018G30KT/R10 A2948(C)=   \n",
      "'\n",
      "  warnings.warn(message, RuntimeWarning)\n",
      "/usr/local/lib/python3.6/dist-packages/metar/Metar.py:437: RuntimeWarning: Unparsed groups in body 'WS R28' while processing 'METAR RCSS 110500Z 27018G28KT 9999 FEW025 35/28 Q0998 WS R28 NOSIG RMK 27018G30KT/R10 A2947(D)=   \n",
      "'\n",
      "  warnings.warn(message, RuntimeWarning)\n",
      "/usr/local/lib/python3.6/dist-packages/metar/Metar.py:437: RuntimeWarning: Unparsed groups in body 'WS R28' while processing 'SPECI RCSS 110557Z 26020KT 9999 FEW025 36/27 Q0997 WS R28 NOSIG RMK 27020KT/R10 A2946(G)=   \n",
      "'\n",
      "  warnings.warn(message, RuntimeWarning)\n",
      "/usr/local/lib/python3.6/dist-packages/metar/Metar.py:437: RuntimeWarning: Unparsed groups in body 'WS R28' while processing 'METAR RCSS 110600Z 26019KT 9999 FEW025 36/28 Q0997 WS R28 NOSIG RMK 26019KT/R10 A2946(H)=   \n",
      "'\n",
      "  warnings.warn(message, RuntimeWarning)\n",
      "/usr/local/lib/python3.6/dist-packages/metar/Metar.py:437: RuntimeWarning: Unparsed groups in body 'WS R28' while processing 'METAR RCSS 110630Z 25018KT 9999 FEW025 36/27 Q0997 WS R28 NOSIG RMK 23012KT/R10 A2945(I)=   \n",
      "'\n",
      "  warnings.warn(message, RuntimeWarning)\n",
      "/usr/local/lib/python3.6/dist-packages/metar/Metar.py:437: RuntimeWarning: Unparsed groups in body 'WS R28' while processing 'SPECI RCSS 110651Z 26016G26KT 240V310 9999 FEW025 36/27 Q0997 WS R28 NOSIG RMK 27015KT/R10 A2945(K)=   \n",
      "'\n",
      "  warnings.warn(message, RuntimeWarning)\n",
      "/usr/local/lib/python3.6/dist-packages/metar/Metar.py:437: RuntimeWarning: Unparsed groups in body 'WS R28' while processing 'METAR RCSS 110700Z 23015KT 9999 FEW030 36/27 Q0997 WS R28 NOSIG RMK 27016KT/R10 A2945(L)=   \n",
      "'\n",
      "  warnings.warn(message, RuntimeWarning)\n",
      "/usr/local/lib/python3.6/dist-packages/metar/Metar.py:437: RuntimeWarning: Unparsed groups in body 'WS R28' while processing 'METAR RCSS 110730Z 27018KT 9999 FEW030 36/27 Q0997 WS R28 NOSIG RMK 26016KT/R10 A2945(M)=   \n",
      "'\n",
      "  warnings.warn(message, RuntimeWarning)\n",
      "/usr/local/lib/python3.6/dist-packages/metar/Metar.py:437: RuntimeWarning: Unparsed groups in body 'WS R28' while processing 'METAR RCSS 110800Z 27020G30KT 9999 FEW030 35/27 Q0997 WS R28 NOSIG RMK 26016KT/R10 A2945(N)=   \n",
      "'\n",
      "  warnings.warn(message, RuntimeWarning)\n",
      "/usr/local/lib/python3.6/dist-packages/metar/Metar.py:437: RuntimeWarning: Unparsed groups in body 'WS R28' while processing 'SPECI RCSS 110844Z 27015KT 9999 FEW030 35/27 Q0998 WS R28 NOSIG RMK 26013KT/R10 A2947(P)=   \n",
      "'\n",
      "  warnings.warn(message, RuntimeWarning)\n",
      "/usr/local/lib/python3.6/dist-packages/metar/Metar.py:437: RuntimeWarning: Unparsed groups in body 'WS R28' while processing 'METAR RCSS 110900Z 26017KT 9999 FEW030 35/27 Q0998 WS R28 NOSIG RMK 26012KT/R10 A2947(Q)=   \n",
      "'\n",
      "  warnings.warn(message, RuntimeWarning)\n",
      "/usr/local/lib/python3.6/dist-packages/metar/Metar.py:437: RuntimeWarning: Unparsed groups in body 'WS R28' while processing 'SPECI RCSS 120531Z 27018KT 9999 FEW025 FEW028TCU SCT045 BKN090 34/26 Q1000 WS R28 NOSIG RMK 27016KT/R10 TCU S A2955(F)=   \n",
      "'\n",
      "  warnings.warn(message, RuntimeWarning)\n",
      "/usr/local/lib/python3.6/dist-packages/metar/Metar.py:437: RuntimeWarning: Unparsed groups in body 'WS R28' while processing 'SPECI RCSS 120555Z 28015KT 9999 -SHRA FEW025 FEW028TCU SCT045 BKN090 31/25 Q1001 WS R28 NOSIG RMK 28015KT/R10 TCU S A2957(G)=   \n",
      "'\n",
      "  warnings.warn(message, RuntimeWarning)\n",
      "/usr/local/lib/python3.6/dist-packages/metar/Metar.py:437: RuntimeWarning: Unparsed groups in body 'WS R28' while processing 'METAR RCSS 120600Z 28014KT 9999 -SHRA FEW022 FEW028TCU SCT045 BKN100 31/26 Q1001 WS R28 NOSIG RMK 28013KT/R10 TCU S A2957(H)=   \n",
      "'\n",
      "  warnings.warn(message, RuntimeWarning)\n",
      "/usr/local/lib/python3.6/dist-packages/metar/Metar.py:437: RuntimeWarning: Unparsed groups in body 'WS R28' while processing 'SPECI RCSS 150248Z 23012G23KT 9999 FEW025 SCT200 35/26 Q1000 WS R28 NOSIG RMK 25013KT/R10 A2954(H)=   \n",
      "'\n",
      "  warnings.warn(message, RuntimeWarning)\n",
      "/usr/local/lib/python3.6/dist-packages/metar/Metar.py:437: RuntimeWarning: Unparsed groups in body 'WS R28' while processing 'METAR RCSS 150300Z 26018KT 9999 VCSH FEW020 FEW025TCU SCT042 BKN090 34/25 Q1000 WS R28 NOSIG RMK 24013KT/R10 TCU SW A2954(I)=   \n",
      "'\n",
      "  warnings.warn(message, RuntimeWarning)\n",
      "/usr/local/lib/python3.6/dist-packages/metar/Metar.py:437: RuntimeWarning: Unparsed groups in body 'WS R28' while processing 'SPECI RCSS 150318Z 27015KT 9000 -SHRA FEW020 FEW025TCU SCT042 BKN090 33/26 Q1000 WS R28 NOSIG RMK 26013KT/R10 TCU SW A2954(K)=   \n",
      "'\n",
      "  warnings.warn(message, RuntimeWarning)\n",
      "/usr/local/lib/python3.6/dist-packages/metar/Metar.py:437: RuntimeWarning: Unparsed groups in body 'WS R28' while processing 'SPECI RCSS 150642Z 28016KT 250V310 9999 FEW020 SCT045 BKN160 34/25 Q0999 WS R28 NOSIG RMK 28014KT/R10 A2950(W)=   \n",
      "'\n",
      "  warnings.warn(message, RuntimeWarning)\n",
      "/usr/local/lib/python3.6/dist-packages/metar/Metar.py:437: RuntimeWarning: Unparsed groups in body 'WS R28' while processing 'METAR RCSS 150700Z 26014G24KT 9999 FEW020 SCT080 BKN160 34/25 Q0998 WS R28 NOSIG RMK 26015KT/R10 A2949(X)=   \n",
      "'\n",
      "  warnings.warn(message, RuntimeWarning)\n",
      "/usr/local/lib/python3.6/dist-packages/metar/Metar.py:437: RuntimeWarning: Unparsed groups in body 'WS R28' while processing 'METAR RCSS 150730Z 28009KT 250V320 9999 FEW020 SCT070 BKN180 34/26 Q0998 WS R28 NOSIG RMK 26008KT/R10 A2949(Y)=   \n",
      "'\n",
      "  warnings.warn(message, RuntimeWarning)\n",
      "/usr/local/lib/python3.6/dist-packages/metar/Metar.py:437: RuntimeWarning: Unparsed groups in body 'WS R28' while processing 'SPECI RCSS 160253Z 26013KT 9999 FEW020 SCT060 BKN120 34/26 Q1002 WS R28 NOSIG RMK 25012KT/R10 A2960(J)=   \n",
      "'\n",
      "  warnings.warn(message, RuntimeWarning)\n",
      "/usr/local/lib/python3.6/dist-packages/metar/Metar.py:437: RuntimeWarning: Unparsed groups in body 'WS R28' while processing 'METAR RCSS 160300Z 25013KT 210V280 9999 FEW020 SCT060 BKN120 34/25 Q1002 WS R28 NOSIG RMK 26013KT/R10 A2960(K)=   \n",
      "'\n",
      "  warnings.warn(message, RuntimeWarning)\n",
      "/usr/local/lib/python3.6/dist-packages/metar/Metar.py:437: RuntimeWarning: Unparsed groups in body 'WS R28' while processing 'SPECI RCSS 170240Z 26018KT 9999 FEW020 SCT250 35/25 Q1004 WS R28 NOSIG RMK 27013KT/R10 A2966(C)=   \n",
      "'\n",
      "  warnings.warn(message, RuntimeWarning)\n",
      "/usr/local/lib/python3.6/dist-packages/metar/Metar.py:437: RuntimeWarning: Unparsed groups in body 'WS R28' while processing 'METAR RCSS 170300Z 26016G27KT 230V290 9999 FEW025 SCT220 36/26 Q1004 WS R28 NOSIG RMK 26014KT/R10 A2966(D)=   \n",
      "'\n",
      "  warnings.warn(message, RuntimeWarning)\n",
      "/usr/local/lib/python3.6/dist-packages/metar/Metar.py:437: RuntimeWarning: Unparsed groups in body 'WS R28' while processing 'SPECI RCSS 170314Z 28016KT 9999 FEW025 SCT220 36/26 Q1004 WS R28 NOSIG RMK 26013KT/R10 A2965(F)=   \n",
      "'\n",
      "  warnings.warn(message, RuntimeWarning)\n",
      "/usr/local/lib/python3.6/dist-packages/metar/Metar.py:437: RuntimeWarning: Unparsed groups in body 'WS R28' while processing 'METAR RCSS 170330Z 28015KT 9999 FEW025 37/26 Q1004 WS R28 NOSIG RMK 27011KT/R10 A2965(G)=   \n",
      "'\n",
      "  warnings.warn(message, RuntimeWarning)\n",
      "/usr/local/lib/python3.6/dist-packages/metar/Metar.py:437: RuntimeWarning: Unparsed groups in body 'WS R28' while processing 'SPECI RCSS 170343Z 28015KT 9999 FEW025 37/26 Q1003 WS R28 NOSIG RMK 28014KT/R10 A2964(I)=   \n",
      "'\n",
      "  warnings.warn(message, RuntimeWarning)\n",
      "/usr/local/lib/python3.6/dist-packages/metar/Metar.py:437: RuntimeWarning: Unparsed groups in body 'WS R28' while processing 'METAR RCSS 170400Z 27016G26KT 9999 FEW025 37/26 Q1003 WS R28 NOSIG RMK 28011KT/R10 A2963(J)=   \n",
      "'\n",
      "  warnings.warn(message, RuntimeWarning)\n",
      "/usr/local/lib/python3.6/dist-packages/metar/Metar.py:437: RuntimeWarning: Unparsed groups in body 'WS R28' while processing 'SPECI RCSS 170427Z 27020KT 9999 FEW025 37/26 Q1003 WS R28 NOSIG RMK 27015KT/R10 A2963(L)=   \n",
      "'\n",
      "  warnings.warn(message, RuntimeWarning)\n",
      "/usr/local/lib/python3.6/dist-packages/metar/Metar.py:437: RuntimeWarning: Unparsed groups in body 'WS R28' while processing 'METAR RCSS 170430Z 27020KT 9999 FEW025 37/26 Q1003 WS R28 NOSIG RMK 27015KT/R10 A2963(M)=   \n",
      "'\n",
      "  warnings.warn(message, RuntimeWarning)\n",
      "/usr/local/lib/python3.6/dist-packages/metar/Metar.py:437: RuntimeWarning: Unparsed groups in body 'WS R10' while processing 'METAR RCSS 171100Z VRB06KT 9999 FEW020 SCT045 33/24 Q1004 WS R10 NOSIG RMK A2965(A)=   \n",
      "'\n",
      "  warnings.warn(message, RuntimeWarning)\n",
      "/usr/local/lib/python3.6/dist-packages/metar/Metar.py:437: RuntimeWarning: Unparsed groups in body 'WS R28' while processing 'SPECI RCSS 180408Z 31009KT 280V040 9999 FEW020 BKN035 BKN160 34/26 Q1004 WS R28 NOSIG RMK 31008KT/R10 A2967(F)=   \n",
      "'\n",
      "  warnings.warn(message, RuntimeWarning)\n",
      "/usr/local/lib/python3.6/dist-packages/metar/Metar.py:437: RuntimeWarning: Unparsed groups in body 'WS R28' while processing 'SPECI RCSS 180416Z 33008KT 290V020 9999 -SHRA FEW020 BKN035 BKN160 33/26 Q1004 WS R28 NOSIG RMK 31008G19KT/R10 A2966(G)=   \n",
      "'\n",
      "  warnings.warn(message, RuntimeWarning)\n",
      "/usr/local/lib/python3.6/dist-packages/metar/Metar.py:437: RuntimeWarning: Unparsed groups in body 'WS R28' while processing 'METAR RCSS 180430Z 33007KT 280V030 9000 -SHRA FEW010 BKN035 BKN050 33/26 Q1004 WS R28 NOSIG RMK 31008KT/R10 A2966(H)=   \n",
      "'\n",
      "  warnings.warn(message, RuntimeWarning)\n",
      "/usr/local/lib/python3.6/dist-packages/metar/Metar.py:437: RuntimeWarning: Unparsed groups in body 'WS R10' while processing 'SPECI RCSS 180442Z VRB05KT 9000 4000SE -SHRA FEW010 BKN035 BKN050 32/26 Q1004 WS R10 NOSIG RMK A2966(I)=   \n",
      "'\n",
      "  warnings.warn(message, RuntimeWarning)\n",
      "/usr/local/lib/python3.6/dist-packages/metar/Metar.py:437: RuntimeWarning: Unparsed groups in body 'WS R10' while processing 'SPECI RCSS 180452Z 06008KT 330V110 5000 2000SE -SHRA FEW010 FEW015CB BKN025 BKN035 30/26 Q1004 WS R10 NOSIG RMK CB SE A2967(J)=   \n",
      "'\n",
      "  warnings.warn(message, RuntimeWarning)\n",
      "/usr/local/lib/python3.6/dist-packages/metar/Metar.py:437: RuntimeWarning: Unparsed groups in body 'WS R10' while processing 'METAR RCSS 180500Z 11011KT 080V140 5000 1200E VCTS -SHRA FEW003 FEW015CB BKN020 BKN035 29/26 Q1005 WS R10 NOSIG RMK TS E STNR A2968 RA AMT 1.2MM(K)=   \n",
      "'\n",
      "  warnings.warn(message, RuntimeWarning)\n",
      "/usr/local/lib/python3.6/dist-packages/metar/Metar.py:437: RuntimeWarning: Unparsed groups in body 'WS R10' while processing 'SPECI RCSS 180510Z 09016KT 6000 1200E VCTS SHRA FEW003 SCT010CB BKN018 BKN030 27/25 Q1005 WS R10 NOSIG RMK TS NE-E-SE STNR A2969(L)=   \n",
      "'\n",
      "  warnings.warn(message, RuntimeWarning)\n",
      "/usr/local/lib/python3.6/dist-packages/metar/Metar.py:437: RuntimeWarning: Unparsed groups in body 'WS R10' while processing 'SPECI RCSS 180523Z 10013KT 080V140 7000 2000E VCTS SHRA FEW003 FEW010CB BKN012 BKN030 26/25 Q1005 WS R10 NOSIG RMK TS NE-E-SE STNR A2970(M)=   \n",
      "'\n",
      "  warnings.warn(message, RuntimeWarning)\n",
      "/usr/local/lib/python3.6/dist-packages/metar/Metar.py:437: RuntimeWarning: Unparsed groups in body 'WS R10' while processing 'METAR RCSS 180530Z 10013KT 080V140 8000 3000E VCTS SHRA FEW003 FEW010CB BKN012 BKN035 26/25 Q1005 WS R10 NOSIG RMK TS NE-E-SE STNR A2970(N)=   \n",
      "'\n",
      "  warnings.warn(message, RuntimeWarning)\n",
      "/usr/local/lib/python3.6/dist-packages/metar/Metar.py:437: RuntimeWarning: Unparsed groups in body 'WS R10' while processing 'SPECI RCSS 180540Z 08012KT 9000 4000E VCTS -SHRA FEW005 FEW010CB BKN015 BKN035 26/25 Q1005 RESHRA WS R10 NOSIG RMK TS NE-E-SE STNR A2969(O)=   \n",
      "'\n",
      "  warnings.warn(message, RuntimeWarning)\n",
      "/usr/local/lib/python3.6/dist-packages/metar/Metar.py:437: RuntimeWarning: Unparsed groups in body 'WS R10' while processing 'SPECI RCSS 210541Z 29009KT 9999 FEW020 SCT035 BKN060 32/25 Q1003 WS R10 NOSIG RMK A2964(J)=   \n",
      "'\n",
      "  warnings.warn(message, RuntimeWarning)\n",
      "/usr/local/lib/python3.6/dist-packages/metar/Metar.py:437: RuntimeWarning: Unparsed groups in body 'WS R10' while processing 'SPECI RCSS 210553Z 31008KT 280V020 9999 -RA FEW020 FEW025TCU BKN035 BKN060 32/25 Q1003 WS R10 NOSIG RMK TCU SE-S A2964(K)=   \n",
      "'\n",
      "  warnings.warn(message, RuntimeWarning)\n",
      "/usr/local/lib/python3.6/dist-packages/metar/Metar.py:437: RuntimeWarning: Unparsed groups in body 'WS R10' while processing 'METAR RCSS 210600Z VRB05G15KT 7000 -RA FEW020 FEW025CB BKN035 BKN060 31/25 Q1004 WS R10 TEMPO 5000 RA RMK CB SE-S A2965(M)=   \n",
      "'\n",
      "  warnings.warn(message, RuntimeWarning)\n",
      "/usr/local/lib/python3.6/dist-packages/metar/Metar.py:437: RuntimeWarning: Unparsed groups in body 'WS R10' while processing 'SPECI RCSS 210605Z 14008KT 100V200 2000 SHRA FEW020 FEW025CB BKN035 BKN060 31/26 Q1004 WS R10 TEMPO 5000 RMK CB SE-S A2966(N)=   \n",
      "'\n",
      "  warnings.warn(message, RuntimeWarning)\n",
      "/usr/local/lib/python3.6/dist-packages/metar/Metar.py:437: RuntimeWarning: Unparsed groups in body 'WS R10' while processing 'SPECI RCSS 210608Z 16011KT 0400 R10/0400D SHRA FEW020 FEW025CB BKN035 BKN060 28/26 Q1004 WS R10 TEMPO 3000 RMK CB SE-S A2967(O)=   \n",
      "'\n",
      "  warnings.warn(message, RuntimeWarning)\n",
      "/usr/local/lib/python3.6/dist-packages/metar/Metar.py:437: RuntimeWarning: Unparsed groups in body 'WS R10' while processing 'SPECI RCSS 210611Z 23011KT 0400 R10/0400D +SHRA FEW020 FEW025CB BKN035 BKN060 27/25 Q1004 WS R10 TEMPO 3000 RMK CB OVHD A2967(P)=   \n",
      "'\n",
      "  warnings.warn(message, RuntimeWarning)\n",
      "/usr/local/lib/python3.6/dist-packages/metar/Metar.py:437: RuntimeWarning: Unparsed groups in body 'WS R10' while processing 'SPECI RCSS 210619Z 33007KT 1000 R10/0500U +SHRA SCT005 BKN022 FEW025CB BKN040 26/25 Q1004 WS R10 TEMPO 3000 RMK CB OVHD A2967(Q)=   \n",
      "'\n",
      "  warnings.warn(message, RuntimeWarning)\n",
      "/usr/local/lib/python3.6/dist-packages/metar/Metar.py:437: RuntimeWarning: Unparsed groups in body 'WS R10' while processing 'SPECI RCSS 210621Z 32006KT 1400 R10/1400N VCTS +SHRA SCT005 BKN022 FEW025CB BKN040 26/26 Q1004 WS R10 TEMPO 3000 RMK TS W-NW MOV W A2967(R)=   \n",
      "'\n",
      "  warnings.warn(message, RuntimeWarning)\n",
      "/usr/local/lib/python3.6/dist-packages/metar/Metar.py:437: RuntimeWarning: Unparsed groups in body 'WS R10' while processing 'METAR RCSS 210630Z 21004KT 0800 R10/0900D VCTS +SHRA SCT005 BKN010 FEW015CB OVC025 26/26 Q1005 WS R10 TEMPO 3000 RMK TS SW-W-NW MOV W A2968(S)=   \n",
      "'\n",
      "  warnings.warn(message, RuntimeWarning)\n",
      "/usr/local/lib/python3.6/dist-packages/metar/Metar.py:437: RuntimeWarning: Unparsed groups in body 'WS R10' while processing 'SPECI RCSS 210631Z 19004KT 0800 R10/0750D VCTS +SHRA SCT005 BKN010 FEW015CB OVC025 26/26 Q1005 WS R10 TEMPO 3000 RMK TS SW-W-NW MOV W A2968(T)=   \n",
      "'\n",
      "  warnings.warn(message, RuntimeWarning)\n",
      "/usr/local/lib/python3.6/dist-packages/metar/Metar.py:437: RuntimeWarning: Unparsed groups in body 'WS R10' while processing 'SPECI RCSS 210646Z 26010KT 0800 R10/1100U +TSRA SCT003 BKN006 SCT010CB OVC025 26/26 Q1005 WS R10 TEMPO 3000 RMK TS W-NW STNR A2969(X)=   \n",
      "'\n",
      "  warnings.warn(message, RuntimeWarning)\n",
      "/usr/local/lib/python3.6/dist-packages/metar/Metar.py:437: RuntimeWarning: Unparsed groups in body 'WS R10' while processing 'SPECI RCSS 210657Z 30008KT 260V320 0800 R10/0800U +TSRA SCT003 BKN006 SCT010CB OVC025 26/25 Q1005 WS R10 TEMPO 3000 RMK TS W-NW STNR A2969(Y)=   \n",
      "'\n",
      "  warnings.warn(message, RuntimeWarning)\n",
      "/usr/local/lib/python3.6/dist-packages/metar/Metar.py:437: RuntimeWarning: Unparsed groups in body 'WS R10' while processing 'METAR RCSS 210700Z 30007KT 0800 R10/0750N +TSRA SCT003 BKN006 SCT010CB OVC015 25/25 Q1005 WS R10 TEMPO 3000 RMK TS W-NW STNR A2969 RA AMT 66.4MM(Z)=   \n",
      "'\n",
      "  warnings.warn(message, RuntimeWarning)\n",
      "/usr/local/lib/python3.6/dist-packages/metar/Metar.py:437: RuntimeWarning: Unparsed groups in body 'WS R10' while processing 'SPECI RCSS 210708Z 02004KT 0800 R10/0750N +TSRA SCT003 BKN006 SCT010CB OVC015 25/25 Q1005 WS R10 TEMPO 3000 RMK TS OVHD A2969(A)=   \n",
      "'\n",
      "  warnings.warn(message, RuntimeWarning)\n",
      "/usr/local/lib/python3.6/dist-packages/metar/Metar.py:437: RuntimeWarning: Unparsed groups in body 'WS R10' while processing 'SPECI RCSS 210721Z 08004KT 0800 R10/0750N +TSRA SCT003 BKN006 SCT010CB OVC015 25/25 Q1005 WS R10 TEMPO 3000 RMK TS W-N MOV N A2969(B)=   \n",
      "'\n",
      "  warnings.warn(message, RuntimeWarning)\n",
      "/usr/local/lib/python3.6/dist-packages/metar/Metar.py:437: RuntimeWarning: Unparsed groups in body 'WS R10' while processing 'SPECI RCSS 210728Z 10002KT 1000 R10/1400U TSRA SCT003 BKN006 SCT010CB OVC015 25/25 Q1005 WS R10 BECMG NSW RMK TS W-N MOV N A2969(C)=   \n",
      "'\n",
      "  warnings.warn(message, RuntimeWarning)\n",
      "/usr/local/lib/python3.6/dist-packages/metar/Metar.py:437: RuntimeWarning: Unparsed groups in body 'WS R10' while processing 'METAR RCSS 210730Z 10002KT 1000 R10/1400U TSRA SCT003 BKN006 SCT010CB OVC015 25/25 Q1005 WS R10 BECMG NSW RMK TS W-N MOV N A2969(D)=   \n",
      "'\n",
      "  warnings.warn(message, RuntimeWarning)\n",
      "/usr/local/lib/python3.6/dist-packages/metar/Metar.py:437: RuntimeWarning: Unparsed groups in body 'WS R10' while processing 'METAR RCSS 232000Z 09015KT 9999 VCSH FEW012 SCT030 BKN060 28/25 Q1003 WS R10 NOSIG RMK QFF 1003.3HPA A2963(B)=   \n",
      "'\n",
      "  warnings.warn(message, RuntimeWarning)\n"
     ]
    },
    {
     "name": "stderr",
     "output_type": "stream",
     "text": [
      "/usr/local/lib/python3.6/dist-packages/metar/Metar.py:437: RuntimeWarning: Unparsed groups in body 'WS R10' while processing 'SPECI RCSS 232118Z 08018KT 9999 VCSH FEW012 BKN030 BKN050 29/25 Q1002 WS R10 NOSIG RMK A2960(D)=   \n",
      "'\n",
      "  warnings.warn(message, RuntimeWarning)\n",
      "/usr/local/lib/python3.6/dist-packages/metar/Metar.py:437: RuntimeWarning: Unparsed groups in body 'WS R10' while processing 'SPECI RCSS 232201Z 08017G28KT 9999 -SHRA FEW010 BKN025 BKN050 28/25 Q1003 WS R10 NOSIG RMK A2962(G)=   \n",
      "'\n",
      "  warnings.warn(message, RuntimeWarning)\n",
      "/usr/local/lib/python3.6/dist-packages/metar/Metar.py:437: RuntimeWarning: Unparsed groups in body 'WS R10' while processing 'METAR RCSS 232230Z 08016KT 060V120 9999 -SHRA FEW010 BKN025 BKN050 28/25 Q1003 WS R10 NOSIG RMK A2963(H)=   \n",
      "'\n",
      "  warnings.warn(message, RuntimeWarning)\n",
      "/usr/local/lib/python3.6/dist-packages/metar/Metar.py:437: RuntimeWarning: Unparsed groups in body 'WS R10' while processing 'METAR RCSS 232300Z 08017G28KT 9999 -SHRA FEW010 SCT025 BKN060 28/25 Q1003 WS R10 NOSIG RMK QFF 1003.3HPA A2963(I)=   \n",
      "'\n",
      "  warnings.warn(message, RuntimeWarning)\n",
      "/usr/local/lib/python3.6/dist-packages/metar/Metar.py:437: RuntimeWarning: Unparsed groups in body 'WS R10' while processing 'METAR RCSS 232330Z 08016KT 9999 -SHRA FEW010 SCT025 BKN050 29/25 Q1003 WS R10 NOSIG RMK A2962(J)=   \n",
      "'\n",
      "  warnings.warn(message, RuntimeWarning)\n",
      "/usr/local/lib/python3.6/dist-packages/metar/Metar.py:437: RuntimeWarning: Unparsed groups in body 'WS R10' while processing 'METAR RCSS 240000Z 08020G30KT 9999 -SHRA FEW008 SCT022 BKN045 29/25 Q1002 WS R10 NOSIG RMK QFF 1002.3HPA A2960(K)=   \n",
      "'\n",
      "  warnings.warn(message, RuntimeWarning)\n",
      "/usr/local/lib/python3.6/dist-packages/metar/Metar.py:437: RuntimeWarning: Unparsed groups in body 'WS R10' while processing 'METAR RCSS 240030Z 08019KT 9999 -SHRA FEW008 SCT025 BKN150 28/25 Q1002 WS R10 NOSIG RMK A2961(L)=   \n",
      "'\n",
      "  warnings.warn(message, RuntimeWarning)\n",
      "/usr/local/lib/python3.6/dist-packages/metar/Metar.py:437: RuntimeWarning: Unparsed groups in body 'WS R10' while processing 'METAR RCSS 240100Z 09022KT 9999 -SHRA FEW008 SCT025 BKN160 29/24 Q1003 WS R10 NOSIG RMK QFF 1003.0HPA A2962(M)=   \n",
      "'\n",
      "  warnings.warn(message, RuntimeWarning)\n",
      "/usr/local/lib/python3.6/dist-packages/metar/Metar.py:437: RuntimeWarning: Unparsed groups in body 'WS R10' while processing 'METAR RCSS 240130Z 08019KT 9999 FEW010 BKN200 30/24 Q1003 WS R10 NOSIG RMK A2962(N)=   \n",
      "'\n",
      "  warnings.warn(message, RuntimeWarning)\n",
      "/usr/local/lib/python3.6/dist-packages/metar/Metar.py:437: RuntimeWarning: Unparsed groups in body 'WS R10' while processing 'SPECI RCSS 240157Z 09018KT 9999 -SHRA FEW010 SCT030 BKN120 30/25 Q1003 WS R10 NOSIG RMK A2963(O)=   \n",
      "'\n",
      "  warnings.warn(message, RuntimeWarning)\n",
      "/usr/local/lib/python3.6/dist-packages/metar/Metar.py:437: RuntimeWarning: Unparsed groups in body 'WS R10' while processing 'METAR RCSS 240200Z 09018KT 9999 -SHRA FEW010 SCT030 BKN120 30/25 Q1003 WS R10 NOSIG RMK QFF 1003.3HPA A2963(P)=   \n",
      "'\n",
      "  warnings.warn(message, RuntimeWarning)\n",
      "/usr/local/lib/python3.6/dist-packages/metar/Metar.py:437: RuntimeWarning: Unparsed groups in body 'WS R10' while processing 'METAR RCSS 240230Z 08020KT 9999 -SHRA FEW008 BKN025 BKN060 29/25 Q1002 WS R10 NOSIG RMK A2961(Q)=   \n",
      "'\n",
      "  warnings.warn(message, RuntimeWarning)\n",
      "/usr/local/lib/python3.6/dist-packages/metar/Metar.py:437: RuntimeWarning: Unparsed groups in body 'WS R10' while processing 'METAR RCSS 240300Z 08020G30KT 9999 -SHRA FEW008 SCT025 BKN060 30/26 Q1002 WS R10 NOSIG RMK QFF 1002.0HPA A2959(R)=   \n",
      "'\n",
      "  warnings.warn(message, RuntimeWarning)\n",
      "/usr/local/lib/python3.6/dist-packages/metar/Metar.py:437: RuntimeWarning: Unparsed groups in body 'WS R10' while processing 'METAR RCSS 240330Z 09021KT 7000 -SHRA FEW008 SCT025 BKN050 29/26 Q1001 WS R10 NOSIG RMK A2958(S)=   \n",
      "'\n",
      "  warnings.warn(message, RuntimeWarning)\n",
      "/usr/local/lib/python3.6/dist-packages/metar/Metar.py:437: RuntimeWarning: Unparsed groups in body 'WS R10' while processing 'METAR RCSS 240400Z 08019G32KT 050V110 9999 -SHRA FEW008 SCT025 BKN050 29/27 Q1001 WS R10 NOSIG RMK QFF 1000.9HPA A2956 RA AMT 1.0MM(T)=   \n",
      "'\n",
      "  warnings.warn(message, RuntimeWarning)\n",
      "/usr/local/lib/python3.6/dist-packages/metar/Metar.py:437: RuntimeWarning: Unparsed groups in body 'WS R10' while processing 'METAR RCSS 240430Z 08021G31KT 7000 -SHRA FEW008 BKN025 BKN040 30/26 Q1000 WS R10 NOSIG RMK A2954(U)=   \n",
      "'\n",
      "  warnings.warn(message, RuntimeWarning)\n",
      "/usr/local/lib/python3.6/dist-packages/metar/Metar.py:437: RuntimeWarning: Unparsed groups in body 'WS R10' while processing 'METAR RCSS 240500Z 08022KT 9999 -SHRA FEW008 BKN025 BKN040 30/26 Q1000 WS R10 NOSIG RMK QFF 999.9HPA A2953 RA AMT 0.6MM(V)=   \n",
      "'\n",
      "  warnings.warn(message, RuntimeWarning)\n",
      "/usr/local/lib/python3.6/dist-packages/metar/Metar.py:437: RuntimeWarning: Unparsed groups in body 'WS R10' while processing 'METAR RCSS 240530Z 08022KT 9999 -SHRA FEW008 BKN025 BKN040 29/26 Q1000 WS R10 NOSIG RMK A2954(W)=   \n",
      "'\n",
      "  warnings.warn(message, RuntimeWarning)\n",
      "/usr/local/lib/python3.6/dist-packages/metar/Metar.py:437: RuntimeWarning: Unparsed groups in body 'WS R10' while processing 'METAR RCSS 240600Z 09024G37KT 8000 -SHRA SCT008 BKN020 BKN040 30/26 Q0999 WS R10 NOSIG RMK QFF 999.6HPA A2952 RA AMT 0.6MM(X)=   \n",
      "'\n",
      "  warnings.warn(message, RuntimeWarning)\n",
      "/usr/local/lib/python3.6/dist-packages/metar/Metar.py:437: RuntimeWarning: Unparsed groups in body 'WS R10' while processing 'METAR RCSS 240630Z 09024G35KT 8000 -SHRA FEW008 BKN028 BKN040 30/26 Q0999 WS R10 NOSIG RMK A2951(Y)=   \n",
      "'\n",
      "  warnings.warn(message, RuntimeWarning)\n",
      "/usr/local/lib/python3.6/dist-packages/metar/Metar.py:437: RuntimeWarning: Unparsed groups in body 'WS R10' while processing 'SPECI RCSS 240639Z 09025G36KT 4000 -SHRA FEW008 BKN028 BKN040 29/26 Q0999 WS R10 NOSIG RMK A2952(Z)=   \n",
      "'\n",
      "  warnings.warn(message, RuntimeWarning)\n",
      "/usr/local/lib/python3.6/dist-packages/metar/Metar.py:437: RuntimeWarning: Unparsed groups in body 'WS R10' while processing 'SPECI RCSS 240655Z 11020KT 2500 SHRA SCT008 BKN012 OVC040 28/26 Q1001 WS R10 TEMPO 5000 RMK A2956(A)=   \n",
      "'\n",
      "  warnings.warn(message, RuntimeWarning)\n",
      "/usr/local/lib/python3.6/dist-packages/metar/Metar.py:437: RuntimeWarning: Unparsed groups in body 'WS R10' while processing 'METAR RCSS 240700Z 11021G36KT 2500 SHRA SCT008 BKN012 OVC035 27/26 Q1000 WS R10 TEMPO 5000 RMK QFF 1000.6HPA A2955 RA AMT 4.0MM(B)=   \n",
      "'\n",
      "  warnings.warn(message, RuntimeWarning)\n",
      "/usr/local/lib/python3.6/dist-packages/metar/Metar.py:437: RuntimeWarning: Unparsed groups in body 'WS R10' while processing 'SPECI RCSS 240704Z 10023G36KT 070V130 3500 SHRA FEW006 BKN012 OVC035 26/25 Q1000 WS R10 TEMPO 5000 RMK A2954(C)=   \n",
      "'\n",
      "  warnings.warn(message, RuntimeWarning)\n",
      "/usr/local/lib/python3.6/dist-packages/metar/Metar.py:437: RuntimeWarning: Unparsed groups in body 'WS R10' while processing 'SPECI RCSS 240718Z 08020G31KT 9999 -SHRA FEW007 BKN022 BKN035 26/25 Q1000 RESHRA WS R10 TEMPO 5000 RMK A2953(D)=   \n",
      "'\n",
      "  warnings.warn(message, RuntimeWarning)\n",
      "/usr/local/lib/python3.6/dist-packages/metar/Metar.py:437: RuntimeWarning: Unparsed groups in body 'WS R10' while processing 'METAR RCSS 240730Z 08016KT 9999 -SHRA FEW007 BKN022 BKN035 27/26 Q0999 RESHRA WS R10 TEMPO 5000 RMK A2952(E)=   \n",
      "'\n",
      "  warnings.warn(message, RuntimeWarning)\n",
      "/usr/local/lib/python3.6/dist-packages/metar/Metar.py:437: RuntimeWarning: Unparsed groups in body 'WS R10' while processing 'METAR RCSS 240800Z 07016G29KT 9999 -SHRA FEW010 SCT022 BKN060 29/24 Q0999 WS R10 NOSIG RMK QFF 999.3HPA A2951 RA AMT 3.8MM(F)=   \n",
      "'\n",
      "  warnings.warn(message, RuntimeWarning)\n",
      "/usr/local/lib/python3.6/dist-packages/metar/Metar.py:437: RuntimeWarning: Unparsed groups in body 'WS R10' while processing 'SPECI RCSS 240817Z 08019KT 9999 FEW010 SCT022 BKN060 29/25 Q0999 WS R10 NOSIG RMK A2952(G)=   \n",
      "'\n",
      "  warnings.warn(message, RuntimeWarning)\n",
      "/usr/local/lib/python3.6/dist-packages/metar/Metar.py:437: RuntimeWarning: Unparsed groups in body 'WS R10' while processing 'METAR RCSS 240830Z 09019KT 050V110 9999 FEW010 SCT022 BKN060 29/24 Q0999 WS R10 NOSIG RMK A2952(H)=   \n",
      "'\n",
      "  warnings.warn(message, RuntimeWarning)\n",
      "/usr/local/lib/python3.6/dist-packages/metar/Metar.py:437: RuntimeWarning: Unparsed groups in body 'WS R10' while processing 'SPECI RCSS 240835Z 09017G31KT 9999 -SHRA FEW010 SCT022 BKN060 29/24 Q0999 WS R10 NOSIG RMK A2952(I)=   \n",
      "'\n",
      "  warnings.warn(message, RuntimeWarning)\n",
      "/usr/local/lib/python3.6/dist-packages/metar/Metar.py:437: RuntimeWarning: Unparsed groups in body 'WS R10' while processing 'METAR RCSS 240900Z 09020KT 9999 -SHRA FEW010 BKN020 BKN040 28/25 Q0999 WS R10 NOSIG RMK QFF 999.6HPA A2952(J)=   \n",
      "'\n",
      "  warnings.warn(message, RuntimeWarning)\n",
      "/usr/local/lib/python3.6/dist-packages/metar/Metar.py:437: RuntimeWarning: Unparsed groups in body 'WS R10' while processing 'METAR RCSS 240930Z 08021KT 9999 -SHRA FEW010 BKN020 BKN040 28/25 Q0999 WS R10 NOSIG RMK A2951(K)=   \n",
      "'\n",
      "  warnings.warn(message, RuntimeWarning)\n",
      "/usr/local/lib/python3.6/dist-packages/metar/Metar.py:437: RuntimeWarning: Unparsed groups in body 'WS R10' while processing 'METAR RCSS 241000Z 08019KT 9999 -SHRA FEW010 BKN020 BKN040 29/25 Q0999 WS R10 NOSIG RMK QFF 999.3HPA A2951(L)=   \n",
      "'\n",
      "  warnings.warn(message, RuntimeWarning)\n",
      "/usr/local/lib/python3.6/dist-packages/metar/Metar.py:437: RuntimeWarning: Unparsed groups in body 'WS R10' while processing 'METAR RCSS 241030Z 08021G31KT 9999 -SHRA FEW010 BKN025 BKN050 29/25 Q0999 WS R10 NOSIG RMK A2952(M)=   \n",
      "'\n",
      "  warnings.warn(message, RuntimeWarning)\n",
      "/usr/local/lib/python3.6/dist-packages/metar/Metar.py:437: RuntimeWarning: Unparsed groups in body 'WS R10' while processing 'METAR RCSS 241100Z 09023G34KT 9999 -SHRA FEW010 BKN025 BKN050 29/25 Q0999 WS R10 NOSIG RMK QFF 999.6HPA A2952(N)=   \n",
      "'\n",
      "  warnings.warn(message, RuntimeWarning)\n",
      "/usr/local/lib/python3.6/dist-packages/metar/Metar.py:437: RuntimeWarning: Unparsed groups in body 'WS R10' while processing 'METAR RCSS 241130Z 09021KT 9999 -SHRA FEW010 SCT032 BKN042 29/25 Q1000 WS R10 NOSIG RMK A2953(O)=   \n",
      "'\n",
      "  warnings.warn(message, RuntimeWarning)\n",
      "/usr/local/lib/python3.6/dist-packages/metar/Metar.py:437: RuntimeWarning: Unparsed groups in body 'WS R10' while processing 'METAR RCSS 241200Z 10023KT 9999 -SHRA FEW010 SCT032 BKN045 29/25 Q1000 WS R10 NOSIG RMK QFF 1000.3HPA A2954(P)=   \n",
      "'\n",
      "  warnings.warn(message, RuntimeWarning)\n",
      "/usr/local/lib/python3.6/dist-packages/metar/Metar.py:437: RuntimeWarning: Unparsed groups in body 'WS R10' while processing 'METAR RCSS 241230Z 10023G38KT 9999 -SHRA FEW010 SCT030 BKN050 29/25 Q1000 WS R10 NOSIG RMK A2955(Q)=   \n",
      "'\n",
      "  warnings.warn(message, RuntimeWarning)\n",
      "/usr/local/lib/python3.6/dist-packages/metar/Metar.py:437: RuntimeWarning: Unparsed groups in body 'WS R10' while processing 'METAR RCSS 241300Z 10020G30KT 9999 -SHRA FEW015 SCT050 BKN080 28/25 Q1001 WS R10 NOSIG RMK QFF 1001.6HPA A2958(R)=   \n",
      "'\n",
      "  warnings.warn(message, RuntimeWarning)\n",
      "/usr/local/lib/python3.6/dist-packages/metar/Metar.py:437: RuntimeWarning: Unparsed groups in body 'WS R10' while processing 'METAR RCSS 241330Z 11019KT 9999 -SHRA FEW015 SCT040 BKN080 29/24 Q1001 WS R10 NOSIG RMK A2958(S)=   \n",
      "'\n",
      "  warnings.warn(message, RuntimeWarning)\n",
      "/usr/local/lib/python3.6/dist-packages/metar/Metar.py:437: RuntimeWarning: Unparsed groups in body 'WS R10' while processing 'METAR RCSS 241400Z 10020KT 9999 -SHRA FEW015 SCT038 BKN055 28/25 Q1001 WS R10 NOSIG RMK QFF 1001.6HPA A2958 RA AMT 0.2MM(T)=   \n",
      "'\n",
      "  warnings.warn(message, RuntimeWarning)\n",
      "/usr/local/lib/python3.6/dist-packages/metar/Metar.py:437: RuntimeWarning: Unparsed groups in body 'WS R10' while processing 'METAR RCSS 241430Z 10023KT 9999 -SHRA FEW015 SCT050 BKN060 30/25 Q1001 WS R10 NOSIG RMK A2956(U)=   \n",
      "'\n",
      "  warnings.warn(message, RuntimeWarning)\n",
      "/usr/local/lib/python3.6/dist-packages/metar/Metar.py:437: RuntimeWarning: Unparsed groups in body 'WS R10' while processing 'METAR RCSS 241500Z 10021G34KT 9999 -SHRA FEW015 BKN035 BKN050 30/25 Q1001 WS R10 NOSIG RMK QFF 1001.3HPA A2957(V)=   \n",
      "'\n",
      "  warnings.warn(message, RuntimeWarning)\n",
      "/usr/local/lib/python3.6/dist-packages/metar/Metar.py:437: RuntimeWarning: Unparsed groups in body 'WS R10' while processing 'SPECI RCSS 241508Z 09016KT 9999 -SHRA FEW015 BKN035 BKN050 29/25 Q1001 WS R10 NOSIG RMK A2958(W)=   \n",
      "'\n",
      "  warnings.warn(message, RuntimeWarning)\n",
      "/usr/local/lib/python3.6/dist-packages/metar/Metar.py:437: RuntimeWarning: Unparsed groups in body 'WS R10' while processing 'SPECI RCSS 241527Z 10016KT 9999 -SHRA FEW015 BKN040 BKN055 29/25 Q1001 WS R10 NOSIG RMK A2958(Y)=   \n",
      "'\n",
      "  warnings.warn(message, RuntimeWarning)\n",
      "/usr/local/lib/python3.6/dist-packages/metar/Metar.py:437: RuntimeWarning: Unparsed groups in body 'WS R10' while processing 'METAR RCSS 241530Z 10017KT 9999 -SHRA FEW015 BKN040 BKN055 30/24 Q1001 WS R10 NOSIG RMK A2958(Z)=   \n",
      "'\n",
      "  warnings.warn(message, RuntimeWarning)\n",
      "/usr/local/lib/python3.6/dist-packages/metar/Metar.py:437: RuntimeWarning: Unparsed groups in body 'WS R10' while processing 'SPECI RCSS 241557Z 11025G36KT 3500 SHRA FEW005 BKN035 BKN045 27/25 Q1001 WS R10 NOSIG RMK A2958(A)=   \n",
      "'\n",
      "  warnings.warn(message, RuntimeWarning)\n",
      "/usr/local/lib/python3.6/dist-packages/metar/Metar.py:437: RuntimeWarning: Unparsed groups in body 'WS R10' while processing 'METAR RCSS 241600Z 11024KT 3500 SHRA FEW005 BKN035 BKN045 27/25 Q1001 WS R10 NOSIG RMK QFF 1001.3HPA A2957 RA AMT 0.8MM(B)=   \n",
      "'\n",
      "  warnings.warn(message, RuntimeWarning)\n",
      "/usr/local/lib/python3.6/dist-packages/metar/Metar.py:437: RuntimeWarning: Unparsed groups in body 'WS R10' while processing 'SPECI RCSS 241619Z 09019KT 9999 FEW012 SCT035 BKN080 28/25 Q1001 RESHRA WS R10 NOSIG RMK A2957(C)=   \n",
      "'\n",
      "  warnings.warn(message, RuntimeWarning)\n",
      "/usr/local/lib/python3.6/dist-packages/metar/Metar.py:437: RuntimeWarning: Unparsed groups in body 'WS R10' while processing 'SPECI RCSS 241636Z 09016KT 070V130 9999 FEW012 SCT035 BKN080 28/25 Q1001 WS R10 NOSIG RMK A2957(E)=   \n",
      "'\n",
      "  warnings.warn(message, RuntimeWarning)\n",
      "/usr/local/lib/python3.6/dist-packages/metar/Metar.py:437: RuntimeWarning: Unparsed groups in body 'WS R10' while processing 'METAR RCSS 241700Z 10025KT 9999 FEW014 SCT040 BKN080 29/25 Q1000 RESHRA WS R10 NOSIG RMK QFF 1000.6HPA A2955 RA AMT 0.2MM(F)=   \n",
      "'\n",
      "  warnings.warn(message, RuntimeWarning)\n",
      "/usr/local/lib/python3.6/dist-packages/metar/Metar.py:437: RuntimeWarning: Unparsed groups in body 'WS R10' while processing 'METAR RCSS 241800Z 10019G32KT 070V130 9999 FEW014 SCT030 BKN100 29/25 Q1001 WS R10 NOSIG RMK QFF 1001.3HPA A2957(G)=   \n",
      "'\n",
      "  warnings.warn(message, RuntimeWarning)\n",
      "/usr/local/lib/python3.6/dist-packages/metar/Metar.py:437: RuntimeWarning: Unparsed groups in body 'WS R10' while processing 'METAR RCSS 241900Z 11016KT 9999 FEW014 SCT030 BKN100 30/24 Q1000 WS R10 NOSIG RMK QFF 1000.6HPA A2955(H)=   \n",
      "'\n",
      "  warnings.warn(message, RuntimeWarning)\n",
      "/usr/local/lib/python3.6/dist-packages/metar/Metar.py:437: RuntimeWarning: Unparsed groups in body 'WS R10' while processing 'SPECI RCSS 260531Z 10008KT 060V130 9999 FEW018 FEW025TCU SCT035 33/25 Q1008 WS R10 NOSIG RMK TCU SW-W A2978(T)=   \n",
      "'\n",
      "  warnings.warn(message, RuntimeWarning)\n",
      "/usr/local/lib/python3.6/dist-packages/metar/Metar.py:437: RuntimeWarning: Unparsed groups in body 'WS R10' while processing 'METAR RCSS 260600Z 09011KT 9999 FEW018 FEW025TCU SCT035 33/26 Q1008 WS R10 NOSIG RMK TCU SW A2978(U)=   \n",
      "'\n",
      "  warnings.warn(message, RuntimeWarning)\n",
      "/usr/local/lib/python3.6/dist-packages/metar/Metar.py:437: RuntimeWarning: Unparsed groups in body 'WS R10' while processing 'SPECI RCSS 280158Z 11016KT 070V140 9999 FEW025 SCT250 33/25 Q1007 WS R10 NOSIG RMK A2974(V)=   \n",
      "'\n",
      "  warnings.warn(message, RuntimeWarning)\n",
      "/usr/local/lib/python3.6/dist-packages/metar/Metar.py:437: RuntimeWarning: Unparsed groups in body 'WS R10' while processing 'METAR RCSS 280200Z 11016KT 070V140 9999 FEW025 SCT250 34/25 Q1007 WS R10 NOSIG RMK A2974(W)=   \n",
      "'\n",
      "  warnings.warn(message, RuntimeWarning)\n",
      "/usr/local/lib/python3.6/dist-packages/metar/Metar.py:437: RuntimeWarning: Unparsed groups in body 'WS R10' while processing 'SPECI RCSS 280347Z 12018KT 9999 FEW025 35/25 Q1006 WS R10 NOSIG RMK A2971(A)=   \n",
      "'\n",
      "  warnings.warn(message, RuntimeWarning)\n",
      "/usr/local/lib/python3.6/dist-packages/metar/Metar.py:437: RuntimeWarning: Unparsed groups in body 'WS R10' while processing 'METAR RCSS 280400Z 12019KT 9999 FEW025 35/25 Q1006 WS R10 NOSIG RMK A2971(B)=   \n",
      "'\n",
      "  warnings.warn(message, RuntimeWarning)\n",
      "/usr/local/lib/python3.6/dist-packages/metar/Metar.py:437: RuntimeWarning: Unparsed groups in body 'WS R10' while processing 'METAR RCSS 280430Z 12019KT 9999 FEW030 35/25 Q1005 WS R10 NOSIG RMK A2970(C)=   \n",
      "'\n",
      "  warnings.warn(message, RuntimeWarning)\n",
      "/usr/local/lib/python3.6/dist-packages/metar/Metar.py:437: RuntimeWarning: Unparsed groups in body 'WS R10' while processing 'SPECI RCSS 280508Z 11018KT 080V150 9999 FEW030 35/25 Q1005 WS R10 NOSIG RMK A2969(F)=   \n",
      "'\n",
      "  warnings.warn(message, RuntimeWarning)\n",
      "/usr/local/lib/python3.6/dist-packages/metar/Metar.py:437: RuntimeWarning: Unparsed groups in body 'WS R10' while processing 'METAR RCSS 280530Z 11018G29KT 9999 FEW030 SCT050 34/25 Q1005 WS R10 NOSIG RMK A2968(G)=   \n",
      "'\n",
      "  warnings.warn(message, RuntimeWarning)\n",
      "/usr/local/lib/python3.6/dist-packages/metar/Metar.py:437: RuntimeWarning: Unparsed groups in body 'WS R10' while processing 'METAR RCSS 280600Z 12016G28KT 090V150 9999 FEW030 SCT040 35/26 Q1004 WS R10 NOSIG RMK A2967(H)=   \n",
      "'\n",
      "  warnings.warn(message, RuntimeWarning)\n",
      "/usr/local/lib/python3.6/dist-packages/metar/Metar.py:437: RuntimeWarning: Unparsed groups in body 'WS R10' while processing 'METAR RCSS 280630Z 12017G27KT 090V160 9999 FEW030 SCT040 34/26 Q1004 WS R10 NOSIG RMK A2965(I)=   \n",
      "'\n",
      "  warnings.warn(message, RuntimeWarning)\n",
      "/usr/local/lib/python3.6/dist-packages/metar/Metar.py:437: RuntimeWarning: Unparsed groups in body 'WS R10' while processing 'METAR RCSS 280700Z 13019KT 9999 FEW030 BKN040 34/26 Q1004 WS R10 NOSIG RMK A2965(J)=   \n",
      "'\n",
      "  warnings.warn(message, RuntimeWarning)\n",
      "/usr/local/lib/python3.6/dist-packages/metar/Metar.py:437: RuntimeWarning: Unparsed groups in body 'WS R10' while processing 'METAR RCSS 280730Z 12019KT 090V150 9999 FEW030 SCT040 34/25 Q1003 WS R10 NOSIG RMK A2964(K)=   \n",
      "'\n",
      "  warnings.warn(message, RuntimeWarning)\n",
      "/usr/local/lib/python3.6/dist-packages/metar/Metar.py:437: RuntimeWarning: Unparsed groups in body 'WS R10' while processing 'METAR RCSS 280800Z 11023KT 9999 FEW030 SCT040 34/25 Q1003 WS R10 NOSIG RMK A2963(L)=   \n",
      "'\n",
      "  warnings.warn(message, RuntimeWarning)\n",
      "/usr/local/lib/python3.6/dist-packages/metar/Metar.py:437: RuntimeWarning: Unparsed groups in body 'WS R10' while processing 'METAR RCSS 280830Z 11024KT 9999 FEW030 SCT040 33/25 Q1003 WS R10 NOSIG RMK A2964(M)=   \n",
      "'\n",
      "  warnings.warn(message, RuntimeWarning)\n",
      "/usr/local/lib/python3.6/dist-packages/metar/Metar.py:437: RuntimeWarning: Unparsed groups in body 'WS R10' while processing 'METAR RCSS 280900Z 10024KT 9999 FEW030 SCT040 33/25 Q1003 WS R10 NOSIG RMK A2964(N)=   \n",
      "'\n",
      "  warnings.warn(message, RuntimeWarning)\n",
      "/usr/local/lib/python3.6/dist-packages/metar/Metar.py:437: RuntimeWarning: Unparsed groups in body 'WS R10' while processing 'METAR RCSS 280930Z 11018KT 9999 FEW030 SCT040 32/25 Q1004 WS R10 NOSIG RMK A2966(O)=   \n",
      "'\n",
      "  warnings.warn(message, RuntimeWarning)\n",
      "/usr/local/lib/python3.6/dist-packages/metar/Metar.py:437: RuntimeWarning: Unparsed groups in body 'WS R10' while processing 'METAR RCSS 281000Z 11017KT 9999 FEW030 SCT040 32/25 Q1004 WS R10 NOSIG RMK A2966(P)=   \n",
      "'\n",
      "  warnings.warn(message, RuntimeWarning)\n",
      "/usr/local/lib/python3.6/dist-packages/metar/Metar.py:437: RuntimeWarning: Unparsed groups in body 'WS R10' while processing 'SPECI RCSS 300415Z VRB05KT 9999 VCTS FEW012 FEW016CB BKN020 BKN100 33/26 Q1008 WS R10 NOSIG RMK TS NE MOV W A2979(V)=   \n",
      "'\n",
      "  warnings.warn(message, RuntimeWarning)\n",
      "/usr/local/lib/python3.6/dist-packages/metar/Metar.py:437: RuntimeWarning: Unparsed groups in body 'WS R10' while processing 'METAR RCSS 300430Z 09014KT 9999 4500E VCTS -SHRA FEW010 FEW016CB BKN018 BKN050 29/24 Q1008 WS R10 NOSIG RMK TS NE-SE MOV W A2979(W)=   \n",
      "'\n",
      "  warnings.warn(message, RuntimeWarning)\n",
      "/usr/local/lib/python3.6/dist-packages/metar/Metar.py:437: RuntimeWarning: Unparsed groups in body 'WS R10' while processing 'SPECI RCSS 300455Z 13011KT 3500 VCTS SHRA FEW008 FEW014CB BKN018 BKN035 26/24 Q1008 WS R10 NOSIG RMK TS S MOV W A2979(Z)=   \n",
      "'\n",
      "  warnings.warn(message, RuntimeWarning)\n",
      "/usr/local/lib/python3.6/dist-packages/metar/Metar.py:437: RuntimeWarning: Unparsed groups in body 'WS R10' while processing 'METAR RCSS 300500Z 14009KT 3500 TSRA FEW008 FEW014CB BKN018 BKN035 25/24 Q1009 WS R10 NOSIG RMK TS S-SW MOV N A2980 RA AMT 10.0MM(A)=   \n",
      "'\n",
      "  warnings.warn(message, RuntimeWarning)\n",
      "/usr/local/lib/python3.6/dist-packages/metar/Metar.py:437: RuntimeWarning: Unparsed groups in body 'WS R10' while processing 'SPECI RCSS 300502Z 14006KT 110V190 1000 R10/0500D TSRA FEW008 FEW014CB BKN018 BKN035 25/25 Q1009 WS R10 NOSIG RMK TS OVHD A2980(B)=   \n",
      "'\n",
      "  warnings.warn(message, RuntimeWarning)\n",
      "/usr/local/lib/python3.6/dist-packages/metar/Metar.py:437: RuntimeWarning: Unparsed groups in body 'WS R10' while processing 'SPECI RCSS 300507Z 17005KT 1000 R10/1000U TSRA FEW008 FEW015CB BKN018 BKN035 26/26 Q1009 WS R10 NOSIG RMK TS OVHD A2980(C)=   \n",
      "'\n",
      "  warnings.warn(message, RuntimeWarning)\n",
      "/usr/local/lib/python3.6/dist-packages/metar/Metar.py:437: RuntimeWarning: Unparsed groups in body 'WS R10' while processing 'SPECI RCSS 300514Z 13006KT 090V170 6000 2500W TSRA FEW008 FEW015CB BKN020 BKN035 26/26 Q1008 WS R10 NOSIG RMK TS OVHD A2979(D)=   \n",
      "'\n",
      "  warnings.warn(message, RuntimeWarning)\n",
      "/usr/local/lib/python3.6/dist-packages/metar/Metar.py:437: RuntimeWarning: Unparsed groups in body 'WS R10' while processing 'SPECI RCSS 310225Z 08016KT 040V110 9999 FEW020 SCT035 33/26 Q1008 WS R10 NOSIG RMK A2978(V)=   \n",
      "'\n",
      "  warnings.warn(message, RuntimeWarning)\n",
      "/usr/local/lib/python3.6/dist-packages/metar/Metar.py:437: RuntimeWarning: Unparsed groups in body 'WS R10' while processing 'METAR RCSS 310230Z 08016KT 9999 FEW020 SCT035 33/25 Q1008 WS R10 NOSIG RMK A2977(W)=   \n",
      "'\n",
      "  warnings.warn(message, RuntimeWarning)\n",
      "/usr/local/lib/python3.6/dist-packages/metar/Metar.py:437: RuntimeWarning: Unparsed groups in body 'WS R10' while processing 'SPECI RCSS 310422Z 09016KT 9999 FEW020 SCT035 34/25 Q1007 WS R10 NOSIG RMK A2975(A)=   \n",
      "'\n",
      "  warnings.warn(message, RuntimeWarning)\n",
      "/usr/local/lib/python3.6/dist-packages/metar/Metar.py:437: RuntimeWarning: Unparsed groups in body 'WS R10' while processing 'METAR RCSS 310430Z 09017KT 9999 FEW020 SCT035 34/26 Q1007 WS R10 NOSIG RMK A2975(B)=   \n",
      "'\n",
      "  warnings.warn(message, RuntimeWarning)\n",
      "/usr/local/lib/python3.6/dist-packages/metar/Metar.py:437: RuntimeWarning: Unparsed groups in body 'WS R10' while processing 'SPECI RCSS 310731Z 11016KT 9999 FEW020 34/25 Q1006 WS R10 NOSIG RMK A2972(I)=   \n",
      "'\n",
      "  warnings.warn(message, RuntimeWarning)\n",
      "/usr/local/lib/python3.6/dist-packages/metar/Metar.py:437: RuntimeWarning: Unparsed groups in body 'WS R10' while processing 'SPECI RCSS 311710Z 08009KT 9999 FEW020 29/24 Q1007 WS R10 NOSIG RMK A2976(B)=   \n",
      "'\n",
      "  warnings.warn(message, RuntimeWarning)\n",
      "/usr/local/lib/python3.6/dist-packages/metar/Metar.py:437: RuntimeWarning: Unparsed groups in body 'WS R10' while processing 'SPECI RCSS 010105Z 11014KT 9999 FEW030 33/25 Q1008 WS R10 NOSIG RMK A2979(N)=   \n",
      "'\n",
      "  warnings.warn(message, RuntimeWarning)\n",
      "/usr/local/lib/python3.6/dist-packages/metar/Metar.py:437: RuntimeWarning: Unparsed groups in body 'WS R10' while processing 'SPECI RCSS 010502Z 12019KT 9999 FEW030 35/25 Q1007 WS R10 NOSIG RMK A2975(W)=   \n",
      "'\n",
      "  warnings.warn(message, RuntimeWarning)\n",
      "/usr/local/lib/python3.6/dist-packages/metar/Metar.py:437: RuntimeWarning: Unparsed groups in body 'WS R10' while processing 'METAR RCSS 010530Z 11014KT 9999 FEW030 35/25 Q1007 WS R10 NOSIG RMK A2975(X)=   \n",
      "'\n",
      "  warnings.warn(message, RuntimeWarning)\n",
      "/usr/local/lib/python3.6/dist-packages/metar/Metar.py:437: RuntimeWarning: Unparsed groups in body 'WS R10' while processing 'SPECI RCSS 010747Z 12013KT 080V150 9999 FEW025 SCT040 32/24 Q1007 WS R10 NOSIG RMK A2976(D)=   \n",
      "'\n",
      "  warnings.warn(message, RuntimeWarning)\n",
      "/usr/local/lib/python3.6/dist-packages/metar/Metar.py:437: RuntimeWarning: Unparsed groups in body 'WS R10' while processing 'METAR RCSS 010800Z 13013G25KT 090V150 9999 FEW025 SCT040 BKN200 32/24 Q1007 WS R10 NOSIG RMK A2976(E)=   \n",
      "'\n",
      "  warnings.warn(message, RuntimeWarning)\n",
      "/usr/local/lib/python3.6/dist-packages/metar/Metar.py:437: RuntimeWarning: Unparsed groups in body 'WS R10' while processing 'METAR RCSS 010830Z 11017KT 9999 FEW020TCU FEW025 SCT040 BKN200 31/24 Q1007 WS R10 NOSIG RMK TCU SW A2975(F)=   \n",
      "'\n",
      "  warnings.warn(message, RuntimeWarning)\n",
      "/usr/local/lib/python3.6/dist-packages/metar/Metar.py:437: RuntimeWarning: Unparsed groups in body 'WS R10' while processing 'METAR RCSS 010900Z 11017KT 9999 FEW025 SCT120 BKN200 32/24 Q1007 WS R10 NOSIG RMK A2976(G)=   \n",
      "'\n",
      "  warnings.warn(message, RuntimeWarning)\n",
      "/usr/local/lib/python3.6/dist-packages/metar/Metar.py:437: RuntimeWarning: Unparsed groups in body 'WS R10' while processing 'SPECI RCSS 011546Z 11011KT 9999 FEW025 SCT200 30/24 Q1008 WS R10 NOSIG RMK A2978(U)=   \n",
      "'\n",
      "  warnings.warn(message, RuntimeWarning)\n",
      "/usr/local/lib/python3.6/dist-packages/metar/Metar.py:437: RuntimeWarning: Unparsed groups in body 'WS R10' while processing 'METAR RCSS 011600Z 11011KT 9999 FEW025 SCT200 30/24 Q1008 WS R10 NOSIG RMK A2978(V)=   \n",
      "'\n",
      "  warnings.warn(message, RuntimeWarning)\n",
      "/usr/local/lib/python3.6/dist-packages/metar/Metar.py:437: RuntimeWarning: Unparsed groups in body 'WS R10' while processing 'SPECI RCSS 020123Z 11017KT 9999 FEW025 33/24 Q1009 WS R10 NOSIG RMK A2982(J)=   \n",
      "'\n",
      "  warnings.warn(message, RuntimeWarning)\n",
      "/usr/local/lib/python3.6/dist-packages/metar/Metar.py:437: RuntimeWarning: Unparsed groups in body 'WS R10' while processing 'METAR RCSS 020130Z 11016KT 9999 FEW025 33/25 Q1009 WS R10 NOSIG RMK A2982(K)=   \n",
      "'\n",
      "  warnings.warn(message, RuntimeWarning)\n",
      "/usr/local/lib/python3.6/dist-packages/metar/Metar.py:437: RuntimeWarning: Unparsed groups in body 'WS R10' while processing 'SPECI RCSS 020316Z 11016KT 080V150 9999 FEW025 34/25 Q1009 WS R10 NOSIG RMK A2981(O)=   \n",
      "'\n",
      "  warnings.warn(message, RuntimeWarning)\n",
      "/usr/local/lib/python3.6/dist-packages/metar/Metar.py:437: RuntimeWarning: Unparsed groups in body 'WS R10' while processing 'METAR RCSS 020330Z 11018KT 9999 FEW025 34/25 Q1009 WS R10 NOSIG RMK A2980(P)=   \n",
      "'\n",
      "  warnings.warn(message, RuntimeWarning)\n",
      "/usr/local/lib/python3.6/dist-packages/metar/Metar.py:437: RuntimeWarning: Unparsed groups in body 'WS R10' while processing 'METAR RCSS 020400Z 10020KT 9999 FEW025 34/25 Q1008 WS R10 NOSIG RMK A2978(Q)=   \n",
      "'\n",
      "  warnings.warn(message, RuntimeWarning)\n",
      "/usr/local/lib/python3.6/dist-packages/metar/Metar.py:437: RuntimeWarning: Unparsed groups in body 'WS R10' while processing 'METAR RCSS 020430Z 11017KT 9999 FEW025 34/25 Q1008 WS R10 NOSIG RMK A2977(R)=   \n",
      "'\n",
      "  warnings.warn(message, RuntimeWarning)\n",
      "/usr/local/lib/python3.6/dist-packages/metar/Metar.py:437: RuntimeWarning: Unparsed groups in body 'WS R10' while processing 'SPECI RCSS 020512Z 11018KT 9999 FEW025 35/24 Q1007 WS R10 NOSIG RMK A2975(T)=   \n",
      "'\n",
      "  warnings.warn(message, RuntimeWarning)\n",
      "/usr/local/lib/python3.6/dist-packages/metar/Metar.py:437: RuntimeWarning: Unparsed groups in body 'WS R10' while processing 'METAR RCSS 020530Z 11021KT 9999 FEW025 34/25 Q1007 WS R10 NOSIG RMK A2975(U)=   \n",
      "'\n",
      "  warnings.warn(message, RuntimeWarning)\n",
      "/usr/local/lib/python3.6/dist-packages/metar/Metar.py:437: RuntimeWarning: Unparsed groups in body 'WS R10' while processing 'SPECI RCSS 020719Z 10018KT 9999 FEW025 34/25 Q1006 WS R10 NOSIG RMK A2973(Y)=   \n",
      "'\n",
      "  warnings.warn(message, RuntimeWarning)\n",
      "/usr/local/lib/python3.6/dist-packages/metar/Metar.py:437: RuntimeWarning: Unparsed groups in body 'WS R10' while processing 'METAR RCSS 020730Z 11017KT 9999 FEW025 34/25 Q1006 WS R10 NOSIG RMK A2973(Z)=   \n",
      "'\n",
      "  warnings.warn(message, RuntimeWarning)\n",
      "/usr/local/lib/python3.6/dist-packages/metar/Metar.py:437: RuntimeWarning: Unparsed groups in body 'WS R10' while processing 'SPECI RCSS 020906Z 11018KT 9999 FEW025 32/24 Q1006 WS R10 NOSIG RMK A2973(D)=   \n",
      "'\n",
      "  warnings.warn(message, RuntimeWarning)\n",
      "/usr/local/lib/python3.6/dist-packages/metar/Metar.py:437: RuntimeWarning: Unparsed groups in body 'WS R10' while processing 'METAR RCSS 020930Z 12017KT 9999 FEW025 32/24 Q1007 WS R10 NOSIG RMK A2974(E)=   \n",
      "'\n",
      "  warnings.warn(message, RuntimeWarning)\n",
      "/usr/local/lib/python3.6/dist-packages/metar/Metar.py:437: RuntimeWarning: Unparsed groups in body 'WS R10' while processing 'METAR RCSS 021000Z 12014KT 9999 FEW025 SCT250 31/24 Q1007 WS R10 NOSIG RMK A2975(F)=   \n",
      "'\n",
      "  warnings.warn(message, RuntimeWarning)\n",
      "/usr/local/lib/python3.6/dist-packages/metar/Metar.py:437: RuntimeWarning: Unparsed groups in body 'WS R10' while processing 'SPECI RCSS 030202Z 09015KT 070V130 9999 FEW020 SCT220 33/25 Q1007 WS R10 NOSIG RMK A2975(G)=   \n",
      "'\n",
      "  warnings.warn(message, RuntimeWarning)\n",
      "/usr/local/lib/python3.6/dist-packages/metar/Metar.py:437: RuntimeWarning: Unparsed groups in body 'WS R10' while processing 'METAR RCSS 030230Z 10020KT 9999 FEW020 SCT035 33/24 Q1007 WS R10 NOSIG RMK A2975(H)=   \n",
      "'\n",
      "  warnings.warn(message, RuntimeWarning)\n",
      "/usr/local/lib/python3.6/dist-packages/metar/Metar.py:437: RuntimeWarning: Unparsed groups in body 'WS R10' while processing 'METAR RCSS 030300Z 10020KT 9999 FEW020 SCT250 33/25 Q1007 WS R10 NOSIG RMK A2974(I)=   \n",
      "'\n",
      "  warnings.warn(message, RuntimeWarning)\n",
      "/usr/local/lib/python3.6/dist-packages/metar/Metar.py:437: RuntimeWarning: Unparsed groups in body 'WS R10' while processing 'METAR RCSS 030330Z 10020KT 9999 FEW020 SCT250 33/25 Q1006 WS R10 NOSIG RMK A2973(J)=   \n",
      "'\n",
      "  warnings.warn(message, RuntimeWarning)\n",
      "/usr/local/lib/python3.6/dist-packages/metar/Metar.py:437: RuntimeWarning: Unparsed groups in body 'WS R10' while processing 'METAR RCSS 030400Z 08016G26KT 050V110 9999 FEW020 SCT250 34/25 Q1006 WS R10 NOSIG RMK A2972(K)=   \n",
      "'\n",
      "  warnings.warn(message, RuntimeWarning)\n",
      "/usr/local/lib/python3.6/dist-packages/metar/Metar.py:437: RuntimeWarning: Unparsed groups in body 'WS R10' while processing 'METAR RCSS 030430Z 09018KT 9999 FEW020 SCT250 33/25 Q1006 WS R10 NOSIG RMK A2971(L)=   \n",
      "'\n",
      "  warnings.warn(message, RuntimeWarning)\n",
      "/usr/local/lib/python3.6/dist-packages/metar/Metar.py:437: RuntimeWarning: Unparsed groups in body 'WS R10' while processing 'METAR RCSS 030500Z 09018KT 9999 FEW020 SCT250 34/25 Q1005 WS R10 NOSIG RMK A2970(M)=   \n",
      "'\n",
      "  warnings.warn(message, RuntimeWarning)\n",
      "/usr/local/lib/python3.6/dist-packages/metar/Metar.py:437: RuntimeWarning: Unparsed groups in body 'WS R10' while processing 'METAR RCSS 030530Z 09017KT 9999 FEW025 SCT180 BKN300 33/24 Q1005 WS R10 NOSIG RMK A2970(N)=   \n",
      "'\n",
      "  warnings.warn(message, RuntimeWarning)\n",
      "/usr/local/lib/python3.6/dist-packages/metar/Metar.py:437: RuntimeWarning: Unparsed groups in body 'WS R10' while processing 'SPECI RCSS 030832Z 09016KT 9999 VCSH FEW020 SCT150 BKN250 30/24 Q1005 WS R10 NOSIG RMK A2969(W)=   \n",
      "'\n",
      "  warnings.warn(message, RuntimeWarning)\n",
      "/usr/local/lib/python3.6/dist-packages/metar/Metar.py:437: RuntimeWarning: Unparsed groups in body 'WS R10' while processing 'SPECI RCSS 030846Z 08013KT 9999 -SHRA FEW020 SCT150 BKN250 31/24 Q1005 WS R10 NOSIG RMK A2969(X)=   \n",
      "'\n",
      "  warnings.warn(message, RuntimeWarning)\n"
     ]
    },
    {
     "name": "stderr",
     "output_type": "stream",
     "text": [
      "/usr/local/lib/python3.6/dist-packages/metar/Metar.py:437: RuntimeWarning: Unparsed groups in body 'WS R10' while processing 'SPECI RCSS 070618Z VRB06KT 9999 VCSH FEW018 FEW020TCU SCT040 BKN200 33/26 Q1002 WS R10 NOSIG RMK TCU E AND S A2960(R)=   \n",
      "'\n",
      "  warnings.warn(message, RuntimeWarning)\n",
      "/usr/local/lib/python3.6/dist-packages/metar/Metar.py:437: RuntimeWarning: Unparsed groups in body 'WS R10' while processing 'SPECI RCSS 070628Z 12013KT 9999 -SHRA FEW018 FEW020TCU BKN035 BKN055 31/24 Q1002 WS R10 NOSIG RMK TCU E A2960(S)=   \n",
      "'\n",
      "  warnings.warn(message, RuntimeWarning)\n",
      "/usr/local/lib/python3.6/dist-packages/metar/Metar.py:437: RuntimeWarning: Unparsed groups in body 'WS R10' while processing 'METAR RCSS 070630Z 12013KT 9999 -SHRA FEW018 FEW020TCU BKN035 BKN055 31/24 Q1002 RETS WS R10 NOSIG RMK TCU E A2960(T)=   \n",
      "'\n",
      "  warnings.warn(message, RuntimeWarning)\n",
      "/usr/local/lib/python3.6/dist-packages/metar/Metar.py:437: RuntimeWarning: Unparsed groups in body 'WS R10' while processing 'METAR RCSS 070700Z 08006KT 050V120 9999 -SHRA FEW018 FEW020TCU SCT035 BKN050 30/25 Q1002 WS R10 NOSIG RMK TCU E A2960(U)=   \n",
      "'\n",
      "  warnings.warn(message, RuntimeWarning)\n",
      "/usr/local/lib/python3.6/dist-packages/metar/Metar.py:437: RuntimeWarning: Unparsed groups in body 'WS R10' while processing 'SPECI RCSS 070721Z 11007KT 070V130 9999 VCSH FEW018 SCT040 BKN060 31/25 Q1002 WS R10 NOSIG RMK A2961(V)=   \n",
      "'\n",
      "  warnings.warn(message, RuntimeWarning)\n",
      "/usr/local/lib/python3.6/dist-packages/metar/Metar.py:437: RuntimeWarning: Unparsed groups in body 'WS R10' while processing 'SPECI RCSS 070728Z 11007KT 070V140 9999 -RA FEW018 SCT040 BKN060 31/25 Q1002 WS R10 NOSIG RMK A2961(W)=   \n",
      "'\n",
      "  warnings.warn(message, RuntimeWarning)\n",
      "/usr/local/lib/python3.6/dist-packages/metar/Metar.py:437: RuntimeWarning: Unparsed groups in body 'WS R10' while processing 'SPECI RCSS 080206Z 31004KT 280V340 9999 VCSH FEW018 FEW025TCU SCT150 31/26 Q1006 WS R10 NOSIG RMK TCU W A2971(J)=   \n",
      "'\n",
      "  warnings.warn(message, RuntimeWarning)\n",
      "/usr/local/lib/python3.6/dist-packages/metar/Metar.py:437: RuntimeWarning: Unparsed groups in body 'WS R10' while processing 'SPECI RCSS 080220Z 28007KT 8000 -SHRA FEW016 FEW020TCU SCT030 29/26 Q1006 WS R10 TEMPO 5000 SHRA RMK TCU OVHD AND W A2971(K)=   \n",
      "'\n",
      "  warnings.warn(message, RuntimeWarning)\n",
      "/usr/local/lib/python3.6/dist-packages/metar/Metar.py:437: RuntimeWarning: Unparsed groups in body 'WS R10' while processing 'SPECI RCSS 080222Z 29007KT 260V320 7000 SHRA FEW016 FEW020TCU SCT030 29/25 Q1006 WS R10 TEMPO 5000 SHRA RMK TCU OVHD AND W A2971(L)=   \n",
      "'\n",
      "  warnings.warn(message, RuntimeWarning)\n",
      "/usr/local/lib/python3.6/dist-packages/metar/Metar.py:437: RuntimeWarning: Unparsed groups in body 'WS R10' while processing 'METAR RCSS 080230Z 32005KT 260V020 9000 SHRA FEW016 FEW020TCU SCT030 28/25 Q1006 WS R10 NOSIG RMK TCU OVHD AND E A2971(M)=   \n",
      "'\n",
      "  warnings.warn(message, RuntimeWarning)\n",
      "/usr/local/lib/python3.6/dist-packages/metar/Metar.py:437: RuntimeWarning: Unparsed groups in body 'WS R10' while processing 'SPECI RCSS 080633Z 34005KT 290V050 9999 FEW020 FEW022TCU SCT030 34/25 Q1003 WS R10 NOSIG RMK TCU S A2963(Y)=   \n",
      "'\n",
      "  warnings.warn(message, RuntimeWarning)\n",
      "/usr/local/lib/python3.6/dist-packages/metar/Metar.py:437: RuntimeWarning: Unparsed groups in body 'WS R10' while processing 'METAR RCSS 080700Z 11006KT 050V160 9999 FEW020 FEW022TCU BKN030 33/27 Q1003 RETS WS R10 NOSIG RMK TCU S A2964(Z)=   \n",
      "'\n",
      "  warnings.warn(message, RuntimeWarning)\n",
      "/usr/local/lib/python3.6/dist-packages/metar/Metar.py:437: RuntimeWarning: Unparsed groups in body 'WS R10' while processing 'SPECI RCSS 080718Z 09010KT 9999 VCTS FEW020 FEW022CB BKN035 30/25 Q1004 WS R10 NOSIG RMK TS S STNR A2965(A)=   \n",
      "'\n",
      "  warnings.warn(message, RuntimeWarning)\n",
      "/usr/local/lib/python3.6/dist-packages/metar/Metar.py:437: RuntimeWarning: Unparsed groups in body 'WS R10' while processing 'SPECI RCSS 080752Z 13012KT 9999 VCTS FEW020 FEW022CB BKN035 30/24 Q1004 WS R10 NOSIG RMK TS S STNR A2966(C)=   \n",
      "'\n",
      "  warnings.warn(message, RuntimeWarning)\n",
      "/usr/local/lib/python3.6/dist-packages/metar/Metar.py:437: RuntimeWarning: Unparsed groups in body 'WS R10' while processing 'METAR RCSS 080800Z 10010KT 9999 VCTS FEW020 FEW022CB BKN035 BKN080 29/24 Q1004 WS R10 NOSIG RMK TS SE STNR A2967(D)=   \n",
      "'\n",
      "  warnings.warn(message, RuntimeWarning)\n",
      "/usr/local/lib/python3.6/dist-packages/metar/Metar.py:437: RuntimeWarning: Unparsed groups in body 'WS R10' while processing 'SPECI RCSS 080806Z 10010KT 9999 FEW020 FEW022TCU BKN035 BKN080 29/23 Q1004 RETS WS R10 NOSIG RMK TCU E A2967(E)=   \n",
      "'\n",
      "  warnings.warn(message, RuntimeWarning)\n",
      "/usr/local/lib/python3.6/dist-packages/metar/Metar.py:437: RuntimeWarning: Unparsed groups in body 'WS R10' while processing 'SPECI RCSS 110942Z 09015KT 9999 FEW030 30/25 Q1010 WS R10 NOSIG RMK A2984(E)=   \n",
      "'\n",
      "  warnings.warn(message, RuntimeWarning)\n",
      "/usr/local/lib/python3.6/dist-packages/metar/Metar.py:437: RuntimeWarning: Unparsed groups in body 'WS R10' while processing 'METAR RCSS 111000Z 09014KT 9999 FEW030 30/25 Q1010 WS R10 NOSIG RMK A2984(F)=   \n",
      "'\n",
      "  warnings.warn(message, RuntimeWarning)\n",
      "/usr/local/lib/python3.6/dist-packages/metar/Metar.py:437: RuntimeWarning: Unparsed groups in body 'WS R10' while processing 'SPECI RCSS 120210Z 09013KT 9999 SCT025 33/26 Q1011 WS R10 NOSIG RMK A2986(H)=   \n",
      "'\n",
      "  warnings.warn(message, RuntimeWarning)\n",
      "/usr/local/lib/python3.6/dist-packages/metar/Metar.py:437: RuntimeWarning: Unparsed groups in body 'WS R10' while processing 'METAR RCSS 120230Z 08012KT 060V120 9999 SCT025 33/26 Q1010 WS R10 NOSIG RMK A2985(I)=   \n",
      "'\n",
      "  warnings.warn(message, RuntimeWarning)\n",
      "/usr/local/lib/python3.6/dist-packages/metar/Metar.py:437: RuntimeWarning: Unparsed groups in body 'WS R10' while processing 'METAR RCSS 120300Z 07013KT 9999 SCT025 BKN050 32/26 Q1010 WS R10 NOSIG RMK A2985(J)=   \n",
      "'\n",
      "  warnings.warn(message, RuntimeWarning)\n",
      "/usr/local/lib/python3.6/dist-packages/metar/Metar.py:437: RuntimeWarning: Unparsed groups in body 'WS R10' while processing 'SPECI RCSS 140648Z 08011KT 040V110 9999 FEW025 SCT050 32/25 Q1006 WS R10 NOSIG RMK A2973(Z)=   \n",
      "'\n",
      "  warnings.warn(message, RuntimeWarning)\n",
      "/usr/local/lib/python3.6/dist-packages/metar/Metar.py:437: RuntimeWarning: Unparsed groups in body 'WS R10' while processing 'METAR RCSS 140700Z 08012KT 050V110 9999 FEW025 SCT050 32/25 Q1006 WS R10 NOSIG RMK A2973(A)=   \n",
      "'\n",
      "  warnings.warn(message, RuntimeWarning)\n",
      "/usr/local/lib/python3.6/dist-packages/metar/Metar.py:437: RuntimeWarning: Unparsed groups in body 'WS R10' while processing 'METAR RCSS 140730Z 08011KT 040V100 9999 FEW025 SCT045 32/25 Q1006 WS R10 NOSIG RMK A2973(B)=   \n",
      "'\n",
      "  warnings.warn(message, RuntimeWarning)\n",
      "/usr/local/lib/python3.6/dist-packages/metar/Metar.py:437: RuntimeWarning: Unparsed groups in body 'WS R10' while processing 'SPECI RCSS 181226Z 07008KT 020V110 9999 FEW012 SCT020 BKN050 27/20 Q1013 WS R10 NOSIG RMK A2994(S)=   \n",
      "'\n",
      "  warnings.warn(message, RuntimeWarning)\n",
      "/usr/local/lib/python3.6/dist-packages/metar/Metar.py:437: RuntimeWarning: Unparsed groups in body 'WS R10' while processing 'METAR RCSS 181230Z 05006KT 300V110 9999 FEW012 SCT020 BKN050 27/20 Q1013 WS R10 NOSIG RMK A2994(T)=   \n",
      "'\n",
      "  warnings.warn(message, RuntimeWarning)\n",
      "/usr/local/lib/python3.6/dist-packages/metar/Metar.py:437: RuntimeWarning: Unparsed groups in body 'WS R10' while processing 'SPECI RCSS 190059Z 05009KT 350V100 9999 VCSH FEW015 SCT060 29/20 Q1012 WS R10 NOSIG RMK A2991(Q)=   \n",
      "'\n",
      "  warnings.warn(message, RuntimeWarning)\n",
      "/usr/local/lib/python3.6/dist-packages/metar/Metar.py:437: RuntimeWarning: Unparsed groups in body 'WS R10' while processing 'METAR RCSS 190100Z 05009KT 350V100 9999 VCSH FEW015 SCT060 29/20 Q1012 WS R10 NOSIG RMK A2991(R)=   \n",
      "'\n",
      "  warnings.warn(message, RuntimeWarning)\n",
      "/usr/local/lib/python3.6/dist-packages/metar/Metar.py:437: RuntimeWarning: Unparsed groups in body 'WS R10' while processing 'SPECI RCSS 201039Z 21004KT 170V240 5000 -RA SCT008 BKN020 BKN030 23/21 Q1005 WS R10 NOSIG RMK A2970(J)=   \n",
      "'\n",
      "  warnings.warn(message, RuntimeWarning)\n",
      "/usr/local/lib/python3.6/dist-packages/metar/Metar.py:437: RuntimeWarning: Unparsed groups in body 'WS R10' while processing 'METAR RCSS 201100Z 17003KT 5000 -RA FEW008 BKN020 BKN030 23/21 Q1005 WS R10 NOSIG RMK A2970 RA AMT 1.0MM(K)=   \n",
      "'\n",
      "  warnings.warn(message, RuntimeWarning)\n",
      "/usr/local/lib/python3.6/dist-packages/metar/Metar.py:437: RuntimeWarning: Unparsed groups in body 'WS R10' while processing 'SPECI RCSS 240136Z 08008KT 020V110 9999 FEW018 SCT035 BKN050 26/20 Q1019 WS R10 NOSIG RMK A3010(B)=   \n",
      "'\n",
      "  warnings.warn(message, RuntimeWarning)\n",
      "/usr/local/lib/python3.6/dist-packages/metar/Metar.py:437: RuntimeWarning: Unparsed groups in body 'WS R10' while processing 'METAR RCSS 240200Z 09010KT 9999 FEW018 SCT035 BKN050 25/20 Q1019 WS R10 NOSIG RMK A3010(C)=   \n",
      "'\n",
      "  warnings.warn(message, RuntimeWarning)\n",
      "/usr/local/lib/python3.6/dist-packages/metar/Metar.py:437: RuntimeWarning: Unparsed groups in body 'WS R10' while processing 'SPECI RCSS 250609Z 08012KT 9999 FEW025 29/19 Q1016 WS R10 NOSIG RMK A3001(B)=   \n",
      "'\n",
      "  warnings.warn(message, RuntimeWarning)\n",
      "/usr/local/lib/python3.6/dist-packages/metar/Metar.py:437: RuntimeWarning: Unparsed groups in body 'WS R10' while processing 'METAR RCSS 250630Z 07013KT 010V100 9999 FEW025 29/19 Q1016 WS R10 NOSIG RMK A3001(C)=   \n",
      "'\n",
      "  warnings.warn(message, RuntimeWarning)\n",
      "/usr/local/lib/python3.6/dist-packages/metar/Metar.py:437: RuntimeWarning: Unparsed groups in body 'WS R10' while processing 'METAR RCSS 250700Z 07012KT 9999 FEW025 29/19 Q1016 WS R10 NOSIG RMK A3001(D)=   \n",
      "'\n",
      "  warnings.warn(message, RuntimeWarning)\n"
     ]
    },
    {
     "name": "stderr",
     "output_type": "stream",
     "text": [
      "/usr/local/lib/python3.6/dist-packages/metar/Metar.py:437: RuntimeWarning: Unparsed groups in body 'WS R10' while processing 'SPECI RCSS 290502Z 08014KT 030V100 9999 -SHRA FEW012 SCT025 BKN050 31/26 Q1011 WS R10 NOSIG RMK A2986(V)=   \n",
      "'\n",
      "  warnings.warn(message, RuntimeWarning)\n",
      "/usr/local/lib/python3.6/dist-packages/metar/Metar.py:437: RuntimeWarning: Unparsed groups in body 'WS R10' while processing 'SPECI RCSS 290519Z 07011KT 040V100 9999 FEW012 SCT030 BKN060 31/26 Q1011 WS R10 NOSIG RMK A2986(W)=   \n",
      "'\n",
      "  warnings.warn(message, RuntimeWarning)\n",
      "/usr/local/lib/python3.6/dist-packages/metar/Metar.py:437: RuntimeWarning: Unparsed groups in body 'WS R10' while processing 'METAR RCSS 290530Z 07013G23KT 9999 FEW012 SCT030 BKN060 31/26 Q1010 WS R10 NOSIG RMK A2985(X)=   \n",
      "'\n",
      "  warnings.warn(message, RuntimeWarning)\n",
      "/usr/local/lib/python3.6/dist-packages/metar/Metar.py:437: RuntimeWarning: Unparsed groups in body 'WS R10' while processing 'METAR RCSS 290600Z 07014KT 040V100 9999 FEW008 SCT018 BKN060 31/26 Q1010 WS R10 NOSIG RMK A2984(Y)=   \n",
      "'\n",
      "  warnings.warn(message, RuntimeWarning)\n",
      "/usr/local/lib/python3.6/dist-packages/metar/Metar.py:437: RuntimeWarning: Unparsed groups in body 'WS R10' while processing 'METAR RCSS 290630Z 08014KT 9999 FEW008 SCT016 BKN060 30/26 Q1010 WS R10 NOSIG RMK A2984(Z)=   \n",
      "'\n",
      "  warnings.warn(message, RuntimeWarning)\n",
      "/usr/local/lib/python3.6/dist-packages/metar/Metar.py:437: RuntimeWarning: Unparsed groups in body 'WS R10' while processing 'SPECI RCSS 291047Z 09015KT 050V110 5000 -SHRA FEW006 BKN015 BKN035 27/26 Q1011 WS R10 NOSIG RMK A2986(P)=   \n",
      "'\n",
      "  warnings.warn(message, RuntimeWarning)\n",
      "/usr/local/lib/python3.6/dist-packages/metar/Metar.py:437: RuntimeWarning: Unparsed groups in body 'WS R10' while processing 'METAR RCSS 291100Z 10016KT 4500 -SHRA FEW005 BKN014 BKN035 26/26 Q1011 WS R10 NOSIG RMK QFF 1011.1HPA A2986 RA AMT 5.6MM(Q)=   \n",
      "'\n",
      "  warnings.warn(message, RuntimeWarning)\n",
      "/usr/local/lib/python3.6/dist-packages/metar/Metar.py:437: RuntimeWarning: Unparsed groups in body 'WS R10' while processing 'SPECI RCSS 300318Z 08015KT 9999 -SHRA FEW010 SCT030 BKN060 26/24 Q1006 WS R10 NOSIG RMK A2973(Y)=   \n",
      "'\n",
      "  warnings.warn(message, RuntimeWarning)\n",
      "/usr/local/lib/python3.6/dist-packages/metar/Metar.py:437: RuntimeWarning: Unparsed groups in body 'WS R10' while processing 'METAR RCSS 300330Z 08018G29KT 9999 -SHRA FEW008 SCT030 BKN080 27/24 Q1006 WS R10 NOSIG RMK A2973(Z)=   \n",
      "'\n",
      "  warnings.warn(message, RuntimeWarning)\n",
      "/usr/local/lib/python3.6/dist-packages/metar/Metar.py:437: RuntimeWarning: Unparsed groups in body 'WS R10' while processing 'METAR RCSS 300400Z 07016G27KT 9999 -SHRA FEW010 SCT025 BKN060 27/24 Q1006 WS R10 NOSIG RMK QFF 1006.4HPA A2972(A)=   \n",
      "'\n",
      "  warnings.warn(message, RuntimeWarning)\n",
      "/usr/local/lib/python3.6/dist-packages/metar/Metar.py:437: RuntimeWarning: Unparsed groups in body 'WS R10' while processing 'SPECI RCSS 300454Z 07014G24KT 050V110 5000 -SHRA FEW008 BKN018 BKN040 27/24 Q1004 WS R10 NOSIG RMK A2967(E)=   \n",
      "'\n",
      "  warnings.warn(message, RuntimeWarning)\n",
      "/usr/local/lib/python3.6/dist-packages/metar/Metar.py:437: RuntimeWarning: Unparsed groups in body 'WS R10' while processing 'METAR RCSS 300500Z 07015KT 050V110 5000 -SHRA FEW008 SCT018 BKN050 27/24 Q1004 WS R10 NOSIG RMK QFF 1004.7HPA A2967(F)=   \n",
      "'\n",
      "  warnings.warn(message, RuntimeWarning)\n",
      "/usr/local/lib/python3.6/dist-packages/metar/Metar.py:437: RuntimeWarning: Unparsed groups in body 'WS R10' while processing 'SPECI RCSS 300547Z 07016G31KT 010V090 9999 -SHRA FEW008 BKN018 BKN050 27/23 Q1003 WS R10 NOSIG RMK A2963(I)=   \n",
      "'\n",
      "  warnings.warn(message, RuntimeWarning)\n",
      "/usr/local/lib/python3.6/dist-packages/metar/Metar.py:437: RuntimeWarning: Unparsed groups in body 'WS R10' while processing 'METAR RCSS 300600Z 07017G31KT 030V090 9999 -SHRA FEW008 BKN018 BKN040 27/23 Q1003 WS R10 NOSIG RMK QFF 1003.0HPA A2962 RA AMT 0.2MM(J)=   \n",
      "'\n",
      "  warnings.warn(message, RuntimeWarning)\n",
      "/usr/local/lib/python3.6/dist-packages/metar/Metar.py:437: RuntimeWarning: Unparsed groups in body 'WS R10' while processing 'METAR RCSS 300630Z 07018G35KT 030V110 6000 -SHRA FEW008 BKN017 BKN040 27/23 Q1002 WS R10 NOSIG RMK A2960(K)=   \n",
      "'\n",
      "  warnings.warn(message, RuntimeWarning)\n",
      "/usr/local/lib/python3.6/dist-packages/metar/Metar.py:437: RuntimeWarning: Unparsed groups in body 'WS R10' while processing 'METAR RCSS 300700Z 05011G23KT 350V100 9999 -SHRA FEW008 BKN016 BKN040 27/23 Q1002 WS R10 NOSIG RMK QFF 1002.3HPA A2960 RA AMT 0.8MM(L)=   \n",
      "'\n",
      "  warnings.warn(message, RuntimeWarning)\n",
      "/usr/local/lib/python3.6/dist-packages/metar/Metar.py:437: RuntimeWarning: Unparsed groups in body 'WS R10' while processing 'METAR RCSS 300730Z VRB11G25KT 9999 -SHRA SCT008 BKN016 BKN035 27/24 Q1001 WS R10 TEMPO 3000 SHRA SCT006 BKN010 BKN025 RMK A2958(M)=   \n",
      "'\n",
      "  warnings.warn(message, RuntimeWarning)\n",
      "/usr/local/lib/python3.6/dist-packages/metar/Metar.py:437: RuntimeWarning: Unparsed groups in body 'WS R10' while processing 'SPECI RCSS 300744Z 05019G39KT 350V100 5000 -SHRA SCT008 BKN016 BKN035 27/23 Q1001 WS R10 TEMPO 3000 SHRA SCT006 BKN010 BKN025 RMK A2958(N)=   \n",
      "'\n",
      "  warnings.warn(message, RuntimeWarning)\n",
      "/usr/local/lib/python3.6/dist-packages/metar/Metar.py:437: RuntimeWarning: Unparsed groups in body 'WS R10' while processing 'SPECI RCSS 300757Z 06019G44KT 020V090 3500 SHRA SCT008 BKN016 BKN035 27/23 Q1002 WS R10 TEMPO 3000 SHRA SCT006 BKN010 BKN025 RMK A2959(O)=   \n",
      "'\n",
      "  warnings.warn(message, RuntimeWarning)\n",
      "/usr/local/lib/python3.6/dist-packages/metar/Metar.py:437: RuntimeWarning: Unparsed groups in body 'WS R10' while processing 'METAR RCSS 300800Z 06021G44KT 020V080 3500 SHRA SCT008 BKN016 BKN035 26/24 Q1002 WS R10 NOSIG RMK QFF 1002.3HPA A2960 RA AMT 0.4MM(P)=   \n",
      "'\n",
      "  warnings.warn(message, RuntimeWarning)\n",
      "/usr/local/lib/python3.6/dist-packages/metar/Metar.py:437: RuntimeWarning: Unparsed groups in body 'WS R10' while processing 'SPECI RCSS 300810Z 06019G33KT 030V090 4000 SHRA FEW008 BKN016 BKN035 26/23 Q1002 WS R10 NOSIG RMK A2960(Q)=   \n",
      "'\n",
      "  warnings.warn(message, RuntimeWarning)\n",
      "/usr/local/lib/python3.6/dist-packages/metar/Metar.py:437: RuntimeWarning: Unparsed groups in body 'WS R10' while processing 'METAR RCSS 300830Z 07016G32KT 010V100 3500 SHRA FEW008 BKN018 BKN035 25/23 Q1001 WS R10 NOSIG RMK A2958(R)=   \n",
      "'\n",
      "  warnings.warn(message, RuntimeWarning)\n",
      "/usr/local/lib/python3.6/dist-packages/metar/Metar.py:437: RuntimeWarning: Unparsed groups in body 'WS R10' while processing 'SPECI RCSS 300839Z 08014G32KT 030V110 2000 +SHRA SCT006 BKN015 BKN030 25/23 Q1001 WS R10 NOSIG RMK A2958(S)=   \n",
      "'\n",
      "  warnings.warn(message, RuntimeWarning)\n",
      "/usr/local/lib/python3.6/dist-packages/metar/Metar.py:437: RuntimeWarning: Unparsed groups in body 'WS R10' while processing 'SPECI RCSS 300845Z 07017G32KT 360V100 1000 R10/1000D +SHRA SCT006 BKN012 BKN025 25/23 Q1001 WS R10 NOSIG RMK A2957(T)=   \n",
      "'\n",
      "  warnings.warn(message, RuntimeWarning)\n",
      "/usr/local/lib/python3.6/dist-packages/metar/Metar.py:437: RuntimeWarning: Unparsed groups in body 'WS R10' while processing 'SPECI RCSS 300856Z 06017G33KT 010V100 1500 +SHRA SCT006 BKN015 BKN030 25/24 Q1000 WS R10 NOSIG RMK A2955(U)=   \n",
      "'\n",
      "  warnings.warn(message, RuntimeWarning)\n",
      "/usr/local/lib/python3.6/dist-packages/metar/Metar.py:437: RuntimeWarning: Unparsed groups in body 'WS R10' while processing 'METAR RCSS 300900Z 06018G38KT 010V100 2500 SHRA FEW006 BKN015 BKN030 25/24 Q1000 WS R10 NOSIG RMK QFF 1000.6HPA A2955 RA AMT 10.4MM(V)=   \n",
      "'\n",
      "  warnings.warn(message, RuntimeWarning)\n",
      "/usr/local/lib/python3.6/dist-packages/metar/Metar.py:437: RuntimeWarning: Unparsed groups in body 'WS R10' while processing 'SPECI RCSS 300913Z 07026G50KT 3000 SHRA FEW006 BKN015 BKN030 25/23 Q1000 WS R10 NOSIG RMK A2954(W)=   \n",
      "'\n",
      "  warnings.warn(message, RuntimeWarning)\n",
      "/usr/local/lib/python3.6/dist-packages/metar/Metar.py:437: RuntimeWarning: Unparsed groups in body 'WS R10' while processing 'SPECI RCSS 300924Z 07024G38KT 030V100 4000 SHRA FEW006 BKN015 BKN030 25/23 Q1000 WS R10 NOSIG RMK A2954(X)=   \n",
      "'\n",
      "  warnings.warn(message, RuntimeWarning)\n",
      "/usr/local/lib/python3.6/dist-packages/metar/Metar.py:437: RuntimeWarning: Unparsed groups in body 'WS R10' while processing 'METAR RCSS 300930Z 07023G36KT 030V100 4000 SHRA FEW006 BKN015 BKN030 25/23 Q1000 WS R10 NOSIG RMK A2954(Y)=   \n",
      "'\n",
      "  warnings.warn(message, RuntimeWarning)\n",
      "/usr/local/lib/python3.6/dist-packages/metar/Metar.py:437: RuntimeWarning: Unparsed groups in body 'WS R10' while processing 'METAR RCSS 301000Z 07016G33KT 030V120 4000 SHRA FEW006 BKN015 BKN035 25/23 Q1000 WS R10 TEMPO 3000 +SHRA SCT006 BKN012 BKN025 RMK QFF 1000.6HPA A2955 RA AMT 3.4MM(Z)=   \n",
      "'\n",
      "  warnings.warn(message, RuntimeWarning)\n",
      "/usr/local/lib/python3.6/dist-packages/metar/Metar.py:437: RuntimeWarning: Unparsed groups in body 'WS R10' while processing 'METAR RCSS 301030Z 06013G33KT 360V090 5000 SHRA FEW006 BKN018 BKN050 25/23 Q1000 WS R10 NOSIG RMK A2954(A)=   \n",
      "'\n",
      "  warnings.warn(message, RuntimeWarning)\n",
      "/usr/local/lib/python3.6/dist-packages/metar/Metar.py:437: RuntimeWarning: Unparsed groups in body 'WS R10' while processing 'SPECI RCSS 301049Z 04011G26KT 320V090 4000 SHRA FEW006 BKN018 BKN045 25/23 Q1000 WS R10 NOSIG RMK A2953(B)=   \n",
      "'\n",
      "  warnings.warn(message, RuntimeWarning)\n",
      "/usr/local/lib/python3.6/dist-packages/metar/Metar.py:437: RuntimeWarning: Unparsed groups in body 'WS R10' while processing 'METAR RCSS 301100Z 04011KT 360V100 4000 SHRA FEW006 BKN018 BKN045 25/23 Q0999 WS R10 NOSIG RMK QFF 999.6HPA A2952 RA AMT 4.2MM(C)=   \n",
      "'\n",
      "  warnings.warn(message, RuntimeWarning)\n",
      "/usr/local/lib/python3.6/dist-packages/metar/Metar.py:437: RuntimeWarning: Unparsed groups in body 'WS R10' while processing 'SPECI RCSS 301125Z 04011G25KT 340V090 3000 SHRA FEW006 BKN018 BKN045 26/24 Q0999 WS R10 TEMPO 1500 RMK A2952(D)=   \n",
      "'\n",
      "  warnings.warn(message, RuntimeWarning)\n",
      "/usr/local/lib/python3.6/dist-packages/metar/Metar.py:437: RuntimeWarning: Unparsed groups in body 'WS R10' while processing 'METAR RCSS 301130Z VRB11G25KT 3000 SHRA FEW006 BKN018 BKN045 26/23 Q0999 WS R10 TEMPO 1500 RMK A2952(E)=   \n",
      "'\n",
      "  warnings.warn(message, RuntimeWarning)\n",
      "/usr/local/lib/python3.6/dist-packages/metar/Metar.py:437: RuntimeWarning: Unparsed groups in body 'WS R10' while processing 'METAR RCSS 301200Z 03013G28KT 330V080 3000 SHRA FEW006 BKN018 BKN045 25/22 Q1000 WS R10 TEMPO 1500 RMK QFF 1000.0HPA A2953 RA AMT 6.6MM(F)=   \n",
      "'\n",
      "  warnings.warn(message, RuntimeWarning)\n",
      "/usr/local/lib/python3.6/dist-packages/metar/Metar.py:437: RuntimeWarning: Unparsed groups in body 'WS R10' while processing 'SPECI RCSS 301215Z 03009G23KT 330V100 4500 SHRA FEW006 BKN020 BKN040 25/22 Q0999 WS R10 TEMPO 3000 RMK A2952(G)=   \n",
      "'\n",
      "  warnings.warn(message, RuntimeWarning)\n",
      "/usr/local/lib/python3.6/dist-packages/metar/Metar.py:437: RuntimeWarning: Unparsed groups in body 'WS R10' while processing 'SPECI RCSS 301223Z 01012G23KT 310V090 3000 SHRA FEW006 BKN020 BKN040 25/23 Q0999 WS R10 TEMPO 1500 RMK A2952(H)=   \n",
      "'\n",
      "  warnings.warn(message, RuntimeWarning)\n",
      "/usr/local/lib/python3.6/dist-packages/metar/Metar.py:437: RuntimeWarning: Unparsed groups in body 'WS R10' while processing 'METAR RCSS 301230Z 01011G21KT 290V090 3000 SHRA FEW006 BKN020 BKN040 25/23 Q0999 WS R10 TEMPO 1500 RMK A2952(I)=   \n",
      "'\n",
      "  warnings.warn(message, RuntimeWarning)\n",
      "/usr/local/lib/python3.6/dist-packages/metar/Metar.py:437: RuntimeWarning: Unparsed groups in body 'WS R10' while processing 'METAR RCSS 301300Z 35010G24KT 290V050 4000 SHRA FEW006 BKN020 BKN040 25/22 Q0999 WS R10 TEMPO 3000 RMK QFF 998.9HPA A2950 RA AMT 6.0MM(J)=   \n",
      "'\n",
      "  warnings.warn(message, RuntimeWarning)\n",
      "/usr/local/lib/python3.6/dist-packages/metar/Metar.py:437: RuntimeWarning: Unparsed groups in body 'WS R10' while processing 'METAR RCSS 301330Z 07007KT 360V100 4000 SHRA FEW006 BKN020 BKN040 25/22 Q0998 WS R10 TEMPO 3000 RMK A2949(K)=   \n",
      "'\n",
      "  warnings.warn(message, RuntimeWarning)\n",
      "/usr/local/lib/python3.6/dist-packages/metar/Metar.py:437: RuntimeWarning: Unparsed groups in body 'WS R10' while processing 'SPECI RCSS 301501Z 29018G37KT 260V320 2000 +SHRA SCT006 BKN018 BKN035 23/23 Q0996 WS R10 TEMPO 3000 RMK A2942(R)=   \n",
      "'\n",
      "  warnings.warn(message, RuntimeWarning)\n",
      "/usr/local/lib/python3.6/dist-packages/metar/Metar.py:437: RuntimeWarning: Unparsed groups in body 'WS R10' while processing 'SPECI RCSS 301516Z 29016G26KT 260V320 2000 +SHRA SCT006 BKN018 BKN035 23/23 Q0996 WS R10 TEMPO 3000 RMK A2942(S)=   \n",
      "'\n",
      "  warnings.warn(message, RuntimeWarning)\n",
      "/usr/local/lib/python3.6/dist-packages/metar/Metar.py:437: RuntimeWarning: Unparsed groups in body 'WS R10' while processing 'METAR RCSS 301530Z 28018G30KT 260V320 1600 +SHRA SCT006 BKN018 BKN035 24/23 Q0995 WS R10 TEMPO 3000 SHRA RMK A2941(T)=   \n",
      "'\n",
      "  warnings.warn(message, RuntimeWarning)\n",
      "/usr/local/lib/python3.6/dist-packages/metar/Metar.py:437: RuntimeWarning: Unparsed groups in body 'WS R10' while processing 'METAR RCSS 301600Z 28017G29KT 250V310 2000 +SHRA SCT006 BKN018 BKN035 24/23 Q0996 WS R10 TEMPO 3000 SHRA RMK QFF 996.2HPA A2942 RA AMT 18.4MM(U)=   \n",
      "'\n",
      "  warnings.warn(message, RuntimeWarning)\n",
      "/usr/local/lib/python3.6/dist-packages/metar/Metar.py:437: RuntimeWarning: Unparsed groups in body 'WS R10' while processing 'SPECI RCSS 301633Z 27015G25KT 3000 SHRA FEW006 BKN018 BKN040 24/24 Q0997 WS R10 NOSIG RMK A2946(V)=   \n",
      "'\n",
      "  warnings.warn(message, RuntimeWarning)\n",
      "/usr/local/lib/python3.6/dist-packages/metar/Metar.py:437: RuntimeWarning: Unparsed groups in body 'WS R10' while processing 'METAR RCSS 301700Z 27021G31KT 3000 SHRA FEW006 BKN020 BKN040 24/24 Q0998 WS R10 NOSIG RMK QFF 997.9HPA A2947 RA AMT 5.8MM(W)=   \n",
      "'\n",
      "  warnings.warn(message, RuntimeWarning)\n",
      "/usr/local/lib/python3.6/dist-packages/metar/Metar.py:437: RuntimeWarning: Unparsed groups in body 'WS R10' while processing 'SPECI RCSS 301733Z 28020G32KT 5000 -SHRA FEW006 BKN018 BKN035 25/23 Q0998 RESHRA WS R10 NOSIG RMK A2949(X)=   \n",
      "'\n",
      "  warnings.warn(message, RuntimeWarning)\n",
      "/usr/local/lib/python3.6/dist-packages/metar/Metar.py:437: RuntimeWarning: Unparsed groups in body 'WS R10' while processing 'METAR RCSS 301800Z 28017G31KT 5000 -SHRA FEW006 BKN016 BKN035 25/23 Q0999 RESHRA WS R10 TEMPO 3000 SHRA RMK QFF 998.9HPA A2950 RA AMT 0.8MM(Y)=   \n",
      "'\n",
      "  warnings.warn(message, RuntimeWarning)\n",
      "/usr/local/lib/python3.6/dist-packages/metar/Metar.py:437: RuntimeWarning: Unparsed groups in body 'WS R10' while processing 'METAR RCSS 301900Z 26016KT 9999 -SHRA FEW008 BKN018 BKN035 25/23 Q0999 WS R10 TEMPO 3000 SHRA RMK QFF 999.6HPA A2952 RA AMT 0.6MM(Z)=   \n",
      "'\n",
      "  warnings.warn(message, RuntimeWarning)\n",
      "/usr/local/lib/python3.6/dist-packages/metar/Metar.py:437: RuntimeWarning: Unparsed groups in body 'WS R10' while processing 'METAR RCSS 302000Z 25013KT 7000 -SHRA SCT008 BKN016 BKN035 24/23 Q1000 WS R10 NOSIG RMK QFF 1000.6HPA A2955 RA AMT 0.6MM(A)=   \n",
      "'\n",
      "  warnings.warn(message, RuntimeWarning)\n",
      "/usr/local/lib/python3.6/dist-packages/metar/Metar.py:437: RuntimeWarning: Unparsed groups in body 'WS R10' while processing 'METAR RCSS 302100Z 26014KT 8000 -SHRA FEW008 BKN016 BKN035 24/23 Q1002 WS R10 NOSIG RMK QFF 1002.3HPA A2960 RA AMT 1.4MM(B)=   \n",
      "'\n",
      "  warnings.warn(message, RuntimeWarning)\n",
      "/usr/local/lib/python3.6/dist-packages/metar/Metar.py:437: RuntimeWarning: Unparsed groups in body 'WS R10' while processing 'METAR RCSS 302200Z 27015KT 7000 -SHRA FEW008 BKN016 BKN035 24/23 Q1003 WS R10 NOSIG RMK QFF 1003.3HPA A2963 RA AMT 0.4MM(C)=   \n",
      "'\n",
      "  warnings.warn(message, RuntimeWarning)\n",
      "/usr/local/lib/python3.6/dist-packages/metar/Metar.py:437: RuntimeWarning: Unparsed groups in body 'WS R28' while processing 'SPECI RCSS 302201Z 27017KT 7000 -SHRA FEW008 BKN015 BKN035 24/23 Q1003 WS R28 NOSIG RMK 27014KT/R10 A2964(D)=   \n",
      "'\n",
      "  warnings.warn(message, RuntimeWarning)\n",
      "/usr/local/lib/python3.6/dist-packages/metar/Metar.py:437: RuntimeWarning: Unparsed groups in body 'WS R28' while processing 'SPECI RCSS 302221Z 27015KT 5000 -SHRA FEW006 BKN012 BKN030 24/23 Q1004 WS R28 NOSIG RMK 27013KT/R10 A2965(E)=   \n",
      "'\n",
      "  warnings.warn(message, RuntimeWarning)\n",
      "/usr/local/lib/python3.6/dist-packages/metar/Metar.py:437: RuntimeWarning: Unparsed groups in body 'WS R28' while processing 'METAR RCSS 302230Z 27016KT 5000 -SHRA FEW006 BKN012 BKN030 24/23 Q1004 WS R28 NOSIG RMK 27014KT/R10 A2966(F)=   \n",
      "'\n",
      "  warnings.warn(message, RuntimeWarning)\n",
      "/usr/local/lib/python3.6/dist-packages/metar/Metar.py:437: RuntimeWarning: Unparsed groups in body 'WS R28' while processing 'SPECI RCSS 010050Z 26014G24KT 9999 VCSH FEW008 BKN018 BKN045 26/24 Q1007 WS R28 NOSIG RMK 26014KT/R10 A2974(L)=   \n",
      "'\n",
      "  warnings.warn(message, RuntimeWarning)\n",
      "/usr/local/lib/python3.6/dist-packages/metar/Metar.py:437: RuntimeWarning: Unparsed groups in body 'WS R28' while processing 'METAR RCSS 010100Z 26015KT 9999 VCSH FEW008 SCT018 BKN045 27/24 Q1006 WS R28 NOSIG RMK 26014KT/R10 QFF 1006.7HPA A2973(M)=   \n",
      "'\n",
      "  warnings.warn(message, RuntimeWarning)\n",
      "/usr/local/lib/python3.6/dist-packages/metar/Metar.py:437: RuntimeWarning: Unparsed groups in body 'WS R28' while processing 'METAR RCSS 010130Z 27019KT 9999 FEW015 SCT050 BKN250 28/24 Q1007 WS R28 NOSIG RMK 26016KT/R10 A2974(N)=   \n",
      "'\n",
      "  warnings.warn(message, RuntimeWarning)\n",
      "/usr/local/lib/python3.6/dist-packages/metar/Metar.py:437: RuntimeWarning: Unparsed groups in body 'WS R28' while processing 'METAR RCSS 010200Z 27021KT 9999 FEW020 SCT060 BKN250 29/23 Q1006 WS R28 NOSIG RMK 27016KT/R10 QFF 1006.4HPA A2972(O)=   \n",
      "'\n",
      "  warnings.warn(message, RuntimeWarning)\n",
      "/usr/local/lib/python3.6/dist-packages/metar/Metar.py:437: RuntimeWarning: Unparsed groups in body 'WS R28' while processing 'METAR RCSS 010230Z 27023KT 9999 FEW020 SCT060 BKN250 29/23 Q1006 WS R28 NOSIG RMK 26015G25KT/R10 A2972(P)=   \n",
      "'\n",
      "  warnings.warn(message, RuntimeWarning)\n",
      "/usr/local/lib/python3.6/dist-packages/metar/Metar.py:437: RuntimeWarning: Unparsed groups in body 'WS R28' while processing 'METAR RCSS 010300Z 26022G32KT 9999 FEW020 SCT060 BKN250 30/22 Q1006 WS R28 NOSIG RMK 25017KT/R10 A2971(Q)=   \n",
      "'\n",
      "  warnings.warn(message, RuntimeWarning)\n",
      "/usr/local/lib/python3.6/dist-packages/metar/Metar.py:437: RuntimeWarning: Unparsed groups in body 'WS R28' while processing 'METAR RCSS 010330Z 26021KT 9999 FEW020 SCT060 BKN250 32/23 Q1005 WS R28 NOSIG RMK 26019KT/R10 A2970(R)=   \n",
      "'\n",
      "  warnings.warn(message, RuntimeWarning)\n",
      "/usr/local/lib/python3.6/dist-packages/metar/Metar.py:437: RuntimeWarning: Unparsed groups in body 'WS R28' while processing 'METAR RCSS 010400Z 26020G30KT 9999 FEW020 SCT080 BKN250 32/22 Q1005 WS R28 NOSIG RMK 25019KT/R10 A2970(S)=   \n",
      "'\n",
      "  warnings.warn(message, RuntimeWarning)\n",
      "/usr/local/lib/python3.6/dist-packages/metar/Metar.py:437: RuntimeWarning: Unparsed groups in body 'WS R28' while processing 'METAR RCSS 010430Z 26021G31KT 9999 FEW020 SCT080 BKN250 32/22 Q1005 WS R28 NOSIG RMK 25017G28KT/R10 A2970(T)=   \n",
      "'\n",
      "  warnings.warn(message, RuntimeWarning)\n",
      "/usr/local/lib/python3.6/dist-packages/metar/Metar.py:437: RuntimeWarning: Unparsed groups in body 'WS R28' while processing 'METAR RCSS 010500Z 26018KT 9999 FEW025 SCT120 BKN250 33/22 Q1005 WS R28 NOSIG RMK 26013KT/R10 A2969(U)=   \n",
      "'\n",
      "  warnings.warn(message, RuntimeWarning)\n",
      "/usr/local/lib/python3.6/dist-packages/metar/Metar.py:437: RuntimeWarning: Unparsed groups in body 'WS R28' while processing 'METAR RCSS 010530Z 26018KT 9999 FEW025 SCT120 BKN300 33/22 Q1005 WS R28 NOSIG RMK 25015KT/R10 A2969(V)=   \n",
      "'\n",
      "  warnings.warn(message, RuntimeWarning)\n",
      "/usr/local/lib/python3.6/dist-packages/metar/Metar.py:437: RuntimeWarning: Unparsed groups in body 'WS R28' while processing 'SPECI RCSS 010658Z 27018KT 9999 FEW025 SCT150 BKN300 33/21 Q1005 WS R28 NOSIG RMK 26014KT/R10 A2970(Z)=   \n",
      "'\n",
      "  warnings.warn(message, RuntimeWarning)\n",
      "/usr/local/lib/python3.6/dist-packages/metar/Metar.py:437: RuntimeWarning: Unparsed groups in body 'WS R28' while processing 'METAR RCSS 010700Z 27018KT 9999 FEW025 SCT150 BKN300 33/21 Q1005 WS R28 NOSIG RMK 26013KT/R10 A2970(A)=   \n",
      "'\n",
      "  warnings.warn(message, RuntimeWarning)\n",
      "/usr/local/lib/python3.6/dist-packages/metar/Metar.py:437: RuntimeWarning: Unparsed groups in body 'WS R28' while processing 'SPECI RCSS 020707Z 33007KT 290V360 9999 FEW020 33/25 Q1009 WS R28 NOSIG RMK 32007KT/R10 A2982(T)=   \n",
      "'\n",
      "  warnings.warn(message, RuntimeWarning)\n",
      "/usr/local/lib/python3.6/dist-packages/metar/Metar.py:437: RuntimeWarning: Unparsed groups in body 'WS R28' while processing 'METAR RCSS 020730Z 35006KT 300V030 9000 FEW020 33/25 Q1010 WS R28 NOSIG RMK 32006KT/R10 A2983(U)=   \n",
      "'\n",
      "  warnings.warn(message, RuntimeWarning)\n",
      "/usr/local/lib/python3.6/dist-packages/metar/Metar.py:437: RuntimeWarning: Unparsed groups in body 'WS R10' while processing 'SPECI RCSS 030633Z 09008KT 9000 FEW030 32/25 Q1010 WS R10 NOSIG RMK A2985(L)=   \n",
      "'\n",
      "  warnings.warn(message, RuntimeWarning)\n",
      "/usr/local/lib/python3.6/dist-packages/metar/Metar.py:437: RuntimeWarning: Unparsed groups in body 'WS R10' while processing 'METAR RCSS 030700Z 10011KT 9000 FEW020 FEW025TCU SCT035 31/26 Q1010 WS R10 NOSIG RMK TCU SW A2985(M)=   \n",
      "'\n",
      "  warnings.warn(message, RuntimeWarning)\n",
      "/usr/local/lib/python3.6/dist-packages/metar/Metar.py:437: RuntimeWarning: Unparsed groups in body 'WS R10' while processing 'METAR RCSS 030730Z 10013KT 9999 FEW020 SCT035 31/26 Q1011 WS R10 NOSIG RMK A2986(N)=   \n",
      "'\n",
      "  warnings.warn(message, RuntimeWarning)\n",
      "/usr/local/lib/python3.6/dist-packages/metar/Metar.py:437: RuntimeWarning: Unparsed groups in body 'WS R10' while processing 'METAR RCSS 030800Z 09011KT 050V110 9999 FEW020 SCT035 31/25 Q1011 WS R10 NOSIG RMK A2986(O)=   \n",
      "'\n",
      "  warnings.warn(message, RuntimeWarning)\n",
      "/usr/local/lib/python3.6/dist-packages/metar/Metar.py:437: RuntimeWarning: Unparsed groups in body 'WS R10' while processing 'SPECI RCSS 050831Z 08016KT 9999 FEW022 31/22 Q1012 WS R10 NOSIG RMK A2991(Y)=   \n",
      "'\n",
      "  warnings.warn(message, RuntimeWarning)\n",
      "/usr/local/lib/python3.6/dist-packages/metar/Metar.py:437: RuntimeWarning: Unparsed groups in body 'WS R10' while processing 'SPECI RCSS 060602Z 08018KT 9999 FEW020 31/22 Q1014 WS R10 NOSIG RMK A2996(L)=   \n",
      "'\n",
      "  warnings.warn(message, RuntimeWarning)\n",
      "/usr/local/lib/python3.6/dist-packages/metar/Metar.py:437: RuntimeWarning: Unparsed groups in body 'WS R10' while processing 'SPECI RCSS 080142Z 07013G24KT 030V100 9999 FEW020 SCT040 29/22 Q1018 WS R10 NOSIG RMK A3006(J)=   \n",
      "'\n",
      "  warnings.warn(message, RuntimeWarning)\n",
      "/usr/local/lib/python3.6/dist-packages/metar/Metar.py:437: RuntimeWarning: Unparsed groups in body 'WS R10' while processing 'METAR RCSS 080200Z 07013KT 040V100 9999 FEW018 SCT040 30/22 Q1017 WS R10 NOSIG RMK A3005(K)=   \n",
      "'\n",
      "  warnings.warn(message, RuntimeWarning)\n",
      "/usr/local/lib/python3.6/dist-packages/metar/Metar.py:437: RuntimeWarning: Unparsed groups in body 'WS R10' while processing 'SPECI RCSS 080531Z 06014KT 9999 FEW025 SCT035 30/22 Q1015 WS R10 NOSIG RMK A3000(T)=   \n",
      "'\n",
      "  warnings.warn(message, RuntimeWarning)\n",
      "/usr/local/lib/python3.6/dist-packages/metar/Metar.py:437: RuntimeWarning: Unparsed groups in body 'WS R10' while processing 'METAR RCSS 080600Z 07016G27KT 020V110 9999 FEW025 SCT040 29/22 Q1015 WS R10 NOSIG RMK A3000(U)=   \n",
      "'\n",
      "  warnings.warn(message, RuntimeWarning)\n",
      "/usr/local/lib/python3.6/dist-packages/metar/Metar.py:437: RuntimeWarning: Unparsed groups in body 'WS R10' while processing 'METAR RCSS 080630Z 07016G27KT 020V110 9999 FEW025 SCT040 29/22 Q1015 WS R10 NOSIG RMK A3000(V)=   \n",
      "'\n",
      "  warnings.warn(message, RuntimeWarning)\n",
      "/usr/local/lib/python3.6/dist-packages/metar/Metar.py:437: RuntimeWarning: Unparsed groups in body 'WS R10' while processing 'METAR RCSS 080700Z 08014G26KT 040V110 9999 FEW025 SCT045 29/22 Q1015 WS R10 NOSIG RMK A3000(W)=   \n",
      "'\n",
      "  warnings.warn(message, RuntimeWarning)\n",
      "/usr/local/lib/python3.6/dist-packages/metar/Metar.py:437: RuntimeWarning: Unparsed groups in body 'WS R10' while processing 'SPECI RCSS 090445Z 08016KT 050V110 9999 FEW010 SCT060 30/22 Q1014 WS R10 NOSIG RMK A2995(K)=   \n",
      "'\n",
      "  warnings.warn(message, RuntimeWarning)\n",
      "/usr/local/lib/python3.6/dist-packages/metar/Metar.py:437: RuntimeWarning: Unparsed groups in body 'WS R10' while processing 'METAR RCSS 090500Z 08015KT 040V100 9999 FEW012 30/22 Q1014 WS R10 NOSIG RMK A2995(L)=   \n",
      "'\n",
      "  warnings.warn(message, RuntimeWarning)\n",
      "/usr/local/lib/python3.6/dist-packages/metar/Metar.py:437: RuntimeWarning: Unparsed groups in body 'WS R10' while processing 'SPECI RCSS 090719Z 07013KT 9999 FEW020 28/22 Q1013 WS R10 NOSIG RMK A2993(R)=   \n",
      "'\n",
      "  warnings.warn(message, RuntimeWarning)\n",
      "/usr/local/lib/python3.6/dist-packages/metar/Metar.py:437: RuntimeWarning: Unparsed groups in body 'WS R10' while processing 'METAR RCSS 090730Z 07013KT 010V090 9999 FEW020 28/22 Q1013 WS R10 NOSIG RMK A2993(S)=   \n",
      "'\n",
      "  warnings.warn(message, RuntimeWarning)\n",
      "/usr/local/lib/python3.6/dist-packages/metar/Metar.py:437: RuntimeWarning: Unparsed groups in body 'WS R10' while processing 'SPECI RCSS 140639Z 06010KT 360V110 9999 FEW020 SCT035 BKN060 28/18 Q1019 WS R10 NOSIG RMK A3010(B)=   \n",
      "'\n",
      "  warnings.warn(message, RuntimeWarning)\n",
      "/usr/local/lib/python3.6/dist-packages/metar/Metar.py:437: RuntimeWarning: Unparsed groups in body 'WS R10' while processing 'METAR RCSS 140700Z 05008KT 9999 FEW020 SCT035 28/18 Q1019 WS R10 NOSIG RMK A3011(C)=   \n",
      "'\n",
      "  warnings.warn(message, RuntimeWarning)\n",
      "/usr/local/lib/python3.6/dist-packages/metar/Metar.py:437: RuntimeWarning: Unparsed groups in body 'WS R10' while processing 'SPECI RCSS 140832Z 07010KT 020V110 9999 FEW020 SCT035 27/19 Q1020 WS R10 NOSIG RMK A3013(H)=   \n",
      "'\n",
      "  warnings.warn(message, RuntimeWarning)\n",
      "/usr/local/lib/python3.6/dist-packages/metar/Metar.py:437: RuntimeWarning: Unparsed groups in body 'WS R10' while processing 'METAR RCSS 140900Z 05008G19KT 360V100 9999 FEW020 SCT035 26/18 Q1020 WS R10 NOSIG RMK A3013(I)=   \n",
      "'\n",
      "  warnings.warn(message, RuntimeWarning)\n",
      "/usr/local/lib/python3.6/dist-packages/metar/Metar.py:437: RuntimeWarning: Unparsed groups in body 'WS R10' while processing 'SPECI RCSS 150028Z 08016KT 040V120 9999 FEW015 SCT030 26/18 Q1022 WS R10 NOSIG RMK A3020(M)=   \n",
      "'\n",
      "  warnings.warn(message, RuntimeWarning)\n",
      "/usr/local/lib/python3.6/dist-packages/metar/Metar.py:437: RuntimeWarning: Unparsed groups in body 'WS R10' while processing 'METAR RCSS 150030Z 08016KT 040V100 9999 FEW015 SCT030 25/18 Q1022 WS R10 NOSIG RMK A3020(N)=   \n",
      "'\n",
      "  warnings.warn(message, RuntimeWarning)\n",
      "/usr/local/lib/python3.6/dist-packages/metar/Metar.py:437: RuntimeWarning: Unparsed groups in body 'WS R10' while processing 'METAR RCSS 150100Z 07016G27KT 030V100 9999 FEW015 SCT035 26/16 Q1023 WS R10 NOSIG RMK A3021(O)=   \n",
      "'\n",
      "  warnings.warn(message, RuntimeWarning)\n",
      "/usr/local/lib/python3.6/dist-packages/metar/Metar.py:437: RuntimeWarning: Unparsed groups in body 'WS R10' while processing 'METAR RCSS 150300Z 07013G26KT 030V110 9999 FEW018 SCT040 BKN060 26/17 Q1022 WS R10 NOSIG RMK A3020(T)=   \n",
      "'\n",
      "  warnings.warn(message, RuntimeWarning)\n",
      "/usr/local/lib/python3.6/dist-packages/metar/Metar.py:437: RuntimeWarning: Unparsed groups in body 'WS R10' while processing 'METAR RCSS 150330Z 07014G24KT 010V100 9999 FEW018 SCT040 26/17 Q1022 WS R10 NOSIG RMK A3019(U)=   \n",
      "'\n",
      "  warnings.warn(message, RuntimeWarning)\n",
      "/usr/local/lib/python3.6/dist-packages/metar/Metar.py:437: RuntimeWarning: Unparsed groups in body 'WS R10' while processing 'METAR RCSS 150400Z 06012KT 020V100 9999 FEW015 SCT035 28/18 Q1022 WS R10 NOSIG RMK A3018(V)=   \n",
      "'\n",
      "  warnings.warn(message, RuntimeWarning)\n"
     ]
    },
    {
     "name": "stderr",
     "output_type": "stream",
     "text": [
      "/usr/local/lib/python3.6/dist-packages/metar/Metar.py:437: RuntimeWarning: Unparsed groups in body 'WS R10' while processing 'SPECI RCSS 310802Z 08012KT 040V100 9999 -RA FEW007 SCT028 BKN050 24/22 Q1015 WS R10 NOSIG RMK A3000(H)=   \n",
      "'\n",
      "  warnings.warn(message, RuntimeWarning)\n",
      "/usr/local/lib/python3.6/dist-packages/metar/Metar.py:437: RuntimeWarning: Unparsed groups in body 'WS R10' while processing 'METAR RCSS 310830Z 08014KT 9000 -RA FEW007 BKN020 BKN038 24/22 Q1016 WS R10 NOSIG RMK A3001(I)=   \n",
      "'\n",
      "  warnings.warn(message, RuntimeWarning)\n",
      "/usr/local/lib/python3.6/dist-packages/metar/Metar.py:437: RuntimeWarning: Unparsed groups in body 'WS R10' while processing 'SPECI RCSS 310848Z 08013KT 5000 -RA FEW007 BKN018 BKN035 24/22 Q1016 WS R10 NOSIG RMK A3001(J)=   \n",
      "'\n",
      "  warnings.warn(message, RuntimeWarning)\n",
      "/usr/local/lib/python3.6/dist-packages/metar/Metar.py:437: RuntimeWarning: Unparsed groups in body 'WS R10' while processing 'SPECI RCSS 010318Z 08015KT 9999 FEW012 BKN028 BKN060 26/20 Q1017 WS R10 NOSIG RMK A3004(X)=   \n",
      "'\n",
      "  warnings.warn(message, RuntimeWarning)\n",
      "/usr/local/lib/python3.6/dist-packages/metar/Metar.py:437: RuntimeWarning: Unparsed groups in body 'WS R10' while processing 'METAR RCSS 010330Z 08016KT 9999 FEW012 BKN028 BKN060 26/21 Q1016 WS R10 NOSIG RMK A3003(Y)=   \n",
      "'\n",
      "  warnings.warn(message, RuntimeWarning)\n",
      "/usr/local/lib/python3.6/dist-packages/metar/Metar.py:437: RuntimeWarning: Unparsed groups in body 'WS R10' while processing 'METAR RCSS 010530Z 07016KT 9999 FEW020 SCT035 BKN250 27/20 Q1015 WS R10 NOSIG RMK A2999(C)=   \n",
      "'\n",
      "  warnings.warn(message, RuntimeWarning)\n",
      "/usr/local/lib/python3.6/dist-packages/metar/Metar.py:437: RuntimeWarning: Unparsed groups in body 'WS R10' while processing 'METAR RCSS 010600Z 07016KT 040V110 9999 FEW020 SCT035 BKN250 27/20 Q1015 WS R10 NOSIG RMK A2999(D)=   \n",
      "'\n",
      "  warnings.warn(message, RuntimeWarning)\n",
      "/usr/local/lib/python3.6/dist-packages/metar/Metar.py:437: RuntimeWarning: Unparsed groups in body 'WS R10' while processing 'METAR RCSS 010630Z 08015KT 030V110 9999 FEW020 SCT035 BKN250 26/20 Q1015 WS R10 NOSIG RMK A2999(E)=   \n",
      "'\n",
      "  warnings.warn(message, RuntimeWarning)\n",
      "/usr/local/lib/python3.6/dist-packages/metar/Metar.py:437: RuntimeWarning: Unparsed groups in body 'WS R10' while processing 'METAR RCSS 010700Z 08015KT 9999 FEW025 BKN040 BKN180 26/20 Q1015 WS R10 NOSIG RMK A2999(F)=   \n",
      "'\n",
      "  warnings.warn(message, RuntimeWarning)\n",
      "/usr/local/lib/python3.6/dist-packages/metar/Metar.py:437: RuntimeWarning: Unparsed groups in body 'WS R10' while processing 'METAR RCSS 010730Z 08015KT 9999 FEW025 BKN040 BKN150 25/20 Q1015 WS R10 NOSIG RMK A2999(G)=   \n",
      "'\n",
      "  warnings.warn(message, RuntimeWarning)\n",
      "/usr/local/lib/python3.6/dist-packages/metar/Metar.py:437: RuntimeWarning: Unparsed groups in body 'WS R10' while processing 'SPECI RCSS 020638Z 08017KT 040V100 9999 FEW020 SCT060 27/21 Q1012 WS R10 NOSIG RMK A2991(V)=   \n",
      "'\n",
      "  warnings.warn(message, RuntimeWarning)\n",
      "/usr/local/lib/python3.6/dist-packages/metar/Metar.py:437: RuntimeWarning: Unparsed groups in body 'WS R10' while processing 'SPECI RCSS 060512Z 08013KT 040V110 9999 FEW025 SCT040 27/18 Q1010 WS R10 NOSIG RMK A2984(P)=   \n",
      "'\n",
      "  warnings.warn(message, RuntimeWarning)\n",
      "/usr/local/lib/python3.6/dist-packages/metar/Metar.py:437: RuntimeWarning: Unparsed groups in body 'WS R10' while processing 'METAR RCSS 060530Z 09015G25KT 9999 FEW020 SCT035 26/18 Q1010 WS R10 NOSIG RMK A2984(Q)=   \n",
      "'\n",
      "  warnings.warn(message, RuntimeWarning)\n",
      "/usr/local/lib/python3.6/dist-packages/metar/Metar.py:437: RuntimeWarning: Unparsed groups in body 'WS R10' while processing 'SPECI RCSS 060828Z 09015KT 9999 FEW025 SCT050 24/17 Q1010 WS R10 NOSIG RMK A2985(W)=   \n",
      "'\n",
      "  warnings.warn(message, RuntimeWarning)\n",
      "/usr/local/lib/python3.6/dist-packages/metar/Metar.py:437: RuntimeWarning: Unparsed groups in body 'WS R10' while processing 'METAR RCSS 060830Z 09015KT 9999 FEW025 SCT050 24/17 Q1010 WS R10 NOSIG RMK A2985(X)=   \n",
      "'\n",
      "  warnings.warn(message, RuntimeWarning)\n",
      "/usr/local/lib/python3.6/dist-packages/metar/Metar.py:437: RuntimeWarning: Unparsed groups in body 'WS R10' while processing 'SPECI RCSS 070225Z 07013KT 040V110 9999 FEW025 SCT200 27/20 Q1013 WS R10 NOSIG RMK A2993(B)=   \n",
      "'\n",
      "  warnings.warn(message, RuntimeWarning)\n",
      "/usr/local/lib/python3.6/dist-packages/metar/Metar.py:437: RuntimeWarning: Unparsed groups in body 'WS R10' while processing 'METAR RCSS 070230Z 07015KT 040V110 9999 FEW022 SCT200 27/19 Q1013 WS R10 NOSIG RMK A2994(C)=   \n",
      "'\n",
      "  warnings.warn(message, RuntimeWarning)\n",
      "/usr/local/lib/python3.6/dist-packages/metar/Metar.py:437: RuntimeWarning: Unparsed groups in body 'WS R10' while processing 'METAR RCSS 070300Z 07014KT 040V110 9999 FEW025 27/20 Q1013 WS R10 NOSIG RMK A2992(D)=   \n",
      "'\n",
      "  warnings.warn(message, RuntimeWarning)\n",
      "/usr/local/lib/python3.6/dist-packages/metar/Metar.py:437: RuntimeWarning: Unparsed groups in body 'WS R10' while processing 'SPECI RCSS 070511Z 08016KT 9999 FEW025 27/19 Q1012 WS R10 NOSIG RMK A2989(J)=   \n",
      "'\n",
      "  warnings.warn(message, RuntimeWarning)\n",
      "/usr/local/lib/python3.6/dist-packages/metar/Metar.py:437: RuntimeWarning: Unparsed groups in body 'WS R10' while processing 'METAR RCSS 070530Z 08016G26KT 040V100 9999 FEW025 SCT250 27/19 Q1012 WS R10 NOSIG RMK A2989(K)=   \n",
      "'\n",
      "  warnings.warn(message, RuntimeWarning)\n",
      "/usr/local/lib/python3.6/dist-packages/metar/Metar.py:437: RuntimeWarning: Unparsed groups in body 'WS R10' while processing 'SPECI RCSS 090315Z 08012KT 030V110 9999 FEW025 25/14 Q1020 WS R10 NOSIG RMK A3013(B)=   \n",
      "'\n",
      "  warnings.warn(message, RuntimeWarning)\n",
      "/usr/local/lib/python3.6/dist-packages/metar/Metar.py:437: RuntimeWarning: Unparsed groups in body 'WS R10' while processing 'METAR RCSS 090330Z 07011KT 020V100 9999 FEW022 25/14 Q1020 WS R10 NOSIG RMK A3013(C)=   \n",
      "'\n",
      "  warnings.warn(message, RuntimeWarning)\n",
      "/usr/local/lib/python3.6/dist-packages/metar/Metar.py:437: RuntimeWarning: Unparsed groups in body 'WS R10' while processing 'SPECI RCSS 090701Z 06013KT 9999 FEW025 24/13 Q1018 WS R10 NOSIG RMK A3006(K)=   \n",
      "'\n",
      "  warnings.warn(message, RuntimeWarning)\n",
      "/usr/local/lib/python3.6/dist-packages/metar/Metar.py:437: RuntimeWarning: Unparsed groups in body 'WS R10' while processing 'METAR RCSS 090730Z 07013KT 030V090 9999 FEW025 23/13 Q1018 WS R10 NOSIG RMK A3006(L)=   \n",
      "'\n",
      "  warnings.warn(message, RuntimeWarning)\n",
      "/usr/local/lib/python3.6/dist-packages/metar/Metar.py:437: RuntimeWarning: Unparsed groups in body 'WS R10' while processing 'SPECI RCSS 130510Z 09009KT 9999 FEW025 SCT045 30/19 Q1016 WS R10 NOSIG RMK A3002(U)=   \n",
      "'\n",
      "  warnings.warn(message, RuntimeWarning)\n",
      "/usr/local/lib/python3.6/dist-packages/metar/Metar.py:437: RuntimeWarning: Unparsed groups in body 'WS R10' while processing 'METAR RCSS 130530Z 09010KT 9999 FEW025 29/19 Q1016 WS R10 NOSIG RMK A3002(V)=   \n",
      "'\n",
      "  warnings.warn(message, RuntimeWarning)\n",
      "/usr/local/lib/python3.6/dist-packages/metar/Metar.py:437: RuntimeWarning: Unparsed groups in body 'WS R10' while processing 'SPECI RCSS 150452Z 08015KT 040V110 9999 FEW030 25/15 Q1015 WS R10 NOSIG RMK A3000(H)=   \n",
      "'\n",
      "  warnings.warn(message, RuntimeWarning)\n",
      "/usr/local/lib/python3.6/dist-packages/metar/Metar.py:437: RuntimeWarning: Unparsed groups in body 'WS R10' while processing 'METAR RCSS 150500Z 09016KT 9999 FEW030 25/15 Q1015 WS R10 NOSIG RMK A3000(I)=   \n",
      "'\n",
      "  warnings.warn(message, RuntimeWarning)\n",
      "/usr/local/lib/python3.6/dist-packages/metar/Metar.py:437: RuntimeWarning: Unparsed groups in body 'WS R10' while processing 'METAR RCSS 150530Z 08015KT 9999 FEW030 25/15 Q1015 WS R10 NOSIG RMK A2999(J)=   \n",
      "'\n",
      "  warnings.warn(message, RuntimeWarning)\n",
      "/usr/local/lib/python3.6/dist-packages/metar/Metar.py:437: RuntimeWarning: Unparsed groups in body 'WS R10' while processing 'METAR RCSS 150600Z 08012KT 040V100 9999 FEW030 25/15 Q1015 WS R10 NOSIG RMK A2998(K)=   \n",
      "'\n",
      "  warnings.warn(message, RuntimeWarning)\n",
      "/usr/local/lib/python3.6/dist-packages/metar/Metar.py:437: RuntimeWarning: Unparsed groups in body 'WS R10' while processing 'METAR RCSS 150630Z 08011KT 9999 FEW030 SCT045 25/15 Q1015 WS R10 NOSIG RMK A2998(L)=   \n",
      "'\n",
      "  warnings.warn(message, RuntimeWarning)\n",
      "/usr/local/lib/python3.6/dist-packages/metar/Metar.py:437: RuntimeWarning: Unparsed groups in body 'WS R10' while processing 'SPECI RCSS 180448Z VRB12G24KT 4800 -RA FEW010 BKN016 BKN030 22/19 Q1016 WS R10 NOSIG RMK A3002(L)=   \n",
      "'\n",
      "  warnings.warn(message, RuntimeWarning)\n",
      "/usr/local/lib/python3.6/dist-packages/metar/Metar.py:437: RuntimeWarning: Unparsed groups in body 'WS R10' while processing 'METAR RCSS 180500Z 06011G21KT 010V120 4800 -RA FEW010 BKN016 BKN030 22/19 Q1016 WS R10 NOSIG RMK A3002(M)=   \n",
      "'\n",
      "  warnings.warn(message, RuntimeWarning)\n",
      "/usr/local/lib/python3.6/dist-packages/metar/Metar.py:437: RuntimeWarning: Unparsed groups in body 'WS R10' while processing 'SPECI RCSS 180522Z 07010G21KT 020V100 7000 -RA FEW010 BKN018 BKN030 22/19 Q1016 WS R10 NOSIG RMK A3003(N)=   \n",
      "'\n",
      "  warnings.warn(message, RuntimeWarning)\n",
      "/usr/local/lib/python3.6/dist-packages/metar/Metar.py:437: RuntimeWarning: Unparsed groups in body 'WS R10' while processing 'METAR RCSS 180530Z 06011G22KT 020V100 7000 -RA FEW010 BKN018 BKN030 22/19 Q1016 WS R10 NOSIG RMK A3003(O)=   \n",
      "'\n",
      "  warnings.warn(message, RuntimeWarning)\n",
      "/usr/local/lib/python3.6/dist-packages/metar/Metar.py:437: RuntimeWarning: Unparsed groups in body 'WS R10' while processing 'METAR RCSS 180600Z 07008KT 010V100 8000 -RA FEW010 BKN018 BKN030 22/19 Q1016 WS R10 NOSIG RMK A3003(Q)=   \n",
      "'\n",
      "  warnings.warn(message, RuntimeWarning)\n",
      "/usr/local/lib/python3.6/dist-packages/metar/Metar.py:437: RuntimeWarning: Unparsed groups in body 'WS R10' while processing 'METAR RCSS 180630Z 08011KT 040V100 8000 -RA FEW010 BKN018 BKN030 22/19 Q1016 WS R10 NOSIG RMK A3003(R)=   \n",
      "'\n",
      "  warnings.warn(message, RuntimeWarning)\n",
      "/usr/local/lib/python3.6/dist-packages/metar/Metar.py:437: RuntimeWarning: Unparsed groups in body 'WS R10' while processing 'METAR RCSS 180700Z 08010KT 030V100 8000 -RA FEW008 BKN018 BKN025 21/19 Q1016 WS R10 NOSIG RMK A3003(S)=   \n",
      "'\n",
      "  warnings.warn(message, RuntimeWarning)\n",
      "/usr/local/lib/python3.6/dist-packages/metar/Metar.py:437: RuntimeWarning: Unparsed groups in body 'WS R10' while processing 'METAR RCSS 180730Z 09010KT 040V130 8000 -RA FEW012 BKN025 BKN040 21/19 Q1017 WS R10 NOSIG RMK A3004(T)=   \n",
      "'\n",
      "  warnings.warn(message, RuntimeWarning)\n",
      "/usr/local/lib/python3.6/dist-packages/metar/Metar.py:437: RuntimeWarning: Unparsed groups in body 'WS R10' while processing 'METAR RCSS 180800Z 10012KT 8000 -RA FEW012 BKN025 BKN040 21/19 Q1017 WS R10 NOSIG RMK A3005(U)=   \n",
      "'\n",
      "  warnings.warn(message, RuntimeWarning)\n",
      "/usr/local/lib/python3.6/dist-packages/metar/Metar.py:437: RuntimeWarning: Unparsed groups in body 'WS R10' while processing 'SPECI RCSS 200626Z 09015KT 9999 VCSH FEW015 SCT025 BKN035 20/16 Q1020 WS R10 NOSIG RMK A3013(Z)=   \n",
      "'\n",
      "  warnings.warn(message, RuntimeWarning)\n",
      "/usr/local/lib/python3.6/dist-packages/metar/Metar.py:437: RuntimeWarning: Unparsed groups in body 'WS R10' while processing 'METAR RCSS 200630Z 09015KT 9999 VCSH FEW015 BKN025 BKN035 20/16 Q1020 WS R10 NOSIG RMK A3013(A)=   \n",
      "'\n",
      "  warnings.warn(message, RuntimeWarning)\n"
     ]
    },
    {
     "name": "stderr",
     "output_type": "stream",
     "text": [
      "/usr/local/lib/python3.6/dist-packages/metar/Metar.py:437: RuntimeWarning: Unparsed groups in body 'WS R10' while processing 'SPECI RCSS 270354Z 09019KT 9999 VCSH FEW008 SCT020 BKN100 23/18 Q1020 WS R10 NOSIG RMK A3014(M)=   \n",
      "'\n",
      "  warnings.warn(message, RuntimeWarning)\n",
      "/usr/local/lib/python3.6/dist-packages/metar/Metar.py:437: RuntimeWarning: Unparsed groups in body 'WS R10' while processing 'METAR RCSS 270400Z 09018KT 9999 VCSH FEW012 SCT020 BKN100 23/18 Q1020 WS R10 NOSIG RMK A3014(N)=   \n",
      "'\n",
      "  warnings.warn(message, RuntimeWarning)\n",
      "/usr/local/lib/python3.6/dist-packages/metar/Metar.py:437: RuntimeWarning: Unparsed groups in body 'WS R10' while processing 'SPECI RCSS 270418Z 08015KT 9999 FEW014 SCT025 BKN100 23/18 Q1020 WS R10 NOSIG RMK A3012(P)=   \n",
      "'\n",
      "  warnings.warn(message, RuntimeWarning)\n",
      "/usr/local/lib/python3.6/dist-packages/metar/Metar.py:437: RuntimeWarning: Unparsed groups in body 'WS R10' while processing 'METAR RCSS 270430Z 08016KT 9999 FEW014 SCT025 BKN100 23/18 Q1020 WS R10 NOSIG RMK A3012(Q)=   \n",
      "'\n",
      "  warnings.warn(message, RuntimeWarning)\n",
      "/usr/local/lib/python3.6/dist-packages/metar/Metar.py:437: RuntimeWarning: Unparsed groups in body 'WS R10' while processing 'METAR RCSS 270500Z 08015KT 9999 FEW014 BKN025 BKN100 23/18 Q1019 WS R10 NOSIG RMK A3011(R)=   \n",
      "'\n",
      "  warnings.warn(message, RuntimeWarning)\n",
      "/usr/local/lib/python3.6/dist-packages/metar/Metar.py:437: RuntimeWarning: Unparsed groups in body 'WS R10' while processing 'METAR RCSS 270530Z 08017KT 9999 FEW012 BKN025 BKN040 22/18 Q1019 WS R10 NOSIG RMK A3009(S)=   \n",
      "'\n",
      "  warnings.warn(message, RuntimeWarning)\n",
      "/usr/local/lib/python3.6/dist-packages/metar/Metar.py:437: RuntimeWarning: Unparsed groups in body 'WS R10' while processing 'SPECI RCSS 301121Z 10017KT 9999 FEW018 SCT035 22/17 Q1018 WS R10 NOSIG RMK A3007(Q)=   \n",
      "'\n",
      "  warnings.warn(message, RuntimeWarning)\n",
      "/usr/local/lib/python3.6/dist-packages/metar/Metar.py:437: RuntimeWarning: Unparsed groups in body 'WS R10' while processing 'METAR RCSS 301130Z 10018KT 9999 FEW018 22/17 Q1018 WS R10 NOSIG RMK A3007(R)=   \n",
      "'\n",
      "  warnings.warn(message, RuntimeWarning)\n",
      "/usr/local/lib/python3.6/dist-packages/metar/Metar.py:437: RuntimeWarning: Unparsed groups in body 'WS R10' while processing 'METAR RCSS 301200Z 09015KT 9999 FEW018 22/17 Q1018 WS R10 NOSIG RMK A3007(S)=   \n",
      "'\n",
      "  warnings.warn(message, RuntimeWarning)\n",
      "/usr/local/lib/python3.6/dist-packages/metar/Metar.py:437: RuntimeWarning: Unparsed groups in body 'WS R10' while processing 'SPECI RCSS 030805Z 07013KT 030V100 9999 FEW020 SCT035 BKN060 18/10 Q1023 WS R10 NOSIG RMK A3022(L)=   \n",
      "'\n",
      "  warnings.warn(message, RuntimeWarning)\n",
      "/usr/local/lib/python3.6/dist-packages/metar/Metar.py:437: RuntimeWarning: Unparsed groups in body 'WS R10' while processing 'SPECI RCSS 030827Z 07014KT 9999 -RA FEW020 SCT035 BKN060 18/10 Q1023 WS R10 NOSIG RMK A3022(M)=   \n",
      "'\n",
      "  warnings.warn(message, RuntimeWarning)\n",
      "/usr/local/lib/python3.6/dist-packages/metar/Metar.py:437: RuntimeWarning: Unparsed groups in body 'WS R10' while processing 'SPECI RCSS 031357Z 07015G25KT 9999 FEW020 SCT055 18/10 Q1025 WS R10 NOSIG RMK A3027(Z)=   \n",
      "'\n",
      "  warnings.warn(message, RuntimeWarning)\n",
      "/usr/local/lib/python3.6/dist-packages/metar/Metar.py:437: RuntimeWarning: Unparsed groups in body 'WS R10' while processing 'METAR RCSS 031400Z 07014G25KT 9999 FEW020 BKN055 18/10 Q1025 WS R10 NOSIG RMK A3027(A)=   \n",
      "'\n",
      "  warnings.warn(message, RuntimeWarning)\n",
      "/usr/local/lib/python3.6/dist-packages/metar/Metar.py:437: RuntimeWarning: Unparsed groups in body 'WS R10' while processing 'METAR RCSS 031430Z 07014KT 040V100 9999 FEW020 BKN050 18/10 Q1025 WS R10 NOSIG RMK A3027(B)=   \n",
      "'\n",
      "  warnings.warn(message, RuntimeWarning)\n",
      "/usr/local/lib/python3.6/dist-packages/metar/Metar.py:437: RuntimeWarning: Unparsed groups in body 'WS R10' while processing 'METAR RCSS 031500Z 08013KT 9999 FEW020 BKN050 18/10 Q1025 WS R10 NOSIG RMK A3027(C)=   \n",
      "'\n",
      "  warnings.warn(message, RuntimeWarning)\n",
      "/usr/local/lib/python3.6/dist-packages/metar/Metar.py:437: RuntimeWarning: Unparsed groups in body 'WS R10' while processing 'METAR RCSS 031530Z 07014KT 9999 FEW020 BKN050 18/10 Q1024 WS R10 NOSIG RMK A3026(D)=   \n",
      "'\n",
      "  warnings.warn(message, RuntimeWarning)\n",
      "/usr/local/lib/python3.6/dist-packages/metar/Metar.py:437: RuntimeWarning: Unparsed groups in body 'WS R10' while processing 'SPECI RCSS 040323Z 07012KT 030V090 9999 FEW025 BKN045 BKN060 19/10 Q1025 WS R10 NOSIG RMK A3029(W)=   \n",
      "'\n",
      "  warnings.warn(message, RuntimeWarning)\n",
      "/usr/local/lib/python3.6/dist-packages/metar/Metar.py:437: RuntimeWarning: Unparsed groups in body 'WS R10' while processing 'METAR RCSS 040330Z 07012KT 030V090 9999 FEW025 BKN045 BKN060 19/10 Q1025 WS R10 NOSIG RMK A3029(X)=   \n",
      "'\n",
      "  warnings.warn(message, RuntimeWarning)\n",
      "/usr/local/lib/python3.6/dist-packages/metar/Metar.py:437: RuntimeWarning: Unparsed groups in body 'WS R10' while processing 'METAR RCSS 040400Z 07010KT 030V100 9999 FEW025 BKN045 BKN060 19/10 Q1025 WS R10 NOSIG RMK A3028(Y)=   \n",
      "'\n",
      "  warnings.warn(message, RuntimeWarning)\n",
      "/usr/local/lib/python3.6/dist-packages/metar/Metar.py:437: RuntimeWarning: Unparsed groups in body 'WS R10' while processing 'METAR RCSS 120400Z 08018KT 9999 FEW025 22/11 Q1022 WS R10 NOSIG RMK A3019(N)=   \n",
      "'\n",
      "  warnings.warn(message, RuntimeWarning)\n",
      "/usr/local/lib/python3.6/dist-packages/metar/Metar.py:437: RuntimeWarning: Unparsed groups in body 'WS R10' while processing 'METAR RCSS 120430Z 08019KT 040V100 9999 FEW025 22/12 Q1022 WS R10 NOSIG RMK A3018(O)=   \n",
      "'\n",
      "  warnings.warn(message, RuntimeWarning)\n",
      "/usr/local/lib/python3.6/dist-packages/metar/Metar.py:437: RuntimeWarning: Unparsed groups in body 'WS R10' while processing 'SPECI RCSS 120619Z 08017KT 9999 FEW020 21/13 Q1021 WS R10 NOSIG RMK A3016(S)=   \n",
      "'\n",
      "  warnings.warn(message, RuntimeWarning)\n",
      "/usr/local/lib/python3.6/dist-packages/metar/Metar.py:437: RuntimeWarning: Unparsed groups in body 'WS R10' while processing 'METAR RCSS 120630Z 07016KT 9999 FEW020 21/13 Q1021 WS R10 NOSIG RMK A3015(T)=   \n",
      "'\n",
      "  warnings.warn(message, RuntimeWarning)\n",
      "/usr/local/lib/python3.6/dist-packages/metar/Metar.py:437: RuntimeWarning: Unparsed groups in body 'WS R10' while processing 'METAR RCSS 120700Z 08016KT 9999 FEW020 21/13 Q1021 WS R10 NOSIG RMK A3015(U)=   \n",
      "'\n",
      "  warnings.warn(message, RuntimeWarning)\n",
      "/usr/local/lib/python3.6/dist-packages/metar/Metar.py:437: RuntimeWarning: Unparsed groups in body 'WS R10' while processing 'SPECI RCSS 120721Z 08019KT 9999 FEW020 21/13 Q1021 WS R10 NOSIG RMK A3016(W)=   \n",
      "'\n",
      "  warnings.warn(message, RuntimeWarning)\n",
      "/usr/local/lib/python3.6/dist-packages/metar/Metar.py:437: RuntimeWarning: Unparsed groups in body 'WS R10' while processing 'METAR RCSS 120730Z 08017KT 9999 FEW025 21/13 Q1021 WS R10 NOSIG RMK A3016(X)=   \n",
      "'\n",
      "  warnings.warn(message, RuntimeWarning)\n",
      "/usr/local/lib/python3.6/dist-packages/metar/Metar.py:437: RuntimeWarning: Unparsed groups in body 'WS R10' while processing 'METAR RCSS 120800Z 08017KT 9999 FEW020 BKN035 20/13 Q1021 WS R10 NOSIG RMK A3017(Y)=   \n",
      "'\n",
      "  warnings.warn(message, RuntimeWarning)\n",
      "/usr/local/lib/python3.6/dist-packages/metar/Metar.py:437: RuntimeWarning: Unparsed groups in body 'WS R10' while processing 'SPECI RCSS 140447Z 07014G24KT 9999 FEW020 SCT035 BKN050 23/17 Q1022 WS R10 NOSIG RMK A3018(B)=   \n",
      "'\n",
      "  warnings.warn(message, RuntimeWarning)\n",
      "/usr/local/lib/python3.6/dist-packages/metar/Metar.py:437: RuntimeWarning: Unparsed groups in body 'WS R10' while processing 'METAR RCSS 140500Z 08015KT 9999 FEW018 SCT025 BKN040 22/17 Q1021 WS R10 NOSIG RMK A3017(C)=   \n",
      "'\n",
      "  warnings.warn(message, RuntimeWarning)\n",
      "/usr/local/lib/python3.6/dist-packages/metar/Metar.py:437: RuntimeWarning: Unparsed groups in body 'WS R10' while processing 'SPECI RCSS 200551Z 09015KT 9999 FEW006 SCT025 BKN050 20/17 Q1019 WS R10 NOSIG RMK A3009(B)=   \n",
      "'\n",
      "  warnings.warn(message, RuntimeWarning)\n",
      "/usr/local/lib/python3.6/dist-packages/metar/Metar.py:437: RuntimeWarning: Unparsed groups in body 'WS R10' while processing 'METAR RCSS 200600Z 09015KT 9999 FEW006 SCT025 BKN045 21/17 Q1019 WS R10 NOSIG RMK A3009(C)=   \n",
      "'\n",
      "  warnings.warn(message, RuntimeWarning)\n",
      "/usr/local/lib/python3.6/dist-packages/metar/Metar.py:437: RuntimeWarning: Unparsed groups in body 'WS R10' while processing 'SPECI RCSS 261304Z 08015KT 050V120 9999 FEW010 BKN022 BKN038 18/13 Q1021 WS R10 NOSIG RMK A3015(C)=   \n",
      "'\n",
      "  warnings.warn(message, RuntimeWarning)\n",
      "/usr/local/lib/python3.6/dist-packages/metar/Metar.py:437: RuntimeWarning: Unparsed groups in body 'WS R10' while processing 'METAR RCSS 261330Z 08015KT 9999 FEW014 BKN028 BKN045 18/13 Q1021 WS R10 NOSIG RMK A3015(D)=   \n",
      "'\n",
      "  warnings.warn(message, RuntimeWarning)\n",
      "/usr/local/lib/python3.6/dist-packages/metar/Metar.py:437: RuntimeWarning: Unparsed groups in body 'WS R10' while processing 'METAR RCSS 261400Z 08014KT 9999 FEW012 BKN024 BKN038 18/13 Q1021 WS R10 NOSIG RMK A3016(E)=   \n",
      "'\n",
      "  warnings.warn(message, RuntimeWarning)\n",
      "/usr/local/lib/python3.6/dist-packages/metar/Metar.py:437: RuntimeWarning: Unparsed groups in body 'WS R10' while processing 'METAR RCSS 261430Z 08014KT 9999 FEW012 BKN028 BKN040 17/13 Q1021 WS R10 NOSIG RMK A3016(F)=   \n",
      "'\n",
      "  warnings.warn(message, RuntimeWarning)\n",
      "/usr/local/lib/python3.6/dist-packages/metar/Metar.py:437: RuntimeWarning: Unparsed groups in body 'WS R10' while processing 'METAR RCSS 261500Z 08012G25KT 9999 FEW014 BKN025 BKN038 17/12 Q1021 WS R10 NOSIG RMK A3017(G)=   \n",
      "'\n",
      "  warnings.warn(message, RuntimeWarning)\n",
      "/usr/local/lib/python3.6/dist-packages/metar/Metar.py:437: RuntimeWarning: Unparsed groups in body 'WS R10' while processing 'SPECI RCSS 280029Z 09016KT 9999 FEW015 SCT030 BKN045 19/14 Q1022 WS R10 NOSIG RMK A3020(K)=   \n",
      "'\n",
      "  warnings.warn(message, RuntimeWarning)\n",
      "/usr/local/lib/python3.6/dist-packages/metar/Metar.py:437: RuntimeWarning: Unparsed groups in body 'WS R10' while processing 'METAR RCSS 280030Z 09015KT 9999 FEW015 SCT030 BKN045 19/14 Q1022 WS R10 NOSIG RMK A3020(L)=   \n",
      "'\n",
      "  warnings.warn(message, RuntimeWarning)\n",
      "/usr/local/lib/python3.6/dist-packages/metar/Metar.py:437: RuntimeWarning: Unparsed groups in body 'WS R10' while processing 'SPECI RCSS 280350Z 08017KT 9999 FEW010 SCT022 BKN035 21/15 Q1021 WS R10 NOSIG RMK A3016(S)=   \n",
      "'\n",
      "  warnings.warn(message, RuntimeWarning)\n",
      "/usr/local/lib/python3.6/dist-packages/metar/Metar.py:437: RuntimeWarning: Unparsed groups in body 'WS R10' while processing 'METAR RCSS 280400Z 07016KT 9999 FEW010 SCT020 BKN032 21/15 Q1021 WS R10 NOSIG RMK A3016(T)=   \n",
      "'\n",
      "  warnings.warn(message, RuntimeWarning)\n"
     ]
    }
   ],
   "source": [
    "data_file = open(\"Data.csv\", \"r\")\n",
    "data_file_output = open(\"DataOutput.csv\",\"w\")\n",
    "\n",
    "header = [ 'RawMessage', 'Type', 'StationID',\n",
    "            'Time','temperature',\n",
    "          'dewpt', 'wind', 'visibility',\n",
    "          'pressure','sky', 'Remark']\n",
    "\n",
    "data_file_output.write('\\t'.join(header) + '\\n')\n",
    "\n",
    "for data in data_file:\n",
    "    if data[7:12] == 'METAR':\n",
    "        data_file_output.write(data.replace('\\n','') + '\\t')\n",
    "        data_file_output.write('METAR' + '\\t')\n",
    "        try:\n",
    "            data_file_output.write(ConvertToCSV(data[7:]) + '\\n')\n",
    "        except :\n",
    "            data_file_output.write('\\n')\n",
    "    else : # SPECI\n",
    "        data_file_output.write(data.replace('\\n','') + '\\t')\n",
    "        data_file_output.write('SPECI' + '\\t')\n",
    "        try:\n",
    "            data_file_output.write(ConvertToCSV(data[7:]) + '\\n')\n",
    "        except :\n",
    "            data_file_output.write('\\n')\n",
    "    \n",
    "data_file.close()\n",
    "data_file_output.close()"
   ]
  },
  {
   "cell_type": "code",
   "execution_count": 12,
   "metadata": {},
   "outputs": [],
   "source": []
  },
  {
   "cell_type": "code",
   "execution_count": null,
   "metadata": {},
   "outputs": [],
   "source": []
  }
 ],
 "metadata": {
  "kernelspec": {
   "display_name": "Python 3",
   "language": "python",
   "name": "python3"
  },
  "language_info": {
   "codemirror_mode": {
    "name": "ipython",
    "version": 3
   },
   "file_extension": ".py",
   "mimetype": "text/x-python",
   "name": "python",
   "nbconvert_exporter": "python",
   "pygments_lexer": "ipython3",
   "version": "3.6.9"
  }
 },
 "nbformat": 4,
 "nbformat_minor": 2
}
